{
"type": "FeatureCollection",
"name": "borehole_traces",
"crs": { "type": "name", "properties": { "name": "urn:ogc:def:crs:OGC:1.3:CRS84" } },
"features": [
{ "type": "Feature", "properties": { "Trace_ID": "NIGAHI-BH-001-TRACE", "Borehole_ID": "NIGAHI-BH-001", "Mine_ID": "M-NIGAHI", "Mine_Code": "NIGAHI", "Azimuth_deg": 142.9, "Inclination_deg": 84.8, "Total_Depth_m": 228.9, "Data_Type": "SYNTHETIC_DEMO", "Source_Provenance": "Synthetic borehole trace; 2D plan-view representation" }, "geometry": { "type": "LineString", "coordinates": [ [ 82.644026, 24.151783 ], [ 82.639006975564129, 24.155572579754022 ] ] } },
{ "type": "Feature", "properties": { "Trace_ID": "NIGAHI-BH-002-TRACE", "Borehole_ID": "NIGAHI-BH-002", "Mine_ID": "M-NIGAHI", "Mine_Code": "NIGAHI", "Azimuth_deg": 157.0, "Inclination_deg": 79.2, "Total_Depth_m": 207.2, "Data_Type": "SYNTHETIC_DEMO", "Source_Provenance": "Synthetic borehole trace; 2D plan-view representation" }, "geometry": { "type": "LineString", "coordinates": [ [ 82.655279, 24.132613 ], [ 82.649688078653696, 24.134981709036477 ] ] } },
{ "type": "Feature", "properties": { "Trace_ID": "NIGAHI-BH-003-TRACE", "Borehole_ID": "NIGAHI-BH-003", "Mine_ID": "M-NIGAHI", "Mine_Code": "NIGAHI", "Azimuth_deg": 28.0, "Inclination_deg": 76.3, "Total_Depth_m": 224.0, "Data_Type": "SYNTHETIC_DEMO", "Source_Provenance": "Synthetic borehole trace; 2D plan-view representation" }, "geometry": { "type": "LineString", "coordinates": [ [ 82.598516, 24.159717 ], [ 82.60402403068889, 24.162649438904779 ] ] } },
{ "type": "Feature", "properties": { "Trace_ID": "NIGAHI-BH-004-TRACE", "Borehole_ID": "NIGAHI-BH-004", "Mine_ID": "M-NIGAHI", "Mine_Code": "NIGAHI", "Azimuth_deg": 154.5, "Inclination_deg": 78.1, "Total_Depth_m": 117.9, "Data_Type": "SYNTHETIC_DEMO", "Source_Provenance": "Synthetic borehole trace; 2D plan-view representation" }, "geometry": { "type": "LineString", "coordinates": [ [ 82.620686, 24.167088 ], [ 82.616009864344207, 24.169314161792975 ] ] } },
{ "type": "Feature", "properties": { "Trace_ID": "NIGAHI-BH-005-TRACE", "Borehole_ID": "NIGAHI-BH-005", "Mine_ID": "M-NIGAHI", "Mine_Code": "NIGAHI", "Azimuth_deg": 230.5, "Inclination_deg": 75.8, "Total_Depth_m": 239.1, "Data_Type": "SYNTHETIC_DEMO", "Source_Provenance": "Synthetic borehole trace; 2D plan-view representation" }, "geometry": { "type": "LineString", "coordinates": [ [ 82.65233, 24.161193 ], [ 82.648260608220809, 24.156265025614175 ] ] } },
{ "type": "Feature", "properties": { "Trace_ID": "NIGAHI-BH-006-TRACE", "Borehole_ID": "NIGAHI-BH-006", "Mine_ID": "M-NIGAHI", "Mine_Code": "NIGAHI", "Azimuth_deg": 145.8, "Inclination_deg": 89.3, "Total_Depth_m": 93.4, "Data_Type": "SYNTHETIC_DEMO", "Source_Provenance": "Synthetic borehole trace; 2D plan-view representation" }, "geometry": { "type": "LineString", "coordinates": [ [ 82.643613, 24.149618 ], [ 82.639531621570967, 24.152390490959235 ] ] } },
{ "type": "Feature", "properties": { "Trace_ID": "NIGAHI-BH-007-TRACE", "Borehole_ID": "NIGAHI-BH-007", "Mine_ID": "M-NIGAHI", "Mine_Code": "NIGAHI", "Azimuth_deg": 61.9, "Inclination_deg": 89.0, "Total_Depth_m": 104.3, "Data_Type": "SYNTHETIC_DEMO", "Source_Provenance": "Synthetic borehole trace; 2D plan-view representation" }, "geometry": { "type": "LineString", "coordinates": [ [ 82.640863, 24.16252 ], [ 82.643240304586755, 24.166967501759611 ] ] } },
{ "type": "Feature", "properties": { "Trace_ID": "NIGAHI-BH-008-TRACE", "Borehole_ID": "NIGAHI-BH-008", "Mine_ID": "M-NIGAHI", "Mine_Code": "NIGAHI", "Azimuth_deg": 165.6, "Inclination_deg": 83.8, "Total_Depth_m": 113.4, "Data_Type": "SYNTHETIC_DEMO", "Source_Provenance": "Synthetic borehole trace; 2D plan-view representation" }, "geometry": { "type": "LineString", "coordinates": [ [ 82.61388, 24.147241 ], [ 82.608906517605462, 24.148514745999517 ] ] } },
{ "type": "Feature", "properties": { "Trace_ID": "NIGAHI-BH-009-TRACE", "Borehole_ID": "NIGAHI-BH-009", "Mine_ID": "M-NIGAHI", "Mine_Code": "NIGAHI", "Azimuth_deg": 130.3, "Inclination_deg": 78.7, "Total_Depth_m": 123.1, "Data_Type": "SYNTHETIC_DEMO", "Source_Provenance": "Synthetic borehole trace; 2D plan-view representation" }, "geometry": { "type": "LineString", "coordinates": [ [ 82.648174, 24.155379 ], [ 82.6447929431923, 24.159370467883264 ] ] } },
{ "type": "Feature", "properties": { "Trace_ID": "NIGAHI-BH-010-TRACE", "Borehole_ID": "NIGAHI-BH-010", "Mine_ID": "M-NIGAHI", "Mine_Code": "NIGAHI", "Azimuth_deg": 38.1, "Inclination_deg": 78.7, "Total_Depth_m": 136.8, "Data_Type": "SYNTHETIC_DEMO", "Source_Provenance": "Synthetic borehole trace; 2D plan-view representation" }, "geometry": { "type": "LineString", "coordinates": [ [ 82.648219, 24.136116 ], [ 82.652442646940699, 24.139429039468581 ] ] } },
{ "type": "Feature", "properties": { "Trace_ID": "NIGAHI-BH-011-TRACE", "Borehole_ID": "NIGAHI-BH-011", "Mine_ID": "M-NIGAHI", "Mine_Code": "NIGAHI", "Azimuth_deg": 144.2, "Inclination_deg": 71.6, "Total_Depth_m": 234.2, "Data_Type": "SYNTHETIC_DEMO", "Source_Provenance": "Synthetic borehole trace; 2D plan-view representation" }, "geometry": { "type": "LineString", "coordinates": [ [ 82.647939, 24.129781 ], [ 82.642797699110147, 24.133494218167581 ] ] } },
{ "type": "Feature", "properties": { "Trace_ID": "NIGAHI-BH-012-TRACE", "Borehole_ID": "NIGAHI-BH-012", "Mine_ID": "M-NIGAHI", "Mine_Code": "NIGAHI", "Azimuth_deg": 313.4, "Inclination_deg": 84.9, "Total_Depth_m": 212.6, "Data_Type": "SYNTHETIC_DEMO", "Source_Provenance": "Synthetic borehole trace; 2D plan-view representation" }, "geometry": { "type": "LineString", "coordinates": [ [ 82.60251, 24.145881 ], [ 82.606718227153721, 24.141429180122394 ] ] } }
]
}
