{
"type": "FeatureCollection",
"name": "borehole_intervals",
"crs": { "type": "name", "properties": { "name": "urn:ogc:def:crs:OGC:1.3:CRS84" } },
"features": [
{ "type": "Feature", "properties": { "Borehole_ID": "NIGAHI-BH-001", "Mine_ID": "M-NIGAHI", "Mine_Code": "NIGAHI", "Mine_Name": "Nigahi OCP", "Interval_No": 1, "From_Depth_m": 0.0, "To_Depth_m": 22.89, "Thickness_m": 22.89, "Lithology": "Shale", "Stratigraphic_Unit": "Underlying sedimentary sequence", "Coal_Bearing": "NO", "Coal_Seam": "", "Weathering_Class": "Moderate", "Sample_ID": "NIGAHI-001-S01", "Data_Type": "SYNTHETIC_DEMO", "Source_Provenance": "Synthetic borehole interval generated to match GeoVault demonstration corpus" }, "geometry": { "type": "Point", "coordinates": [ 82.644026, 24.151783 ] } },
{ "type": "Feature", "properties": { "Borehole_ID": "NIGAHI-BH-001", "Mine_ID": "M-NIGAHI", "Mine_Code": "NIGAHI", "Mine_Name": "Nigahi OCP", "Interval_No": 2, "From_Depth_m": 22.89, "To_Depth_m": 45.78, "Thickness_m": 22.89, "Lithology": "Interbedded Sandstone-Shale", "Stratigraphic_Unit": "Coal-bearing sequence", "Coal_Bearing": "NO", "Coal_Seam": "", "Weathering_Class": "Moderate", "Sample_ID": "NIGAHI-001-S02", "Data_Type": "SYNTHETIC_DEMO", "Source_Provenance": "Synthetic borehole interval generated to match GeoVault demonstration corpus" }, "geometry": { "type": "Point", "coordinates": [ 82.644026, 24.151783 ] } },
{ "type": "Feature", "properties": { "Borehole_ID": "NIGAHI-BH-001", "Mine_ID": "M-NIGAHI", "Mine_Code": "NIGAHI", "Mine_Name": "Nigahi OCP", "Interval_No": 3, "From_Depth_m": 45.78, "To_Depth_m": 68.67, "Thickness_m": 22.89, "Lithology": "Sandstone", "Stratigraphic_Unit": "Underlying sedimentary sequence", "Coal_Bearing": "NO", "Coal_Seam": "", "Weathering_Class": "Fresh", "Sample_ID": "NIGAHI-001-S03", "Data_Type": "SYNTHETIC_DEMO", "Source_Provenance": "Synthetic borehole interval generated to match GeoVault demonstration corpus" }, "geometry": { "type": "Point", "coordinates": [ 82.644026, 24.151783 ] } },
{ "type": "Feature", "properties": { "Borehole_ID": "NIGAHI-BH-001", "Mine_ID": "M-NIGAHI", "Mine_Code": "NIGAHI", "Mine_Name": "Nigahi OCP", "Interval_No": 4, "From_Depth_m": 68.67, "To_Depth_m": 91.56, "Thickness_m": 22.89, "Lithology": "Siltstone", "Stratigraphic_Unit": "Overburden", "Coal_Bearing": "NO", "Coal_Seam": "", "Weathering_Class": "Fresh", "Sample_ID": "NIGAHI-001-S04", "Data_Type": "SYNTHETIC_DEMO", "Source_Provenance": "Synthetic borehole interval generated to match GeoVault demonstration corpus" }, "geometry": { "type": "Point", "coordinates": [ 82.644026, 24.151783 ] } },
{ "type": "Feature", "properties": { "Borehole_ID": "NIGAHI-BH-001", "Mine_ID": "M-NIGAHI", "Mine_Code": "NIGAHI", "Mine_Name": "Nigahi OCP", "Interval_No": 5, "From_Depth_m": 91.56, "To_Depth_m": 114.45, "Thickness_m": 22.89, "Lithology": "Interbedded Sandstone-Shale", "Stratigraphic_Unit": "Overburden", "Coal_Bearing": "NO", "Coal_Seam": "", "Weathering_Class": "Fresh", "Sample_ID": "NIGAHI-001-S05", "Data_Type": "SYNTHETIC_DEMO", "Source_Provenance": "Synthetic borehole interval generated to match GeoVault demonstration corpus" }, "geometry": { "type": "Point", "coordinates": [ 82.644026, 24.151783 ] } },
{ "type": "Feature", "properties": { "Borehole_ID": "NIGAHI-BH-001", "Mine_ID": "M-NIGAHI", "Mine_Code": "NIGAHI", "Mine_Name": "Nigahi OCP", "Interval_No": 6, "From_Depth_m": 114.45, "To_Depth_m": 137.34, "Thickness_m": 22.89, "Lithology": "Carbonaceous Shale", "Stratigraphic_Unit": "Underlying sedimentary sequence", "Coal_Bearing": "NO", "Coal_Seam": "", "Weathering_Class": "Fresh", "Sample_ID": "NIGAHI-001-S06", "Data_Type": "SYNTHETIC_DEMO", "Source_Provenance": "Synthetic borehole interval generated to match GeoVault demonstration corpus" }, "geometry": { "type": "Point", "coordinates": [ 82.644026, 24.151783 ] } },
{ "type": "Feature", "properties": { "Borehole_ID": "NIGAHI-BH-001", "Mine_ID": "M-NIGAHI", "Mine_Code": "NIGAHI", "Mine_Name": "Nigahi OCP", "Interval_No": 7, "From_Depth_m": 137.34, "To_Depth_m": 160.23, "Thickness_m": 22.89, "Lithology": "Coal", "Stratigraphic_Unit": "Coal-bearing sequence", "Coal_Bearing": "YES", "Coal_Seam": "Purewa Merged", "Weathering_Class": "Fresh", "Sample_ID": "NIGAHI-001-S07", "Data_Type": "SYNTHETIC_DEMO", "Source_Provenance": "Synthetic borehole interval generated to match GeoVault demonstration corpus" }, "geometry": { "type": "Point", "coordinates": [ 82.644026, 24.151783 ] } },
{ "type": "Feature", "properties": { "Borehole_ID": "NIGAHI-BH-001", "Mine_ID": "M-NIGAHI", "Mine_Code": "NIGAHI", "Mine_Name": "Nigahi OCP", "Interval_No": 8, "From_Depth_m": 160.23, "To_Depth_m": 183.12, "Thickness_m": 22.89, "Lithology": "Shale", "Stratigraphic_Unit": "Coal-bearing sequence", "Coal_Bearing": "NO", "Coal_Seam": "", "Weathering_Class": "Fresh", "Sample_ID": "NIGAHI-001-S08", "Data_Type": "SYNTHETIC_DEMO", "Source_Provenance": "Synthetic borehole interval generated to match GeoVault demonstration corpus" }, "geometry": { "type": "Point", "coordinates": [ 82.644026, 24.151783 ] } },
{ "type": "Feature", "properties": { "Borehole_ID": "NIGAHI-BH-001", "Mine_ID": "M-NIGAHI", "Mine_Code": "NIGAHI", "Mine_Name": "Nigahi OCP", "Interval_No": 9, "From_Depth_m": 183.12, "To_Depth_m": 206.01, "Thickness_m": 22.89, "Lithology": "Shale", "Stratigraphic_Unit": "Barakar-equivalent demo unit", "Coal_Bearing": "NO", "Coal_Seam": "", "Weathering_Class": "Fresh", "Sample_ID": "NIGAHI-001-S09", "Data_Type": "SYNTHETIC_DEMO", "Source_Provenance": "Synthetic borehole interval generated to match GeoVault demonstration corpus" }, "geometry": { "type": "Point", "coordinates": [ 82.644026, 24.151783 ] } },
{ "type": "Feature", "properties": { "Borehole_ID": "NIGAHI-BH-001", "Mine_ID": "M-NIGAHI", "Mine_Code": "NIGAHI", "Mine_Name": "Nigahi OCP", "Interval_No": 10, "From_Depth_m": 206.01, "To_Depth_m": 228.9, "Thickness_m": 22.89, "Lithology": "Interbedded Sandstone-Shale", "Stratigraphic_Unit": "Coal-bearing sequence", "Coal_Bearing": "NO", "Coal_Seam": "", "Weathering_Class": "Fresh", "Sample_ID": "NIGAHI-001-S10", "Data_Type": "SYNTHETIC_DEMO", "Source_Provenance": "Synthetic borehole interval generated to match GeoVault demonstration corpus" }, "geometry": { "type": "Point", "coordinates": [ 82.644026, 24.151783 ] } },
{ "type": "Feature", "properties": { "Borehole_ID": "NIGAHI-BH-002", "Mine_ID": "M-NIGAHI", "Mine_Code": "NIGAHI", "Mine_Name": "Nigahi OCP", "Interval_No": 1, "From_Depth_m": 0.0, "To_Depth_m": 20.72, "Thickness_m": 20.72, "Lithology": "Shale", "Stratigraphic_Unit": "Overburden", "Coal_Bearing": "NO", "Coal_Seam": "", "Weathering_Class": "Slight", "Sample_ID": "NIGAHI-002-S01", "Data_Type": "SYNTHETIC_DEMO", "Source_Provenance": "Synthetic borehole interval generated to match GeoVault demonstration corpus" }, "geometry": { "type": "Point", "coordinates": [ 82.655279, 24.132613 ] } },
{ "type": "Feature", "properties": { "Borehole_ID": "NIGAHI-BH-002", "Mine_ID": "M-NIGAHI", "Mine_Code": "NIGAHI", "Mine_Name": "Nigahi OCP", "Interval_No": 2, "From_Depth_m": 20.72, "To_Depth_m": 41.44, "Thickness_m": 20.72, "Lithology": "Siltstone", "Stratigraphic_Unit": "Underlying sedimentary sequence", "Coal_Bearing": "NO", "Coal_Seam": "", "Weathering_Class": "Slight", "Sample_ID": "NIGAHI-002-S02", "Data_Type": "SYNTHETIC_DEMO", "Source_Provenance": "Synthetic borehole interval generated to match GeoVault demonstration corpus" }, "geometry": { "type": "Point", "coordinates": [ 82.655279, 24.132613 ] } },
{ "type": "Feature", "properties": { "Borehole_ID": "NIGAHI-BH-002", "Mine_ID": "M-NIGAHI", "Mine_Code": "NIGAHI", "Mine_Name": "Nigahi OCP", "Interval_No": 3, "From_Depth_m": 41.44, "To_Depth_m": 62.16, "Thickness_m": 20.72, "Lithology": "Carbonaceous Shale", "Stratigraphic_Unit": "Coal-bearing sequence", "Coal_Bearing": "NO", "Coal_Seam": "", "Weathering_Class": "Fresh", "Sample_ID": "NIGAHI-002-S03", "Data_Type": "SYNTHETIC_DEMO", "Source_Provenance": "Synthetic borehole interval generated to match GeoVault demonstration corpus" }, "geometry": { "type": "Point", "coordinates": [ 82.655279, 24.132613 ] } },
{ "type": "Feature", "properties": { "Borehole_ID": "NIGAHI-BH-002", "Mine_ID": "M-NIGAHI", "Mine_Code": "NIGAHI", "Mine_Name": "Nigahi OCP", "Interval_No": 4, "From_Depth_m": 62.16, "To_Depth_m": 82.88, "Thickness_m": 20.72, "Lithology": "Coal", "Stratigraphic_Unit": "Barakar-equivalent demo unit", "Coal_Bearing": "YES", "Coal_Seam": "Purewa Merged", "Weathering_Class": "Fresh", "Sample_ID": "NIGAHI-002-S04", "Data_Type": "SYNTHETIC_DEMO", "Source_Provenance": "Synthetic borehole interval generated to match GeoVault demonstration corpus" }, "geometry": { "type": "Point", "coordinates": [ 82.655279, 24.132613 ] } },
{ "type": "Feature", "properties": { "Borehole_ID": "NIGAHI-BH-002", "Mine_ID": "M-NIGAHI", "Mine_Code": "NIGAHI", "Mine_Name": "Nigahi OCP", "Interval_No": 5, "From_Depth_m": 82.88, "To_Depth_m": 103.6, "Thickness_m": 20.72, "Lithology": "Sandstone", "Stratigraphic_Unit": "Coal-bearing sequence", "Coal_Bearing": "NO", "Coal_Seam": "", "Weathering_Class": "Fresh", "Sample_ID": "NIGAHI-002-S05", "Data_Type": "SYNTHETIC_DEMO", "Source_Provenance": "Synthetic borehole interval generated to match GeoVault demonstration corpus" }, "geometry": { "type": "Point", "coordinates": [ 82.655279, 24.132613 ] } },
{ "type": "Feature", "properties": { "Borehole_ID": "NIGAHI-BH-002", "Mine_ID": "M-NIGAHI", "Mine_Code": "NIGAHI", "Mine_Name": "Nigahi OCP", "Interval_No": 6, "From_Depth_m": 103.6, "To_Depth_m": 124.32, "Thickness_m": 20.72, "Lithology": "Siltstone", "Stratigraphic_Unit": "Underlying sedimentary sequence", "Coal_Bearing": "NO", "Coal_Seam": "", "Weathering_Class": "Fresh", "Sample_ID": "NIGAHI-002-S06", "Data_Type": "SYNTHETIC_DEMO", "Source_Provenance": "Synthetic borehole interval generated to match GeoVault demonstration corpus" }, "geometry": { "type": "Point", "coordinates": [ 82.655279, 24.132613 ] } },
{ "type": "Feature", "properties": { "Borehole_ID": "NIGAHI-BH-002", "Mine_ID": "M-NIGAHI", "Mine_Code": "NIGAHI", "Mine_Name": "Nigahi OCP", "Interval_No": 7, "From_Depth_m": 124.32, "To_Depth_m": 145.04, "Thickness_m": 20.72, "Lithology": "Shale", "Stratigraphic_Unit": "Barakar-equivalent demo unit", "Coal_Bearing": "NO", "Coal_Seam": "", "Weathering_Class": "Fresh", "Sample_ID": "NIGAHI-002-S07", "Data_Type": "SYNTHETIC_DEMO", "Source_Provenance": "Synthetic borehole interval generated to match GeoVault demonstration corpus" }, "geometry": { "type": "Point", "coordinates": [ 82.655279, 24.132613 ] } },
{ "type": "Feature", "properties": { "Borehole_ID": "NIGAHI-BH-002", "Mine_ID": "M-NIGAHI", "Mine_Code": "NIGAHI", "Mine_Name": "Nigahi OCP", "Interval_No": 8, "From_Depth_m": 145.04, "To_Depth_m": 165.76, "Thickness_m": 20.72, "Lithology": "Shale", "Stratigraphic_Unit": "Coal-bearing sequence", "Coal_Bearing": "NO", "Coal_Seam": "", "Weathering_Class": "Fresh", "Sample_ID": "NIGAHI-002-S08", "Data_Type": "SYNTHETIC_DEMO", "Source_Provenance": "Synthetic borehole interval generated to match GeoVault demonstration corpus" }, "geometry": { "type": "Point", "coordinates": [ 82.655279, 24.132613 ] } },
{ "type": "Feature", "properties": { "Borehole_ID": "NIGAHI-BH-002", "Mine_ID": "M-NIGAHI", "Mine_Code": "NIGAHI", "Mine_Name": "Nigahi OCP", "Interval_No": 9, "From_Depth_m": 165.76, "To_Depth_m": 186.48, "Thickness_m": 20.72, "Lithology": "Interbedded Sandstone-Shale", "Stratigraphic_Unit": "Coal-bearing sequence", "Coal_Bearing": "NO", "Coal_Seam": "", "Weathering_Class": "Fresh", "Sample_ID": "NIGAHI-002-S09", "Data_Type": "SYNTHETIC_DEMO", "Source_Provenance": "Synthetic borehole interval generated to match GeoVault demonstration corpus" }, "geometry": { "type": "Point", "coordinates": [ 82.655279, 24.132613 ] } },
{ "type": "Feature", "properties": { "Borehole_ID": "NIGAHI-BH-002", "Mine_ID": "M-NIGAHI", "Mine_Code": "NIGAHI", "Mine_Name": "Nigahi OCP", "Interval_No": 10, "From_Depth_m": 186.48, "To_Depth_m": 207.2, "Thickness_m": 20.72, "Lithology": "Shale", "Stratigraphic_Unit": "Coal-bearing sequence", "Coal_Bearing": "NO", "Coal_Seam": "", "Weathering_Class": "Fresh", "Sample_ID": "NIGAHI-002-S10", "Data_Type": "SYNTHETIC_DEMO", "Source_Provenance": "Synthetic borehole interval generated to match GeoVault demonstration corpus" }, "geometry": { "type": "Point", "coordinates": [ 82.655279, 24.132613 ] } },
{ "type": "Feature", "properties": { "Borehole_ID": "NIGAHI-BH-003", "Mine_ID": "M-NIGAHI", "Mine_Code": "NIGAHI", "Mine_Name": "Nigahi OCP", "Interval_No": 1, "From_Depth_m": 0.0, "To_Depth_m": 22.4, "Thickness_m": 22.4, "Lithology": "Mudstone", "Stratigraphic_Unit": "Coal-bearing sequence", "Coal_Bearing": "NO", "Coal_Seam": "", "Weathering_Class": "Moderate", "Sample_ID": "NIGAHI-003-S01", "Data_Type": "SYNTHETIC_DEMO", "Source_Provenance": "Synthetic borehole interval generated to match GeoVault demonstration corpus" }, "geometry": { "type": "Point", "coordinates": [ 82.598516, 24.159717 ] } },
{ "type": "Feature", "properties": { "Borehole_ID": "NIGAHI-BH-003", "Mine_ID": "M-NIGAHI", "Mine_Code": "NIGAHI", "Mine_Name": "Nigahi OCP", "Interval_No": 2, "From_Depth_m": 22.4, "To_Depth_m": 44.8, "Thickness_m": 22.4, "Lithology": "Sandstone", "Stratigraphic_Unit": "Underlying sedimentary sequence", "Coal_Bearing": "NO", "Coal_Seam": "", "Weathering_Class": "Slight", "Sample_ID": "NIGAHI-003-S02", "Data_Type": "SYNTHETIC_DEMO", "Source_Provenance": "Synthetic borehole interval generated to match GeoVault demonstration corpus" }, "geometry": { "type": "Point", "coordinates": [ 82.598516, 24.159717 ] } },
{ "type": "Feature", "properties": { "Borehole_ID": "NIGAHI-BH-003", "Mine_ID": "M-NIGAHI", "Mine_Code": "NIGAHI", "Mine_Name": "Nigahi OCP", "Interval_No": 3, "From_Depth_m": 44.8, "To_Depth_m": 67.2, "Thickness_m": 22.4, "Lithology": "Shale", "Stratigraphic_Unit": "Barakar-equivalent demo unit", "Coal_Bearing": "NO", "Coal_Seam": "", "Weathering_Class": "Fresh", "Sample_ID": "NIGAHI-003-S03", "Data_Type": "SYNTHETIC_DEMO", "Source_Provenance": "Synthetic borehole interval generated to match GeoVault demonstration corpus" }, "geometry": { "type": "Point", "coordinates": [ 82.598516, 24.159717 ] } },
{ "type": "Feature", "properties": { "Borehole_ID": "NIGAHI-BH-003", "Mine_ID": "M-NIGAHI", "Mine_Code": "NIGAHI", "Mine_Name": "Nigahi OCP", "Interval_No": 4, "From_Depth_m": 67.2, "To_Depth_m": 89.6, "Thickness_m": 22.4, "Lithology": "Mudstone", "Stratigraphic_Unit": "Coal-bearing sequence", "Coal_Bearing": "NO", "Coal_Seam": "", "Weathering_Class": "Fresh", "Sample_ID": "NIGAHI-003-S04", "Data_Type": "SYNTHETIC_DEMO", "Source_Provenance": "Synthetic borehole interval generated to match GeoVault demonstration corpus" }, "geometry": { "type": "Point", "coordinates": [ 82.598516, 24.159717 ] } },
{ "type": "Feature", "properties": { "Borehole_ID": "NIGAHI-BH-003", "Mine_ID": "M-NIGAHI", "Mine_Code": "NIGAHI", "Mine_Name": "Nigahi OCP", "Interval_No": 5, "From_Depth_m": 89.6, "To_Depth_m": 112.0, "Thickness_m": 22.4, "Lithology": "Sandstone", "Stratigraphic_Unit": "Underlying sedimentary sequence", "Coal_Bearing": "NO", "Coal_Seam": "", "Weathering_Class": "Fresh", "Sample_ID": "NIGAHI-003-S05", "Data_Type": "SYNTHETIC_DEMO", "Source_Provenance": "Synthetic borehole interval generated to match GeoVault demonstration corpus" }, "geometry": { "type": "Point", "coordinates": [ 82.598516, 24.159717 ] } },
{ "type": "Feature", "properties": { "Borehole_ID": "NIGAHI-BH-003", "Mine_ID": "M-NIGAHI", "Mine_Code": "NIGAHI", "Mine_Name": "Nigahi OCP", "Interval_No": 6, "From_Depth_m": 112.0, "To_Depth_m": 134.4, "Thickness_m": 22.4, "Lithology": "Sandstone", "Stratigraphic_Unit": "Coal-bearing sequence", "Coal_Bearing": "NO", "Coal_Seam": "", "Weathering_Class": "Fresh", "Sample_ID": "NIGAHI-003-S06", "Data_Type": "SYNTHETIC_DEMO", "Source_Provenance": "Synthetic borehole interval generated to match GeoVault demonstration corpus" }, "geometry": { "type": "Point", "coordinates": [ 82.598516, 24.159717 ] } },
{ "type": "Feature", "properties": { "Borehole_ID": "NIGAHI-BH-003", "Mine_ID": "M-NIGAHI", "Mine_Code": "NIGAHI", "Mine_Name": "Nigahi OCP", "Interval_No": 7, "From_Depth_m": 134.4, "To_Depth_m": 156.8, "Thickness_m": 22.4, "Lithology": "Carbonaceous Shale", "Stratigraphic_Unit": "Overburden", "Coal_Bearing": "NO", "Coal_Seam": "", "Weathering_Class": "Fresh", "Sample_ID": "NIGAHI-003-S07", "Data_Type": "SYNTHETIC_DEMO", "Source_Provenance": "Synthetic borehole interval generated to match GeoVault demonstration corpus" }, "geometry": { "type": "Point", "coordinates": [ 82.598516, 24.159717 ] } },
{ "type": "Feature", "properties": { "Borehole_ID": "NIGAHI-BH-003", "Mine_ID": "M-NIGAHI", "Mine_Code": "NIGAHI", "Mine_Name": "Nigahi OCP", "Interval_No": 8, "From_Depth_m": 156.8, "To_Depth_m": 179.2, "Thickness_m": 22.4, "Lithology": "Coal", "Stratigraphic_Unit": "Underlying sedimentary sequence", "Coal_Bearing": "YES", "Coal_Seam": "Purewa Merged", "Weathering_Class": "Fresh", "Sample_ID": "NIGAHI-003-S08", "Data_Type": "SYNTHETIC_DEMO", "Source_Provenance": "Synthetic borehole interval generated to match GeoVault demonstration corpus" }, "geometry": { "type": "Point", "coordinates": [ 82.598516, 24.159717 ] } },
{ "type": "Feature", "properties": { "Borehole_ID": "NIGAHI-BH-003", "Mine_ID": "M-NIGAHI", "Mine_Code": "NIGAHI", "Mine_Name": "Nigahi OCP", "Interval_No": 9, "From_Depth_m": 179.2, "To_Depth_m": 201.6, "Thickness_m": 22.4, "Lithology": "Siltstone", "Stratigraphic_Unit": "Coal-bearing sequence", "Coal_Bearing": "NO", "Coal_Seam": "", "Weathering_Class": "Fresh", "Sample_ID": "NIGAHI-003-S09", "Data_Type": "SYNTHETIC_DEMO", "Source_Provenance": "Synthetic borehole interval generated to match GeoVault demonstration corpus" }, "geometry": { "type": "Point", "coordinates": [ 82.598516, 24.159717 ] } },
{ "type": "Feature", "properties": { "Borehole_ID": "NIGAHI-BH-003", "Mine_ID": "M-NIGAHI", "Mine_Code": "NIGAHI", "Mine_Name": "Nigahi OCP", "Interval_No": 10, "From_Depth_m": 201.6, "To_Depth_m": 224.0, "Thickness_m": 22.4, "Lithology": "Interbedded Sandstone-Shale", "Stratigraphic_Unit": "Underlying sedimentary sequence", "Coal_Bearing": "NO", "Coal_Seam": "", "Weathering_Class": "Fresh", "Sample_ID": "NIGAHI-003-S10", "Data_Type": "SYNTHETIC_DEMO", "Source_Provenance": "Synthetic borehole interval generated to match GeoVault demonstration corpus" }, "geometry": { "type": "Point", "coordinates": [ 82.598516, 24.159717 ] } },
{ "type": "Feature", "properties": { "Borehole_ID": "NIGAHI-BH-004", "Mine_ID": "M-NIGAHI", "Mine_Code": "NIGAHI", "Mine_Name": "Nigahi OCP", "Interval_No": 1, "From_Depth_m": 0.0, "To_Depth_m": 11.79, "Thickness_m": 11.79, "Lithology": "Siltstone", "Stratigraphic_Unit": "Overburden", "Coal_Bearing": "NO", "Coal_Seam": "", "Weathering_Class": "Slight", "Sample_ID": "NIGAHI-004-S01", "Data_Type": "SYNTHETIC_DEMO", "Source_Provenance": "Synthetic borehole interval generated to match GeoVault demonstration corpus" }, "geometry": { "type": "Point", "coordinates": [ 82.620686, 24.167088 ] } },
{ "type": "Feature", "properties": { "Borehole_ID": "NIGAHI-BH-004", "Mine_ID": "M-NIGAHI", "Mine_Code": "NIGAHI", "Mine_Name": "Nigahi OCP", "Interval_No": 2, "From_Depth_m": 11.79, "To_Depth_m": 23.58, "Thickness_m": 11.79, "Lithology": "Mudstone", "Stratigraphic_Unit": "Overburden", "Coal_Bearing": "NO", "Coal_Seam": "", "Weathering_Class": "Moderate", "Sample_ID": "NIGAHI-004-S02", "Data_Type": "SYNTHETIC_DEMO", "Source_Provenance": "Synthetic borehole interval generated to match GeoVault demonstration corpus" }, "geometry": { "type": "Point", "coordinates": [ 82.620686, 24.167088 ] } },
{ "type": "Feature", "properties": { "Borehole_ID": "NIGAHI-BH-004", "Mine_ID": "M-NIGAHI", "Mine_Code": "NIGAHI", "Mine_Name": "Nigahi OCP", "Interval_No": 3, "From_Depth_m": 23.58, "To_Depth_m": 35.37, "Thickness_m": 11.79, "Lithology": "Interbedded Sandstone-Shale", "Stratigraphic_Unit": "Barakar-equivalent demo unit", "Coal_Bearing": "NO", "Coal_Seam": "", "Weathering_Class": "Slight", "Sample_ID": "NIGAHI-004-S03", "Data_Type": "SYNTHETIC_DEMO", "Source_Provenance": "Synthetic borehole interval generated to match GeoVault demonstration corpus" }, "geometry": { "type": "Point", "coordinates": [ 82.620686, 24.167088 ] } },
{ "type": "Feature", "properties": { "Borehole_ID": "NIGAHI-BH-004", "Mine_ID": "M-NIGAHI", "Mine_Code": "NIGAHI", "Mine_Name": "Nigahi OCP", "Interval_No": 4, "From_Depth_m": 35.37, "To_Depth_m": 47.16, "Thickness_m": 11.79, "Lithology": "Mudstone", "Stratigraphic_Unit": "Coal-bearing sequence", "Coal_Bearing": "NO", "Coal_Seam": "", "Weathering_Class": "Fresh", "Sample_ID": "NIGAHI-004-S04", "Data_Type": "SYNTHETIC_DEMO", "Source_Provenance": "Synthetic borehole interval generated to match GeoVault demonstration corpus" }, "geometry": { "type": "Point", "coordinates": [ 82.620686, 24.167088 ] } },
{ "type": "Feature", "properties": { "Borehole_ID": "NIGAHI-BH-004", "Mine_ID": "M-NIGAHI", "Mine_Code": "NIGAHI", "Mine_Name": "Nigahi OCP", "Interval_No": 5, "From_Depth_m": 47.16, "To_Depth_m": 58.95, "Thickness_m": 11.79, "Lithology": "Carbonaceous Shale", "Stratigraphic_Unit": "Underlying sedimentary sequence", "Coal_Bearing": "NO", "Coal_Seam": "", "Weathering_Class": "Fresh", "Sample_ID": "NIGAHI-004-S05", "Data_Type": "SYNTHETIC_DEMO", "Source_Provenance": "Synthetic borehole interval generated to match GeoVault demonstration corpus" }, "geometry": { "type": "Point", "coordinates": [ 82.620686, 24.167088 ] } },
{ "type": "Feature", "properties": { "Borehole_ID": "NIGAHI-BH-004", "Mine_ID": "M-NIGAHI", "Mine_Code": "NIGAHI", "Mine_Name": "Nigahi OCP", "Interval_No": 6, "From_Depth_m": 58.95, "To_Depth_m": 70.74, "Thickness_m": 11.79, "Lithology": "Coal", "Stratigraphic_Unit": "Overburden", "Coal_Bearing": "YES", "Coal_Seam": "Turra", "Weathering_Class": "Fresh", "Sample_ID": "NIGAHI-004-S06", "Data_Type": "SYNTHETIC_DEMO", "Source_Provenance": "Synthetic borehole interval generated to match GeoVault demonstration corpus" }, "geometry": { "type": "Point", "coordinates": [ 82.620686, 24.167088 ] } },
{ "type": "Feature", "properties": { "Borehole_ID": "NIGAHI-BH-004", "Mine_ID": "M-NIGAHI", "Mine_Code": "NIGAHI", "Mine_Name": "Nigahi OCP", "Interval_No": 7, "From_Depth_m": 70.74, "To_Depth_m": 82.53, "Thickness_m": 11.79, "Lithology": "Shale", "Stratigraphic_Unit": "Overburden", "Coal_Bearing": "NO", "Coal_Seam": "", "Weathering_Class": "Fresh", "Sample_ID": "NIGAHI-004-S07", "Data_Type": "SYNTHETIC_DEMO", "Source_Provenance": "Synthetic borehole interval generated to match GeoVault demonstration corpus" }, "geometry": { "type": "Point", "coordinates": [ 82.620686, 24.167088 ] } },
{ "type": "Feature", "properties": { "Borehole_ID": "NIGAHI-BH-004", "Mine_ID": "M-NIGAHI", "Mine_Code": "NIGAHI", "Mine_Name": "Nigahi OCP", "Interval_No": 8, "From_Depth_m": 82.53, "To_Depth_m": 94.32, "Thickness_m": 11.79, "Lithology": "Sandstone", "Stratigraphic_Unit": "Coal-bearing sequence", "Coal_Bearing": "NO", "Coal_Seam": "", "Weathering_Class": "Fresh", "Sample_ID": "NIGAHI-004-S08", "Data_Type": "SYNTHETIC_DEMO", "Source_Provenance": "Synthetic borehole interval generated to match GeoVault demonstration corpus" }, "geometry": { "type": "Point", "coordinates": [ 82.620686, 24.167088 ] } },
{ "type": "Feature", "properties": { "Borehole_ID": "NIGAHI-BH-004", "Mine_ID": "M-NIGAHI", "Mine_Code": "NIGAHI", "Mine_Name": "Nigahi OCP", "Interval_No": 9, "From_Depth_m": 94.32, "To_Depth_m": 106.11, "Thickness_m": 11.79, "Lithology": "Mudstone", "Stratigraphic_Unit": "Overburden", "Coal_Bearing": "NO", "Coal_Seam": "", "Weathering_Class": "Fresh", "Sample_ID": "NIGAHI-004-S09", "Data_Type": "SYNTHETIC_DEMO", "Source_Provenance": "Synthetic borehole interval generated to match GeoVault demonstration corpus" }, "geometry": { "type": "Point", "coordinates": [ 82.620686, 24.167088 ] } },
{ "type": "Feature", "properties": { "Borehole_ID": "NIGAHI-BH-004", "Mine_ID": "M-NIGAHI", "Mine_Code": "NIGAHI", "Mine_Name": "Nigahi OCP", "Interval_No": 10, "From_Depth_m": 106.11, "To_Depth_m": 117.9, "Thickness_m": 11.79, "Lithology": "Sandstone", "Stratigraphic_Unit": "Barakar-equivalent demo unit", "Coal_Bearing": "NO", "Coal_Seam": "", "Weathering_Class": "Fresh", "Sample_ID": "NIGAHI-004-S10", "Data_Type": "SYNTHETIC_DEMO", "Source_Provenance": "Synthetic borehole interval generated to match GeoVault demonstration corpus" }, "geometry": { "type": "Point", "coordinates": [ 82.620686, 24.167088 ] } },
{ "type": "Feature", "properties": { "Borehole_ID": "NIGAHI-BH-005", "Mine_ID": "M-NIGAHI", "Mine_Code": "NIGAHI", "Mine_Name": "Nigahi OCP", "Interval_No": 1, "From_Depth_m": 0.0, "To_Depth_m": 23.91, "Thickness_m": 23.91, "Lithology": "Interbedded Sandstone-Shale", "Stratigraphic_Unit": "Barakar-equivalent demo unit", "Coal_Bearing": "NO", "Coal_Seam": "", "Weathering_Class": "Moderate", "Sample_ID": "NIGAHI-005-S01", "Data_Type": "SYNTHETIC_DEMO", "Source_Provenance": "Synthetic borehole interval generated to match GeoVault demonstration corpus" }, "geometry": { "type": "Point", "coordinates": [ 82.65233, 24.161193 ] } },
{ "type": "Feature", "properties": { "Borehole_ID": "NIGAHI-BH-005", "Mine_ID": "M-NIGAHI", "Mine_Code": "NIGAHI", "Mine_Name": "Nigahi OCP", "Interval_No": 2, "From_Depth_m": 23.91, "To_Depth_m": 47.82, "Thickness_m": 23.91, "Lithology": "Mudstone", "Stratigraphic_Unit": "Coal-bearing sequence", "Coal_Bearing": "NO", "Coal_Seam": "", "Weathering_Class": "Moderate", "Sample_ID": "NIGAHI-005-S02", "Data_Type": "SYNTHETIC_DEMO", "Source_Provenance": "Synthetic borehole interval generated to match GeoVault demonstration corpus" }, "geometry": { "type": "Point", "coordinates": [ 82.65233, 24.161193 ] } },
{ "type": "Feature", "properties": { "Borehole_ID": "NIGAHI-BH-005", "Mine_ID": "M-NIGAHI", "Mine_Code": "NIGAHI", "Mine_Name": "Nigahi OCP", "Interval_No": 3, "From_Depth_m": 47.82, "To_Depth_m": 71.73, "Thickness_m": 23.91, "Lithology": "Interbedded Sandstone-Shale", "Stratigraphic_Unit": "Barakar-equivalent demo unit", "Coal_Bearing": "NO", "Coal_Seam": "", "Weathering_Class": "Fresh", "Sample_ID": "NIGAHI-005-S03", "Data_Type": "SYNTHETIC_DEMO", "Source_Provenance": "Synthetic borehole interval generated to match GeoVault demonstration corpus" }, "geometry": { "type": "Point", "coordinates": [ 82.65233, 24.161193 ] } },
{ "type": "Feature", "properties": { "Borehole_ID": "NIGAHI-BH-005", "Mine_ID": "M-NIGAHI", "Mine_Code": "NIGAHI", "Mine_Name": "Nigahi OCP", "Interval_No": 4, "From_Depth_m": 71.73, "To_Depth_m": 95.64, "Thickness_m": 23.91, "Lithology": "Mudstone", "Stratigraphic_Unit": "Overburden", "Coal_Bearing": "NO", "Coal_Seam": "", "Weathering_Class": "Fresh", "Sample_ID": "NIGAHI-005-S04", "Data_Type": "SYNTHETIC_DEMO", "Source_Provenance": "Synthetic borehole interval generated to match GeoVault demonstration corpus" }, "geometry": { "type": "Point", "coordinates": [ 82.65233, 24.161193 ] } },
{ "type": "Feature", "properties": { "Borehole_ID": "NIGAHI-BH-005", "Mine_ID": "M-NIGAHI", "Mine_Code": "NIGAHI", "Mine_Name": "Nigahi OCP", "Interval_No": 5, "From_Depth_m": 95.64, "To_Depth_m": 119.55, "Thickness_m": 23.91, "Lithology": "Carbonaceous Shale", "Stratigraphic_Unit": "Underlying sedimentary sequence", "Coal_Bearing": "NO", "Coal_Seam": "", "Weathering_Class": "Fresh", "Sample_ID": "NIGAHI-005-S05", "Data_Type": "SYNTHETIC_DEMO", "Source_Provenance": "Synthetic borehole interval generated to match GeoVault demonstration corpus" }, "geometry": { "type": "Point", "coordinates": [ 82.65233, 24.161193 ] } },
{ "type": "Feature", "properties": { "Borehole_ID": "NIGAHI-BH-005", "Mine_ID": "M-NIGAHI", "Mine_Code": "NIGAHI", "Mine_Name": "Nigahi OCP", "Interval_No": 6, "From_Depth_m": 119.55, "To_Depth_m": 143.46, "Thickness_m": 23.91, "Lithology": "Coal", "Stratigraphic_Unit": "Underlying sedimentary sequence", "Coal_Bearing": "YES", "Coal_Seam": "Purewa Merged", "Weathering_Class": "Fresh", "Sample_ID": "NIGAHI-005-S06", "Data_Type": "SYNTHETIC_DEMO", "Source_Provenance": "Synthetic borehole interval generated to match GeoVault demonstration corpus" }, "geometry": { "type": "Point", "coordinates": [ 82.65233, 24.161193 ] } },
{ "type": "Feature", "properties": { "Borehole_ID": "NIGAHI-BH-005", "Mine_ID": "M-NIGAHI", "Mine_Code": "NIGAHI", "Mine_Name": "Nigahi OCP", "Interval_No": 7, "From_Depth_m": 143.46, "To_Depth_m": 167.37, "Thickness_m": 23.91, "Lithology": "Siltstone", "Stratigraphic_Unit": "Overburden", "Coal_Bearing": "NO", "Coal_Seam": "", "Weathering_Class": "Fresh", "Sample_ID": "NIGAHI-005-S07", "Data_Type": "SYNTHETIC_DEMO", "Source_Provenance": "Synthetic borehole interval generated to match GeoVault demonstration corpus" }, "geometry": { "type": "Point", "coordinates": [ 82.65233, 24.161193 ] } },
{ "type": "Feature", "properties": { "Borehole_ID": "NIGAHI-BH-005", "Mine_ID": "M-NIGAHI", "Mine_Code": "NIGAHI", "Mine_Name": "Nigahi OCP", "Interval_No": 8, "From_Depth_m": 167.37, "To_Depth_m": 191.28, "Thickness_m": 23.91, "Lithology": "Siltstone", "Stratigraphic_Unit": "Barakar-equivalent demo unit", "Coal_Bearing": "NO", "Coal_Seam": "", "Weathering_Class": "Fresh", "Sample_ID": "NIGAHI-005-S08", "Data_Type": "SYNTHETIC_DEMO", "Source_Provenance": "Synthetic borehole interval generated to match GeoVault demonstration corpus" }, "geometry": { "type": "Point", "coordinates": [ 82.65233, 24.161193 ] } },
{ "type": "Feature", "properties": { "Borehole_ID": "NIGAHI-BH-005", "Mine_ID": "M-NIGAHI", "Mine_Code": "NIGAHI", "Mine_Name": "Nigahi OCP", "Interval_No": 9, "From_Depth_m": 191.28, "To_Depth_m": 215.19, "Thickness_m": 23.91, "Lithology": "Mudstone", "Stratigraphic_Unit": "Underlying sedimentary sequence", "Coal_Bearing": "NO", "Coal_Seam": "", "Weathering_Class": "Fresh", "Sample_ID": "NIGAHI-005-S09", "Data_Type": "SYNTHETIC_DEMO", "Source_Provenance": "Synthetic borehole interval generated to match GeoVault demonstration corpus" }, "geometry": { "type": "Point", "coordinates": [ 82.65233, 24.161193 ] } },
{ "type": "Feature", "properties": { "Borehole_ID": "NIGAHI-BH-005", "Mine_ID": "M-NIGAHI", "Mine_Code": "NIGAHI", "Mine_Name": "Nigahi OCP", "Interval_No": 10, "From_Depth_m": 215.19, "To_Depth_m": 239.1, "Thickness_m": 23.91, "Lithology": "Shale", "Stratigraphic_Unit": "Coal-bearing sequence", "Coal_Bearing": "NO", "Coal_Seam": "", "Weathering_Class": "Fresh", "Sample_ID": "NIGAHI-005-S10", "Data_Type": "SYNTHETIC_DEMO", "Source_Provenance": "Synthetic borehole interval generated to match GeoVault demonstration corpus" }, "geometry": { "type": "Point", "coordinates": [ 82.65233, 24.161193 ] } },
{ "type": "Feature", "properties": { "Borehole_ID": "NIGAHI-BH-006", "Mine_ID": "M-NIGAHI", "Mine_Code": "NIGAHI", "Mine_Name": "Nigahi OCP", "Interval_No": 1, "From_Depth_m": 0.0, "To_Depth_m": 9.34, "Thickness_m": 9.34, "Lithology": "Sandstone", "Stratigraphic_Unit": "Coal-bearing sequence", "Coal_Bearing": "NO", "Coal_Seam": "", "Weathering_Class": "Moderate", "Sample_ID": "NIGAHI-006-S01", "Data_Type": "SYNTHETIC_DEMO", "Source_Provenance": "Synthetic borehole interval generated to match GeoVault demonstration corpus" }, "geometry": { "type": "Point", "coordinates": [ 82.643613, 24.149618 ] } },
{ "type": "Feature", "properties": { "Borehole_ID": "NIGAHI-BH-006", "Mine_ID": "M-NIGAHI", "Mine_Code": "NIGAHI", "Mine_Name": "Nigahi OCP", "Interval_No": 2, "From_Depth_m": 9.34, "To_Depth_m": 18.68, "Thickness_m": 9.34, "Lithology": "Sandstone", "Stratigraphic_Unit": "Underlying sedimentary sequence", "Coal_Bearing": "NO", "Coal_Seam": "", "Weathering_Class": "Moderate", "Sample_ID": "NIGAHI-006-S02", "Data_Type": "SYNTHETIC_DEMO", "Source_Provenance": "Synthetic borehole interval generated to match GeoVault demonstration corpus" }, "geometry": { "type": "Point", "coordinates": [ 82.643613, 24.149618 ] } },
{ "type": "Feature", "properties": { "Borehole_ID": "NIGAHI-BH-006", "Mine_ID": "M-NIGAHI", "Mine_Code": "NIGAHI", "Mine_Name": "Nigahi OCP", "Interval_No": 3, "From_Depth_m": 18.68, "To_Depth_m": 28.02, "Thickness_m": 9.34, "Lithology": "Carbonaceous Shale", "Stratigraphic_Unit": "Barakar-equivalent demo unit", "Coal_Bearing": "NO", "Coal_Seam": "", "Weathering_Class": "Slight", "Sample_ID": "NIGAHI-006-S03", "Data_Type": "SYNTHETIC_DEMO", "Source_Provenance": "Synthetic borehole interval generated to match GeoVault demonstration corpus" }, "geometry": { "type": "Point", "coordinates": [ 82.643613, 24.149618 ] } },
{ "type": "Feature", "properties": { "Borehole_ID": "NIGAHI-BH-006", "Mine_ID": "M-NIGAHI", "Mine_Code": "NIGAHI", "Mine_Name": "Nigahi OCP", "Interval_No": 4, "From_Depth_m": 28.02, "To_Depth_m": 37.36, "Thickness_m": 9.34, "Lithology": "Coal", "Stratigraphic_Unit": "Underlying sedimentary sequence", "Coal_Bearing": "YES", "Coal_Seam": "Purewa Bottom", "Weathering_Class": "Fresh", "Sample_ID": "NIGAHI-006-S04", "Data_Type": "SYNTHETIC_DEMO", "Source_Provenance": "Synthetic borehole interval generated to match GeoVault demonstration corpus" }, "geometry": { "type": "Point", "coordinates": [ 82.643613, 24.149618 ] } },
{ "type": "Feature", "properties": { "Borehole_ID": "NIGAHI-BH-006", "Mine_ID": "M-NIGAHI", "Mine_Code": "NIGAHI", "Mine_Name": "Nigahi OCP", "Interval_No": 5, "From_Depth_m": 37.36, "To_Depth_m": 46.7, "Thickness_m": 9.34, "Lithology": "Sandstone", "Stratigraphic_Unit": "Barakar-equivalent demo unit", "Coal_Bearing": "NO", "Coal_Seam": "", "Weathering_Class": "Fresh", "Sample_ID": "NIGAHI-006-S05", "Data_Type": "SYNTHETIC_DEMO", "Source_Provenance": "Synthetic borehole interval generated to match GeoVault demonstration corpus" }, "geometry": { "type": "Point", "coordinates": [ 82.643613, 24.149618 ] } },
{ "type": "Feature", "properties": { "Borehole_ID": "NIGAHI-BH-006", "Mine_ID": "M-NIGAHI", "Mine_Code": "NIGAHI", "Mine_Name": "Nigahi OCP", "Interval_No": 6, "From_Depth_m": 46.7, "To_Depth_m": 56.04, "Thickness_m": 9.34, "Lithology": "Interbedded Sandstone-Shale", "Stratigraphic_Unit": "Overburden", "Coal_Bearing": "NO", "Coal_Seam": "", "Weathering_Class": "Fresh", "Sample_ID": "NIGAHI-006-S06", "Data_Type": "SYNTHETIC_DEMO", "Source_Provenance": "Synthetic borehole interval generated to match GeoVault demonstration corpus" }, "geometry": { "type": "Point", "coordinates": [ 82.643613, 24.149618 ] } },
{ "type": "Feature", "properties": { "Borehole_ID": "NIGAHI-BH-006", "Mine_ID": "M-NIGAHI", "Mine_Code": "NIGAHI", "Mine_Name": "Nigahi OCP", "Interval_No": 7, "From_Depth_m": 56.04, "To_Depth_m": 65.38, "Thickness_m": 9.34, "Lithology": "Sandstone", "Stratigraphic_Unit": "Coal-bearing sequence", "Coal_Bearing": "NO", "Coal_Seam": "", "Weathering_Class": "Fresh", "Sample_ID": "NIGAHI-006-S07", "Data_Type": "SYNTHETIC_DEMO", "Source_Provenance": "Synthetic borehole interval generated to match GeoVault demonstration corpus" }, "geometry": { "type": "Point", "coordinates": [ 82.643613, 24.149618 ] } },
{ "type": "Feature", "properties": { "Borehole_ID": "NIGAHI-BH-006", "Mine_ID": "M-NIGAHI", "Mine_Code": "NIGAHI", "Mine_Name": "Nigahi OCP", "Interval_No": 8, "From_Depth_m": 65.38, "To_Depth_m": 74.72, "Thickness_m": 9.34, "Lithology": "Shale", "Stratigraphic_Unit": "Barakar-equivalent demo unit", "Coal_Bearing": "NO", "Coal_Seam": "", "Weathering_Class": "Fresh", "Sample_ID": "NIGAHI-006-S08", "Data_Type": "SYNTHETIC_DEMO", "Source_Provenance": "Synthetic borehole interval generated to match GeoVault demonstration corpus" }, "geometry": { "type": "Point", "coordinates": [ 82.643613, 24.149618 ] } },
{ "type": "Feature", "properties": { "Borehole_ID": "NIGAHI-BH-006", "Mine_ID": "M-NIGAHI", "Mine_Code": "NIGAHI", "Mine_Name": "Nigahi OCP", "Interval_No": 9, "From_Depth_m": 74.72, "To_Depth_m": 84.06, "Thickness_m": 9.34, "Lithology": "Interbedded Sandstone-Shale", "Stratigraphic_Unit": "Barakar-equivalent demo unit", "Coal_Bearing": "NO", "Coal_Seam": "", "Weathering_Class": "Fresh", "Sample_ID": "NIGAHI-006-S09", "Data_Type": "SYNTHETIC_DEMO", "Source_Provenance": "Synthetic borehole interval generated to match GeoVault demonstration corpus" }, "geometry": { "type": "Point", "coordinates": [ 82.643613, 24.149618 ] } },
{ "type": "Feature", "properties": { "Borehole_ID": "NIGAHI-BH-006", "Mine_ID": "M-NIGAHI", "Mine_Code": "NIGAHI", "Mine_Name": "Nigahi OCP", "Interval_No": 10, "From_Depth_m": 84.06, "To_Depth_m": 93.4, "Thickness_m": 9.34, "Lithology": "Sandstone", "Stratigraphic_Unit": "Barakar-equivalent demo unit", "Coal_Bearing": "NO", "Coal_Seam": "", "Weathering_Class": "Fresh", "Sample_ID": "NIGAHI-006-S10", "Data_Type": "SYNTHETIC_DEMO", "Source_Provenance": "Synthetic borehole interval generated to match GeoVault demonstration corpus" }, "geometry": { "type": "Point", "coordinates": [ 82.643613, 24.149618 ] } },
{ "type": "Feature", "properties": { "Borehole_ID": "NIGAHI-BH-007", "Mine_ID": "M-NIGAHI", "Mine_Code": "NIGAHI", "Mine_Name": "Nigahi OCP", "Interval_No": 1, "From_Depth_m": 0.0, "To_Depth_m": 10.43, "Thickness_m": 10.43, "Lithology": "Interbedded Sandstone-Shale", "Stratigraphic_Unit": "Barakar-equivalent demo unit", "Coal_Bearing": "NO", "Coal_Seam": "", "Weathering_Class": "Slight", "Sample_ID": "NIGAHI-007-S01", "Data_Type": "SYNTHETIC_DEMO", "Source_Provenance": "Synthetic borehole interval generated to match GeoVault demonstration corpus" }, "geometry": { "type": "Point", "coordinates": [ 82.640863, 24.16252 ] } },
{ "type": "Feature", "properties": { "Borehole_ID": "NIGAHI-BH-007", "Mine_ID": "M-NIGAHI", "Mine_Code": "NIGAHI", "Mine_Name": "Nigahi OCP", "Interval_No": 2, "From_Depth_m": 10.43, "To_Depth_m": 20.86, "Thickness_m": 10.43, "Lithology": "Siltstone", "Stratigraphic_Unit": "Barakar-equivalent demo unit", "Coal_Bearing": "NO", "Coal_Seam": "", "Weathering_Class": "Slight", "Sample_ID": "NIGAHI-007-S02", "Data_Type": "SYNTHETIC_DEMO", "Source_Provenance": "Synthetic borehole interval generated to match GeoVault demonstration corpus" }, "geometry": { "type": "Point", "coordinates": [ 82.640863, 24.16252 ] } },
{ "type": "Feature", "properties": { "Borehole_ID": "NIGAHI-BH-007", "Mine_ID": "M-NIGAHI", "Mine_Code": "NIGAHI", "Mine_Name": "Nigahi OCP", "Interval_No": 3, "From_Depth_m": 20.86, "To_Depth_m": 31.29, "Thickness_m": 10.43, "Lithology": "Siltstone", "Stratigraphic_Unit": "Barakar-equivalent demo unit", "Coal_Bearing": "NO", "Coal_Seam": "", "Weathering_Class": "Slight", "Sample_ID": "NIGAHI-007-S03", "Data_Type": "SYNTHETIC_DEMO", "Source_Provenance": "Synthetic borehole interval generated to match GeoVault demonstration corpus" }, "geometry": { "type": "Point", "coordinates": [ 82.640863, 24.16252 ] } },
{ "type": "Feature", "properties": { "Borehole_ID": "NIGAHI-BH-007", "Mine_ID": "M-NIGAHI", "Mine_Code": "NIGAHI", "Mine_Name": "Nigahi OCP", "Interval_No": 4, "From_Depth_m": 31.29, "To_Depth_m": 41.72, "Thickness_m": 10.43, "Lithology": "Interbedded Sandstone-Shale", "Stratigraphic_Unit": "Coal-bearing sequence", "Coal_Bearing": "NO", "Coal_Seam": "", "Weathering_Class": "Fresh", "Sample_ID": "NIGAHI-007-S04", "Data_Type": "SYNTHETIC_DEMO", "Source_Provenance": "Synthetic borehole interval generated to match GeoVault demonstration corpus" }, "geometry": { "type": "Point", "coordinates": [ 82.640863, 24.16252 ] } },
{ "type": "Feature", "properties": { "Borehole_ID": "NIGAHI-BH-007", "Mine_ID": "M-NIGAHI", "Mine_Code": "NIGAHI", "Mine_Name": "Nigahi OCP", "Interval_No": 5, "From_Depth_m": 41.72, "To_Depth_m": 52.15, "Thickness_m": 10.43, "Lithology": "Shale", "Stratigraphic_Unit": "Overburden", "Coal_Bearing": "NO", "Coal_Seam": "", "Weathering_Class": "Fresh", "Sample_ID": "NIGAHI-007-S05", "Data_Type": "SYNTHETIC_DEMO", "Source_Provenance": "Synthetic borehole interval generated to match GeoVault demonstration corpus" }, "geometry": { "type": "Point", "coordinates": [ 82.640863, 24.16252 ] } },
{ "type": "Feature", "properties": { "Borehole_ID": "NIGAHI-BH-007", "Mine_ID": "M-NIGAHI", "Mine_Code": "NIGAHI", "Mine_Name": "Nigahi OCP", "Interval_No": 6, "From_Depth_m": 52.15, "To_Depth_m": 62.58, "Thickness_m": 10.43, "Lithology": "Carbonaceous Shale", "Stratigraphic_Unit": "Overburden", "Coal_Bearing": "NO", "Coal_Seam": "", "Weathering_Class": "Fresh", "Sample_ID": "NIGAHI-007-S06", "Data_Type": "SYNTHETIC_DEMO", "Source_Provenance": "Synthetic borehole interval generated to match GeoVault demonstration corpus" }, "geometry": { "type": "Point", "coordinates": [ 82.640863, 24.16252 ] } },
{ "type": "Feature", "properties": { "Borehole_ID": "NIGAHI-BH-007", "Mine_ID": "M-NIGAHI", "Mine_Code": "NIGAHI", "Mine_Name": "Nigahi OCP", "Interval_No": 7, "From_Depth_m": 62.58, "To_Depth_m": 73.01, "Thickness_m": 10.43, "Lithology": "Coal", "Stratigraphic_Unit": "Barakar-equivalent demo unit", "Coal_Bearing": "YES", "Coal_Seam": "Turra", "Weathering_Class": "Fresh", "Sample_ID": "NIGAHI-007-S07", "Data_Type": "SYNTHETIC_DEMO", "Source_Provenance": "Synthetic borehole interval generated to match GeoVault demonstration corpus" }, "geometry": { "type": "Point", "coordinates": [ 82.640863, 24.16252 ] } },
{ "type": "Feature", "properties": { "Borehole_ID": "NIGAHI-BH-007", "Mine_ID": "M-NIGAHI", "Mine_Code": "NIGAHI", "Mine_Name": "Nigahi OCP", "Interval_No": 8, "From_Depth_m": 73.01, "To_Depth_m": 83.44, "Thickness_m": 10.43, "Lithology": "Sandstone", "Stratigraphic_Unit": "Coal-bearing sequence", "Coal_Bearing": "NO", "Coal_Seam": "", "Weathering_Class": "Fresh", "Sample_ID": "NIGAHI-007-S08", "Data_Type": "SYNTHETIC_DEMO", "Source_Provenance": "Synthetic borehole interval generated to match GeoVault demonstration corpus" }, "geometry": { "type": "Point", "coordinates": [ 82.640863, 24.16252 ] } },
{ "type": "Feature", "properties": { "Borehole_ID": "NIGAHI-BH-007", "Mine_ID": "M-NIGAHI", "Mine_Code": "NIGAHI", "Mine_Name": "Nigahi OCP", "Interval_No": 9, "From_Depth_m": 83.44, "To_Depth_m": 93.87, "Thickness_m": 10.43, "Lithology": "Shale", "Stratigraphic_Unit": "Coal-bearing sequence", "Coal_Bearing": "NO", "Coal_Seam": "", "Weathering_Class": "Fresh", "Sample_ID": "NIGAHI-007-S09", "Data_Type": "SYNTHETIC_DEMO", "Source_Provenance": "Synthetic borehole interval generated to match GeoVault demonstration corpus" }, "geometry": { "type": "Point", "coordinates": [ 82.640863, 24.16252 ] } },
{ "type": "Feature", "properties": { "Borehole_ID": "NIGAHI-BH-007", "Mine_ID": "M-NIGAHI", "Mine_Code": "NIGAHI", "Mine_Name": "Nigahi OCP", "Interval_No": 10, "From_Depth_m": 93.87, "To_Depth_m": 104.3, "Thickness_m": 10.43, "Lithology": "Sandstone", "Stratigraphic_Unit": "Barakar-equivalent demo unit", "Coal_Bearing": "NO", "Coal_Seam": "", "Weathering_Class": "Fresh", "Sample_ID": "NIGAHI-007-S10", "Data_Type": "SYNTHETIC_DEMO", "Source_Provenance": "Synthetic borehole interval generated to match GeoVault demonstration corpus" }, "geometry": { "type": "Point", "coordinates": [ 82.640863, 24.16252 ] } },
{ "type": "Feature", "properties": { "Borehole_ID": "NIGAHI-BH-008", "Mine_ID": "M-NIGAHI", "Mine_Code": "NIGAHI", "Mine_Name": "Nigahi OCP", "Interval_No": 1, "From_Depth_m": 0.0, "To_Depth_m": 11.34, "Thickness_m": 11.34, "Lithology": "Siltstone", "Stratigraphic_Unit": "Overburden", "Coal_Bearing": "NO", "Coal_Seam": "", "Weathering_Class": "Slight", "Sample_ID": "NIGAHI-008-S01", "Data_Type": "SYNTHETIC_DEMO", "Source_Provenance": "Synthetic borehole interval generated to match GeoVault demonstration corpus" }, "geometry": { "type": "Point", "coordinates": [ 82.61388, 24.147241 ] } },
{ "type": "Feature", "properties": { "Borehole_ID": "NIGAHI-BH-008", "Mine_ID": "M-NIGAHI", "Mine_Code": "NIGAHI", "Mine_Name": "Nigahi OCP", "Interval_No": 2, "From_Depth_m": 11.34, "To_Depth_m": 22.68, "Thickness_m": 11.34, "Lithology": "Mudstone", "Stratigraphic_Unit": "Overburden", "Coal_Bearing": "NO", "Coal_Seam": "", "Weathering_Class": "Slight", "Sample_ID": "NIGAHI-008-S02", "Data_Type": "SYNTHETIC_DEMO", "Source_Provenance": "Synthetic borehole interval generated to match GeoVault demonstration corpus" }, "geometry": { "type": "Point", "coordinates": [ 82.61388, 24.147241 ] } },
{ "type": "Feature", "properties": { "Borehole_ID": "NIGAHI-BH-008", "Mine_ID": "M-NIGAHI", "Mine_Code": "NIGAHI", "Mine_Name": "Nigahi OCP", "Interval_No": 3, "From_Depth_m": 22.68, "To_Depth_m": 34.02, "Thickness_m": 11.34, "Lithology": "Mudstone", "Stratigraphic_Unit": "Underlying sedimentary sequence", "Coal_Bearing": "NO", "Coal_Seam": "", "Weathering_Class": "Moderate", "Sample_ID": "NIGAHI-008-S03", "Data_Type": "SYNTHETIC_DEMO", "Source_Provenance": "Synthetic borehole interval generated to match GeoVault demonstration corpus" }, "geometry": { "type": "Point", "coordinates": [ 82.61388, 24.147241 ] } },
{ "type": "Feature", "properties": { "Borehole_ID": "NIGAHI-BH-008", "Mine_ID": "M-NIGAHI", "Mine_Code": "NIGAHI", "Mine_Name": "Nigahi OCP", "Interval_No": 4, "From_Depth_m": 34.02, "To_Depth_m": 45.36, "Thickness_m": 11.34, "Lithology": "Interbedded Sandstone-Shale", "Stratigraphic_Unit": "Overburden", "Coal_Bearing": "NO", "Coal_Seam": "", "Weathering_Class": "Fresh", "Sample_ID": "NIGAHI-008-S04", "Data_Type": "SYNTHETIC_DEMO", "Source_Provenance": "Synthetic borehole interval generated to match GeoVault demonstration corpus" }, "geometry": { "type": "Point", "coordinates": [ 82.61388, 24.147241 ] } },
{ "type": "Feature", "properties": { "Borehole_ID": "NIGAHI-BH-008", "Mine_ID": "M-NIGAHI", "Mine_Code": "NIGAHI", "Mine_Name": "Nigahi OCP", "Interval_No": 5, "From_Depth_m": 45.36, "To_Depth_m": 56.7, "Thickness_m": 11.34, "Lithology": "Mudstone", "Stratigraphic_Unit": "Barakar-equivalent demo unit", "Coal_Bearing": "NO", "Coal_Seam": "", "Weathering_Class": "Fresh", "Sample_ID": "NIGAHI-008-S05", "Data_Type": "SYNTHETIC_DEMO", "Source_Provenance": "Synthetic borehole interval generated to match GeoVault demonstration corpus" }, "geometry": { "type": "Point", "coordinates": [ 82.61388, 24.147241 ] } },
{ "type": "Feature", "properties": { "Borehole_ID": "NIGAHI-BH-008", "Mine_ID": "M-NIGAHI", "Mine_Code": "NIGAHI", "Mine_Name": "Nigahi OCP", "Interval_No": 6, "From_Depth_m": 56.7, "To_Depth_m": 68.04, "Thickness_m": 11.34, "Lithology": "Carbonaceous Shale", "Stratigraphic_Unit": "Overburden", "Coal_Bearing": "NO", "Coal_Seam": "", "Weathering_Class": "Fresh", "Sample_ID": "NIGAHI-008-S06", "Data_Type": "SYNTHETIC_DEMO", "Source_Provenance": "Synthetic borehole interval generated to match GeoVault demonstration corpus" }, "geometry": { "type": "Point", "coordinates": [ 82.61388, 24.147241 ] } },
{ "type": "Feature", "properties": { "Borehole_ID": "NIGAHI-BH-008", "Mine_ID": "M-NIGAHI", "Mine_Code": "NIGAHI", "Mine_Name": "Nigahi OCP", "Interval_No": 7, "From_Depth_m": 68.04, "To_Depth_m": 79.38, "Thickness_m": 11.34, "Lithology": "Coal", "Stratigraphic_Unit": "Coal-bearing sequence", "Coal_Bearing": "YES", "Coal_Seam": "Turra", "Weathering_Class": "Fresh", "Sample_ID": "NIGAHI-008-S07", "Data_Type": "SYNTHETIC_DEMO", "Source_Provenance": "Synthetic borehole interval generated to match GeoVault demonstration corpus" }, "geometry": { "type": "Point", "coordinates": [ 82.61388, 24.147241 ] } },
{ "type": "Feature", "properties": { "Borehole_ID": "NIGAHI-BH-008", "Mine_ID": "M-NIGAHI", "Mine_Code": "NIGAHI", "Mine_Name": "Nigahi OCP", "Interval_No": 8, "From_Depth_m": 79.38, "To_Depth_m": 90.72, "Thickness_m": 11.34, "Lithology": "Mudstone", "Stratigraphic_Unit": "Overburden", "Coal_Bearing": "NO", "Coal_Seam": "", "Weathering_Class": "Fresh", "Sample_ID": "NIGAHI-008-S08", "Data_Type": "SYNTHETIC_DEMO", "Source_Provenance": "Synthetic borehole interval generated to match GeoVault demonstration corpus" }, "geometry": { "type": "Point", "coordinates": [ 82.61388, 24.147241 ] } },
{ "type": "Feature", "properties": { "Borehole_ID": "NIGAHI-BH-008", "Mine_ID": "M-NIGAHI", "Mine_Code": "NIGAHI", "Mine_Name": "Nigahi OCP", "Interval_No": 9, "From_Depth_m": 90.72, "To_Depth_m": 102.06, "Thickness_m": 11.34, "Lithology": "Sandstone", "Stratigraphic_Unit": "Underlying sedimentary sequence", "Coal_Bearing": "NO", "Coal_Seam": "", "Weathering_Class": "Fresh", "Sample_ID": "NIGAHI-008-S09", "Data_Type": "SYNTHETIC_DEMO", "Source_Provenance": "Synthetic borehole interval generated to match GeoVault demonstration corpus" }, "geometry": { "type": "Point", "coordinates": [ 82.61388, 24.147241 ] } },
{ "type": "Feature", "properties": { "Borehole_ID": "NIGAHI-BH-008", "Mine_ID": "M-NIGAHI", "Mine_Code": "NIGAHI", "Mine_Name": "Nigahi OCP", "Interval_No": 10, "From_Depth_m": 102.06, "To_Depth_m": 113.4, "Thickness_m": 11.34, "Lithology": "Mudstone", "Stratigraphic_Unit": "Underlying sedimentary sequence", "Coal_Bearing": "NO", "Coal_Seam": "", "Weathering_Class": "Fresh", "Sample_ID": "NIGAHI-008-S10", "Data_Type": "SYNTHETIC_DEMO", "Source_Provenance": "Synthetic borehole interval generated to match GeoVault demonstration corpus" }, "geometry": { "type": "Point", "coordinates": [ 82.61388, 24.147241 ] } },
{ "type": "Feature", "properties": { "Borehole_ID": "NIGAHI-BH-009", "Mine_ID": "M-NIGAHI", "Mine_Code": "NIGAHI", "Mine_Name": "Nigahi OCP", "Interval_No": 1, "From_Depth_m": 0.0, "To_Depth_m": 12.31, "Thickness_m": 12.31, "Lithology": "Sandstone", "Stratigraphic_Unit": "Underlying sedimentary sequence", "Coal_Bearing": "NO", "Coal_Seam": "", "Weathering_Class": "Moderate", "Sample_ID": "NIGAHI-009-S01", "Data_Type": "SYNTHETIC_DEMO", "Source_Provenance": "Synthetic borehole interval generated to match GeoVault demonstration corpus" }, "geometry": { "type": "Point", "coordinates": [ 82.648174, 24.155379 ] } },
{ "type": "Feature", "properties": { "Borehole_ID": "NIGAHI-BH-009", "Mine_ID": "M-NIGAHI", "Mine_Code": "NIGAHI", "Mine_Name": "Nigahi OCP", "Interval_No": 2, "From_Depth_m": 12.31, "To_Depth_m": 24.62, "Thickness_m": 12.31, "Lithology": "Sandstone", "Stratigraphic_Unit": "Overburden", "Coal_Bearing": "NO", "Coal_Seam": "", "Weathering_Class": "Moderate", "Sample_ID": "NIGAHI-009-S02", "Data_Type": "SYNTHETIC_DEMO", "Source_Provenance": "Synthetic borehole interval generated to match GeoVault demonstration corpus" }, "geometry": { "type": "Point", "coordinates": [ 82.648174, 24.155379 ] } },
{ "type": "Feature", "properties": { "Borehole_ID": "NIGAHI-BH-009", "Mine_ID": "M-NIGAHI", "Mine_Code": "NIGAHI", "Mine_Name": "Nigahi OCP", "Interval_No": 3, "From_Depth_m": 24.62, "To_Depth_m": 36.93, "Thickness_m": 12.31, "Lithology": "Interbedded Sandstone-Shale", "Stratigraphic_Unit": "Barakar-equivalent demo unit", "Coal_Bearing": "NO", "Coal_Seam": "", "Weathering_Class": "Slight", "Sample_ID": "NIGAHI-009-S03", "Data_Type": "SYNTHETIC_DEMO", "Source_Provenance": "Synthetic borehole interval generated to match GeoVault demonstration corpus" }, "geometry": { "type": "Point", "coordinates": [ 82.648174, 24.155379 ] } },
{ "type": "Feature", "properties": { "Borehole_ID": "NIGAHI-BH-009", "Mine_ID": "M-NIGAHI", "Mine_Code": "NIGAHI", "Mine_Name": "Nigahi OCP", "Interval_No": 4, "From_Depth_m": 36.93, "To_Depth_m": 49.24, "Thickness_m": 12.31, "Lithology": "Shale", "Stratigraphic_Unit": "Coal-bearing sequence", "Coal_Bearing": "NO", "Coal_Seam": "", "Weathering_Class": "Fresh", "Sample_ID": "NIGAHI-009-S04", "Data_Type": "SYNTHETIC_DEMO", "Source_Provenance": "Synthetic borehole interval generated to match GeoVault demonstration corpus" }, "geometry": { "type": "Point", "coordinates": [ 82.648174, 24.155379 ] } },
{ "type": "Feature", "properties": { "Borehole_ID": "NIGAHI-BH-009", "Mine_ID": "M-NIGAHI", "Mine_Code": "NIGAHI", "Mine_Name": "Nigahi OCP", "Interval_No": 5, "From_Depth_m": 49.24, "To_Depth_m": 61.55, "Thickness_m": 12.31, "Lithology": "Interbedded Sandstone-Shale", "Stratigraphic_Unit": "Coal-bearing sequence", "Coal_Bearing": "NO", "Coal_Seam": "", "Weathering_Class": "Fresh", "Sample_ID": "NIGAHI-009-S05", "Data_Type": "SYNTHETIC_DEMO", "Source_Provenance": "Synthetic borehole interval generated to match GeoVault demonstration corpus" }, "geometry": { "type": "Point", "coordinates": [ 82.648174, 24.155379 ] } },
{ "type": "Feature", "properties": { "Borehole_ID": "NIGAHI-BH-009", "Mine_ID": "M-NIGAHI", "Mine_Code": "NIGAHI", "Mine_Name": "Nigahi OCP", "Interval_No": 6, "From_Depth_m": 61.55, "To_Depth_m": 73.86, "Thickness_m": 12.31, "Lithology": "Mudstone", "Stratigraphic_Unit": "Coal-bearing sequence", "Coal_Bearing": "NO", "Coal_Seam": "", "Weathering_Class": "Fresh", "Sample_ID": "NIGAHI-009-S06", "Data_Type": "SYNTHETIC_DEMO", "Source_Provenance": "Synthetic borehole interval generated to match GeoVault demonstration corpus" }, "geometry": { "type": "Point", "coordinates": [ 82.648174, 24.155379 ] } },
{ "type": "Feature", "properties": { "Borehole_ID": "NIGAHI-BH-009", "Mine_ID": "M-NIGAHI", "Mine_Code": "NIGAHI", "Mine_Name": "Nigahi OCP", "Interval_No": 7, "From_Depth_m": 73.86, "To_Depth_m": 86.17, "Thickness_m": 12.31, "Lithology": "Carbonaceous Shale", "Stratigraphic_Unit": "Underlying sedimentary sequence", "Coal_Bearing": "NO", "Coal_Seam": "", "Weathering_Class": "Fresh", "Sample_ID": "NIGAHI-009-S07", "Data_Type": "SYNTHETIC_DEMO", "Source_Provenance": "Synthetic borehole interval generated to match GeoVault demonstration corpus" }, "geometry": { "type": "Point", "coordinates": [ 82.648174, 24.155379 ] } },
{ "type": "Feature", "properties": { "Borehole_ID": "NIGAHI-BH-009", "Mine_ID": "M-NIGAHI", "Mine_Code": "NIGAHI", "Mine_Name": "Nigahi OCP", "Interval_No": 8, "From_Depth_m": 86.17, "To_Depth_m": 98.48, "Thickness_m": 12.31, "Lithology": "Coal", "Stratigraphic_Unit": "Underlying sedimentary sequence", "Coal_Bearing": "YES", "Coal_Seam": "Turra", "Weathering_Class": "Fresh", "Sample_ID": "NIGAHI-009-S08", "Data_Type": "SYNTHETIC_DEMO", "Source_Provenance": "Synthetic borehole interval generated to match GeoVault demonstration corpus" }, "geometry": { "type": "Point", "coordinates": [ 82.648174, 24.155379 ] } },
{ "type": "Feature", "properties": { "Borehole_ID": "NIGAHI-BH-009", "Mine_ID": "M-NIGAHI", "Mine_Code": "NIGAHI", "Mine_Name": "Nigahi OCP", "Interval_No": 9, "From_Depth_m": 98.48, "To_Depth_m": 110.79, "Thickness_m": 12.31, "Lithology": "Sandstone", "Stratigraphic_Unit": "Overburden", "Coal_Bearing": "NO", "Coal_Seam": "", "Weathering_Class": "Fresh", "Sample_ID": "NIGAHI-009-S09", "Data_Type": "SYNTHETIC_DEMO", "Source_Provenance": "Synthetic borehole interval generated to match GeoVault demonstration corpus" }, "geometry": { "type": "Point", "coordinates": [ 82.648174, 24.155379 ] } },
{ "type": "Feature", "properties": { "Borehole_ID": "NIGAHI-BH-009", "Mine_ID": "M-NIGAHI", "Mine_Code": "NIGAHI", "Mine_Name": "Nigahi OCP", "Interval_No": 10, "From_Depth_m": 110.79, "To_Depth_m": 123.1, "Thickness_m": 12.31, "Lithology": "Interbedded Sandstone-Shale", "Stratigraphic_Unit": "Barakar-equivalent demo unit", "Coal_Bearing": "NO", "Coal_Seam": "", "Weathering_Class": "Fresh", "Sample_ID": "NIGAHI-009-S10", "Data_Type": "SYNTHETIC_DEMO", "Source_Provenance": "Synthetic borehole interval generated to match GeoVault demonstration corpus" }, "geometry": { "type": "Point", "coordinates": [ 82.648174, 24.155379 ] } },
{ "type": "Feature", "properties": { "Borehole_ID": "NIGAHI-BH-010", "Mine_ID": "M-NIGAHI", "Mine_Code": "NIGAHI", "Mine_Name": "Nigahi OCP", "Interval_No": 1, "From_Depth_m": 0.0, "To_Depth_m": 13.68, "Thickness_m": 13.68, "Lithology": "Mudstone", "Stratigraphic_Unit": "Underlying sedimentary sequence", "Coal_Bearing": "NO", "Coal_Seam": "", "Weathering_Class": "Slight", "Sample_ID": "NIGAHI-010-S01", "Data_Type": "SYNTHETIC_DEMO", "Source_Provenance": "Synthetic borehole interval generated to match GeoVault demonstration corpus" }, "geometry": { "type": "Point", "coordinates": [ 82.648219, 24.136116 ] } },
{ "type": "Feature", "properties": { "Borehole_ID": "NIGAHI-BH-010", "Mine_ID": "M-NIGAHI", "Mine_Code": "NIGAHI", "Mine_Name": "Nigahi OCP", "Interval_No": 2, "From_Depth_m": 13.68, "To_Depth_m": 27.36, "Thickness_m": 13.68, "Lithology": "Mudstone", "Stratigraphic_Unit": "Coal-bearing sequence", "Coal_Bearing": "NO", "Coal_Seam": "", "Weathering_Class": "Moderate", "Sample_ID": "NIGAHI-010-S02", "Data_Type": "SYNTHETIC_DEMO", "Source_Provenance": "Synthetic borehole interval generated to match GeoVault demonstration corpus" }, "geometry": { "type": "Point", "coordinates": [ 82.648219, 24.136116 ] } },
{ "type": "Feature", "properties": { "Borehole_ID": "NIGAHI-BH-010", "Mine_ID": "M-NIGAHI", "Mine_Code": "NIGAHI", "Mine_Name": "Nigahi OCP", "Interval_No": 3, "From_Depth_m": 27.36, "To_Depth_m": 41.04, "Thickness_m": 13.68, "Lithology": "Carbonaceous Shale", "Stratigraphic_Unit": "Underlying sedimentary sequence", "Coal_Bearing": "NO", "Coal_Seam": "", "Weathering_Class": "Fresh", "Sample_ID": "NIGAHI-010-S03", "Data_Type": "SYNTHETIC_DEMO", "Source_Provenance": "Synthetic borehole interval generated to match GeoVault demonstration corpus" }, "geometry": { "type": "Point", "coordinates": [ 82.648219, 24.136116 ] } },
{ "type": "Feature", "properties": { "Borehole_ID": "NIGAHI-BH-010", "Mine_ID": "M-NIGAHI", "Mine_Code": "NIGAHI", "Mine_Name": "Nigahi OCP", "Interval_No": 4, "From_Depth_m": 41.04, "To_Depth_m": 54.72, "Thickness_m": 13.68, "Lithology": "Coal", "Stratigraphic_Unit": "Underlying sedimentary sequence", "Coal_Bearing": "YES", "Coal_Seam": "Purewa Top", "Weathering_Class": "Fresh", "Sample_ID": "NIGAHI-010-S04", "Data_Type": "SYNTHETIC_DEMO", "Source_Provenance": "Synthetic borehole interval generated to match GeoVault demonstration corpus" }, "geometry": { "type": "Point", "coordinates": [ 82.648219, 24.136116 ] } },
{ "type": "Feature", "properties": { "Borehole_ID": "NIGAHI-BH-010", "Mine_ID": "M-NIGAHI", "Mine_Code": "NIGAHI", "Mine_Name": "Nigahi OCP", "Interval_No": 5, "From_Depth_m": 54.72, "To_Depth_m": 68.4, "Thickness_m": 13.68, "Lithology": "Sandstone", "Stratigraphic_Unit": "Coal-bearing sequence", "Coal_Bearing": "NO", "Coal_Seam": "", "Weathering_Class": "Fresh", "Sample_ID": "NIGAHI-010-S05", "Data_Type": "SYNTHETIC_DEMO", "Source_Provenance": "Synthetic borehole interval generated to match GeoVault demonstration corpus" }, "geometry": { "type": "Point", "coordinates": [ 82.648219, 24.136116 ] } },
{ "type": "Feature", "properties": { "Borehole_ID": "NIGAHI-BH-010", "Mine_ID": "M-NIGAHI", "Mine_Code": "NIGAHI", "Mine_Name": "Nigahi OCP", "Interval_No": 6, "From_Depth_m": 68.4, "To_Depth_m": 82.08, "Thickness_m": 13.68, "Lithology": "Mudstone", "Stratigraphic_Unit": "Coal-bearing sequence", "Coal_Bearing": "NO", "Coal_Seam": "", "Weathering_Class": "Fresh", "Sample_ID": "NIGAHI-010-S06", "Data_Type": "SYNTHETIC_DEMO", "Source_Provenance": "Synthetic borehole interval generated to match GeoVault demonstration corpus" }, "geometry": { "type": "Point", "coordinates": [ 82.648219, 24.136116 ] } },
{ "type": "Feature", "properties": { "Borehole_ID": "NIGAHI-BH-010", "Mine_ID": "M-NIGAHI", "Mine_Code": "NIGAHI", "Mine_Name": "Nigahi OCP", "Interval_No": 7, "From_Depth_m": 82.08, "To_Depth_m": 95.76, "Thickness_m": 13.68, "Lithology": "Siltstone", "Stratigraphic_Unit": "Coal-bearing sequence", "Coal_Bearing": "NO", "Coal_Seam": "", "Weathering_Class": "Fresh", "Sample_ID": "NIGAHI-010-S07", "Data_Type": "SYNTHETIC_DEMO", "Source_Provenance": "Synthetic borehole interval generated to match GeoVault demonstration corpus" }, "geometry": { "type": "Point", "coordinates": [ 82.648219, 24.136116 ] } },
{ "type": "Feature", "properties": { "Borehole_ID": "NIGAHI-BH-010", "Mine_ID": "M-NIGAHI", "Mine_Code": "NIGAHI", "Mine_Name": "Nigahi OCP", "Interval_No": 8, "From_Depth_m": 95.76, "To_Depth_m": 109.44, "Thickness_m": 13.68, "Lithology": "Shale", "Stratigraphic_Unit": "Underlying sedimentary sequence", "Coal_Bearing": "NO", "Coal_Seam": "", "Weathering_Class": "Fresh", "Sample_ID": "NIGAHI-010-S08", "Data_Type": "SYNTHETIC_DEMO", "Source_Provenance": "Synthetic borehole interval generated to match GeoVault demonstration corpus" }, "geometry": { "type": "Point", "coordinates": [ 82.648219, 24.136116 ] } },
{ "type": "Feature", "properties": { "Borehole_ID": "NIGAHI-BH-010", "Mine_ID": "M-NIGAHI", "Mine_Code": "NIGAHI", "Mine_Name": "Nigahi OCP", "Interval_No": 9, "From_Depth_m": 109.44, "To_Depth_m": 123.12, "Thickness_m": 13.68, "Lithology": "Sandstone", "Stratigraphic_Unit": "Overburden", "Coal_Bearing": "NO", "Coal_Seam": "", "Weathering_Class": "Fresh", "Sample_ID": "NIGAHI-010-S09", "Data_Type": "SYNTHETIC_DEMO", "Source_Provenance": "Synthetic borehole interval generated to match GeoVault demonstration corpus" }, "geometry": { "type": "Point", "coordinates": [ 82.648219, 24.136116 ] } },
{ "type": "Feature", "properties": { "Borehole_ID": "NIGAHI-BH-010", "Mine_ID": "M-NIGAHI", "Mine_Code": "NIGAHI", "Mine_Name": "Nigahi OCP", "Interval_No": 10, "From_Depth_m": 123.12, "To_Depth_m": 136.8, "Thickness_m": 13.68, "Lithology": "Sandstone", "Stratigraphic_Unit": "Overburden", "Coal_Bearing": "NO", "Coal_Seam": "", "Weathering_Class": "Fresh", "Sample_ID": "NIGAHI-010-S10", "Data_Type": "SYNTHETIC_DEMO", "Source_Provenance": "Synthetic borehole interval generated to match GeoVault demonstration corpus" }, "geometry": { "type": "Point", "coordinates": [ 82.648219, 24.136116 ] } },
{ "type": "Feature", "properties": { "Borehole_ID": "NIGAHI-BH-011", "Mine_ID": "M-NIGAHI", "Mine_Code": "NIGAHI", "Mine_Name": "Nigahi OCP", "Interval_No": 1, "From_Depth_m": 0.0, "To_Depth_m": 23.42, "Thickness_m": 23.42, "Lithology": "Mudstone", "Stratigraphic_Unit": "Overburden", "Coal_Bearing": "NO", "Coal_Seam": "", "Weathering_Class": "Moderate", "Sample_ID": "NIGAHI-011-S01", "Data_Type": "SYNTHETIC_DEMO", "Source_Provenance": "Synthetic borehole interval generated to match GeoVault demonstration corpus" }, "geometry": { "type": "Point", "coordinates": [ 82.647939, 24.129781 ] } },
{ "type": "Feature", "properties": { "Borehole_ID": "NIGAHI-BH-011", "Mine_ID": "M-NIGAHI", "Mine_Code": "NIGAHI", "Mine_Name": "Nigahi OCP", "Interval_No": 2, "From_Depth_m": 23.42, "To_Depth_m": 46.84, "Thickness_m": 23.42, "Lithology": "Shale", "Stratigraphic_Unit": "Overburden", "Coal_Bearing": "NO", "Coal_Seam": "", "Weathering_Class": "Moderate", "Sample_ID": "NIGAHI-011-S02", "Data_Type": "SYNTHETIC_DEMO", "Source_Provenance": "Synthetic borehole interval generated to match GeoVault demonstration corpus" }, "geometry": { "type": "Point", "coordinates": [ 82.647939, 24.129781 ] } },
{ "type": "Feature", "properties": { "Borehole_ID": "NIGAHI-BH-011", "Mine_ID": "M-NIGAHI", "Mine_Code": "NIGAHI", "Mine_Name": "Nigahi OCP", "Interval_No": 3, "From_Depth_m": 46.84, "To_Depth_m": 70.26, "Thickness_m": 23.42, "Lithology": "Sandstone", "Stratigraphic_Unit": "Underlying sedimentary sequence", "Coal_Bearing": "NO", "Coal_Seam": "", "Weathering_Class": "Fresh", "Sample_ID": "NIGAHI-011-S03", "Data_Type": "SYNTHETIC_DEMO", "Source_Provenance": "Synthetic borehole interval generated to match GeoVault demonstration corpus" }, "geometry": { "type": "Point", "coordinates": [ 82.647939, 24.129781 ] } },
{ "type": "Feature", "properties": { "Borehole_ID": "NIGAHI-BH-011", "Mine_ID": "M-NIGAHI", "Mine_Code": "NIGAHI", "Mine_Name": "Nigahi OCP", "Interval_No": 4, "From_Depth_m": 70.26, "To_Depth_m": 93.68, "Thickness_m": 23.42, "Lithology": "Siltstone", "Stratigraphic_Unit": "Underlying sedimentary sequence", "Coal_Bearing": "NO", "Coal_Seam": "", "Weathering_Class": "Fresh", "Sample_ID": "NIGAHI-011-S04", "Data_Type": "SYNTHETIC_DEMO", "Source_Provenance": "Synthetic borehole interval generated to match GeoVault demonstration corpus" }, "geometry": { "type": "Point", "coordinates": [ 82.647939, 24.129781 ] } },
{ "type": "Feature", "properties": { "Borehole_ID": "NIGAHI-BH-011", "Mine_ID": "M-NIGAHI", "Mine_Code": "NIGAHI", "Mine_Name": "Nigahi OCP", "Interval_No": 5, "From_Depth_m": 93.68, "To_Depth_m": 117.1, "Thickness_m": 23.42, "Lithology": "Carbonaceous Shale", "Stratigraphic_Unit": "Overburden", "Coal_Bearing": "NO", "Coal_Seam": "", "Weathering_Class": "Fresh", "Sample_ID": "NIGAHI-011-S05", "Data_Type": "SYNTHETIC_DEMO", "Source_Provenance": "Synthetic borehole interval generated to match GeoVault demonstration corpus" }, "geometry": { "type": "Point", "coordinates": [ 82.647939, 24.129781 ] } },
{ "type": "Feature", "properties": { "Borehole_ID": "NIGAHI-BH-011", "Mine_ID": "M-NIGAHI", "Mine_Code": "NIGAHI", "Mine_Name": "Nigahi OCP", "Interval_No": 6, "From_Depth_m": 117.1, "To_Depth_m": 140.52, "Thickness_m": 23.42, "Lithology": "Coal", "Stratigraphic_Unit": "Coal-bearing sequence", "Coal_Bearing": "YES", "Coal_Seam": "Turra", "Weathering_Class": "Fresh", "Sample_ID": "NIGAHI-011-S06", "Data_Type": "SYNTHETIC_DEMO", "Source_Provenance": "Synthetic borehole interval generated to match GeoVault demonstration corpus" }, "geometry": { "type": "Point", "coordinates": [ 82.647939, 24.129781 ] } },
{ "type": "Feature", "properties": { "Borehole_ID": "NIGAHI-BH-011", "Mine_ID": "M-NIGAHI", "Mine_Code": "NIGAHI", "Mine_Name": "Nigahi OCP", "Interval_No": 7, "From_Depth_m": 140.52, "To_Depth_m": 163.94, "Thickness_m": 23.42, "Lithology": "Interbedded Sandstone-Shale", "Stratigraphic_Unit": "Coal-bearing sequence", "Coal_Bearing": "NO", "Coal_Seam": "", "Weathering_Class": "Fresh", "Sample_ID": "NIGAHI-011-S07", "Data_Type": "SYNTHETIC_DEMO", "Source_Provenance": "Synthetic borehole interval generated to match GeoVault demonstration corpus" }, "geometry": { "type": "Point", "coordinates": [ 82.647939, 24.129781 ] } },
{ "type": "Feature", "properties": { "Borehole_ID": "NIGAHI-BH-011", "Mine_ID": "M-NIGAHI", "Mine_Code": "NIGAHI", "Mine_Name": "Nigahi OCP", "Interval_No": 8, "From_Depth_m": 163.94, "To_Depth_m": 187.36, "Thickness_m": 23.42, "Lithology": "Siltstone", "Stratigraphic_Unit": "Overburden", "Coal_Bearing": "NO", "Coal_Seam": "", "Weathering_Class": "Fresh", "Sample_ID": "NIGAHI-011-S08", "Data_Type": "SYNTHETIC_DEMO", "Source_Provenance": "Synthetic borehole interval generated to match GeoVault demonstration corpus" }, "geometry": { "type": "Point", "coordinates": [ 82.647939, 24.129781 ] } },
{ "type": "Feature", "properties": { "Borehole_ID": "NIGAHI-BH-011", "Mine_ID": "M-NIGAHI", "Mine_Code": "NIGAHI", "Mine_Name": "Nigahi OCP", "Interval_No": 9, "From_Depth_m": 187.36, "To_Depth_m": 210.78, "Thickness_m": 23.42, "Lithology": "Interbedded Sandstone-Shale", "Stratigraphic_Unit": "Barakar-equivalent demo unit", "Coal_Bearing": "NO", "Coal_Seam": "", "Weathering_Class": "Fresh", "Sample_ID": "NIGAHI-011-S09", "Data_Type": "SYNTHETIC_DEMO", "Source_Provenance": "Synthetic borehole interval generated to match GeoVault demonstration corpus" }, "geometry": { "type": "Point", "coordinates": [ 82.647939, 24.129781 ] } },
{ "type": "Feature", "properties": { "Borehole_ID": "NIGAHI-BH-011", "Mine_ID": "M-NIGAHI", "Mine_Code": "NIGAHI", "Mine_Name": "Nigahi OCP", "Interval_No": 10, "From_Depth_m": 210.78, "To_Depth_m": 234.2, "Thickness_m": 23.42, "Lithology": "Shale", "Stratigraphic_Unit": "Underlying sedimentary sequence", "Coal_Bearing": "NO", "Coal_Seam": "", "Weathering_Class": "Fresh", "Sample_ID": "NIGAHI-011-S10", "Data_Type": "SYNTHETIC_DEMO", "Source_Provenance": "Synthetic borehole interval generated to match GeoVault demonstration corpus" }, "geometry": { "type": "Point", "coordinates": [ 82.647939, 24.129781 ] } },
{ "type": "Feature", "properties": { "Borehole_ID": "NIGAHI-BH-012", "Mine_ID": "M-NIGAHI", "Mine_Code": "NIGAHI", "Mine_Name": "Nigahi OCP", "Interval_No": 1, "From_Depth_m": 0.0, "To_Depth_m": 21.26, "Thickness_m": 21.26, "Lithology": "Shale", "Stratigraphic_Unit": "Overburden", "Coal_Bearing": "NO", "Coal_Seam": "", "Weathering_Class": "Moderate", "Sample_ID": "NIGAHI-012-S01", "Data_Type": "SYNTHETIC_DEMO", "Source_Provenance": "Synthetic borehole interval generated to match GeoVault demonstration corpus" }, "geometry": { "type": "Point", "coordinates": [ 82.60251, 24.145881 ] } },
{ "type": "Feature", "properties": { "Borehole_ID": "NIGAHI-BH-012", "Mine_ID": "M-NIGAHI", "Mine_Code": "NIGAHI", "Mine_Name": "Nigahi OCP", "Interval_No": 2, "From_Depth_m": 21.26, "To_Depth_m": 42.52, "Thickness_m": 21.26, "Lithology": "Interbedded Sandstone-Shale", "Stratigraphic_Unit": "Coal-bearing sequence", "Coal_Bearing": "NO", "Coal_Seam": "", "Weathering_Class": "Slight", "Sample_ID": "NIGAHI-012-S02", "Data_Type": "SYNTHETIC_DEMO", "Source_Provenance": "Synthetic borehole interval generated to match GeoVault demonstration corpus" }, "geometry": { "type": "Point", "coordinates": [ 82.60251, 24.145881 ] } },
{ "type": "Feature", "properties": { "Borehole_ID": "NIGAHI-BH-012", "Mine_ID": "M-NIGAHI", "Mine_Code": "NIGAHI", "Mine_Name": "Nigahi OCP", "Interval_No": 3, "From_Depth_m": 42.52, "To_Depth_m": 63.78, "Thickness_m": 21.26, "Lithology": "Siltstone", "Stratigraphic_Unit": "Barakar-equivalent demo unit", "Coal_Bearing": "NO", "Coal_Seam": "", "Weathering_Class": "Fresh", "Sample_ID": "NIGAHI-012-S03", "Data_Type": "SYNTHETIC_DEMO", "Source_Provenance": "Synthetic borehole interval generated to match GeoVault demonstration corpus" }, "geometry": { "type": "Point", "coordinates": [ 82.60251, 24.145881 ] } },
{ "type": "Feature", "properties": { "Borehole_ID": "NIGAHI-BH-012", "Mine_ID": "M-NIGAHI", "Mine_Code": "NIGAHI", "Mine_Name": "Nigahi OCP", "Interval_No": 4, "From_Depth_m": 63.78, "To_Depth_m": 85.04, "Thickness_m": 21.26, "Lithology": "Mudstone", "Stratigraphic_Unit": "Overburden", "Coal_Bearing": "NO", "Coal_Seam": "", "Weathering_Class": "Fresh", "Sample_ID": "NIGAHI-012-S04", "Data_Type": "SYNTHETIC_DEMO", "Source_Provenance": "Synthetic borehole interval generated to match GeoVault demonstration corpus" }, "geometry": { "type": "Point", "coordinates": [ 82.60251, 24.145881 ] } },
{ "type": "Feature", "properties": { "Borehole_ID": "NIGAHI-BH-012", "Mine_ID": "M-NIGAHI", "Mine_Code": "NIGAHI", "Mine_Name": "Nigahi OCP", "Interval_No": 5, "From_Depth_m": 85.04, "To_Depth_m": 106.3, "Thickness_m": 21.26, "Lithology": "Interbedded Sandstone-Shale", "Stratigraphic_Unit": "Coal-bearing sequence", "Coal_Bearing": "NO", "Coal_Seam": "", "Weathering_Class": "Fresh", "Sample_ID": "NIGAHI-012-S05", "Data_Type": "SYNTHETIC_DEMO", "Source_Provenance": "Synthetic borehole interval generated to match GeoVault demonstration corpus" }, "geometry": { "type": "Point", "coordinates": [ 82.60251, 24.145881 ] } },
{ "type": "Feature", "properties": { "Borehole_ID": "NIGAHI-BH-012", "Mine_ID": "M-NIGAHI", "Mine_Code": "NIGAHI", "Mine_Name": "Nigahi OCP", "Interval_No": 6, "From_Depth_m": 106.3, "To_Depth_m": 127.56, "Thickness_m": 21.26, "Lithology": "Carbonaceous Shale", "Stratigraphic_Unit": "Overburden", "Coal_Bearing": "NO", "Coal_Seam": "", "Weathering_Class": "Fresh", "Sample_ID": "NIGAHI-012-S06", "Data_Type": "SYNTHETIC_DEMO", "Source_Provenance": "Synthetic borehole interval generated to match GeoVault demonstration corpus" }, "geometry": { "type": "Point", "coordinates": [ 82.60251, 24.145881 ] } },
{ "type": "Feature", "properties": { "Borehole_ID": "NIGAHI-BH-012", "Mine_ID": "M-NIGAHI", "Mine_Code": "NIGAHI", "Mine_Name": "Nigahi OCP", "Interval_No": 7, "From_Depth_m": 127.56, "To_Depth_m": 148.82, "Thickness_m": 21.26, "Lithology": "Coal", "Stratigraphic_Unit": "Barakar-equivalent demo unit", "Coal_Bearing": "YES", "Coal_Seam": "Purewa Bottom", "Weathering_Class": "Fresh", "Sample_ID": "NIGAHI-012-S07", "Data_Type": "SYNTHETIC_DEMO", "Source_Provenance": "Synthetic borehole interval generated to match GeoVault demonstration corpus" }, "geometry": { "type": "Point", "coordinates": [ 82.60251, 24.145881 ] } },
{ "type": "Feature", "properties": { "Borehole_ID": "NIGAHI-BH-012", "Mine_ID": "M-NIGAHI", "Mine_Code": "NIGAHI", "Mine_Name": "Nigahi OCP", "Interval_No": 8, "From_Depth_m": 148.82, "To_Depth_m": 170.08, "Thickness_m": 21.26, "Lithology": "Siltstone", "Stratigraphic_Unit": "Coal-bearing sequence", "Coal_Bearing": "NO", "Coal_Seam": "", "Weathering_Class": "Fresh", "Sample_ID": "NIGAHI-012-S08", "Data_Type": "SYNTHETIC_DEMO", "Source_Provenance": "Synthetic borehole interval generated to match GeoVault demonstration corpus" }, "geometry": { "type": "Point", "coordinates": [ 82.60251, 24.145881 ] } },
{ "type": "Feature", "properties": { "Borehole_ID": "NIGAHI-BH-012", "Mine_ID": "M-NIGAHI", "Mine_Code": "NIGAHI", "Mine_Name": "Nigahi OCP", "Interval_No": 9, "From_Depth_m": 170.08, "To_Depth_m": 191.34, "Thickness_m": 21.26, "Lithology": "Siltstone", "Stratigraphic_Unit": "Coal-bearing sequence", "Coal_Bearing": "NO", "Coal_Seam": "", "Weathering_Class": "Fresh", "Sample_ID": "NIGAHI-012-S09", "Data_Type": "SYNTHETIC_DEMO", "Source_Provenance": "Synthetic borehole interval generated to match GeoVault demonstration corpus" }, "geometry": { "type": "Point", "coordinates": [ 82.60251, 24.145881 ] } },
{ "type": "Feature", "properties": { "Borehole_ID": "NIGAHI-BH-012", "Mine_ID": "M-NIGAHI", "Mine_Code": "NIGAHI", "Mine_Name": "Nigahi OCP", "Interval_No": 10, "From_Depth_m": 191.34, "To_Depth_m": 212.6, "Thickness_m": 21.26, "Lithology": "Sandstone", "Stratigraphic_Unit": "Barakar-equivalent demo unit", "Coal_Bearing": "NO", "Coal_Seam": "", "Weathering_Class": "Fresh", "Sample_ID": "NIGAHI-012-S10", "Data_Type": "SYNTHETIC_DEMO", "Source_Provenance": "Synthetic borehole interval generated to match GeoVault demonstration corpus" }, "geometry": { "type": "Point", "coordinates": [ 82.60251, 24.145881 ] } }
]
}
