{
"type": "FeatureCollection",
"name": "coal_seam_belts",
"crs": { "type": "name", "properties": { "name": "urn:ogc:def:crs:OGC:1.3:CRS84" } },
"features": [
{ "type": "Feature", "properties": { "Seam_ID": "Purewa Top", "Mine_ID": "M-NIGAHI", "Mine_Code": "NIGAHI", "Feature_Type": "SYNTHETIC_SEAM_BELT", "Width_m": 100, "Data_Type": "SYNTHETIC_DEMO", "Source_Provenance": "Buffered demonstration representation of seam trace" }, "geometry": { "type": "Polygon", "coordinates": [ [ [ 82.614909554729067, 24.14310912404153 ], [ 82.615013019503834, 24.143129610616587 ], [ 82.615118066557343, 24.143139085632257 ], [ 82.615223527276925, 24.143137443682217 ], [ 82.634778333843727, 24.141799194615121 ], [ 82.652366568352406, 24.145365609759782 ], [ 82.65246358743353, 24.145380369317778 ], [ 82.652561586030941, 24.14538554827158 ], [ 82.652659620364545, 24.14538109674503 ], [ 82.652756746310146, 24.145367057608759 ], [ 82.652852028491779, 24.145343566067332 ], [ 82.652944549289955, 24.145310848357127 ], [ 82.653033417678799, 24.145269219567581 ], [ 82.653117777807168, 24.145219080606694 ], [ 82.653196817240882, 24.145160914340071 ], [ 82.653269774787006, 24.145095280940652 ], [ 82.653335947824488, 24.145022812493952 ], [ 82.653394699070788, 24.144944206910733 ], [ 82.653445462719304, 24.144860221205729 ], [ 82.653487749888342, 24.144771664207187 ], [ 82.653521153329351, 24.144679388767422 ], [ 82.653545351348924, 24.144584283549353 ], [ 82.653560110906923, 24.144487264468221 ], [ 82.653565289860722, 24.144389265870817 ], [ 82.653560838334172, 24.144291231537203 ], [ 82.653546799197912, 24.144194105591605 ], [ 82.653523307656471, 24.144098823409973 ], [ 82.653490589946273, 24.1440063026118 ], [ 82.653448961156727, 24.143917434222949 ], [ 82.65339882219584, 24.143833074094591 ], [ 82.653340655929213, 24.143754034660873 ], [ 82.653275022529797, 24.143681077114749 ], [ 82.653202554083094, 24.143614904077271 ], [ 82.653123948499882, 24.143556152830968 ], [ 82.653039962794878, 24.143505389182454 ], [ 82.65295140579633, 24.143463102013417 ], [ 82.652859130356561, 24.143429698572408 ], [ 82.652764025138495, 24.143405500552827 ], [ 82.63504347723071, 24.139812255852863 ], [ 82.634955120595265, 24.139798420082546 ], [ 82.634865881170782, 24.139792533769025 ], [ 82.634776472723075, 24.13979464399295 ], [ 82.615246221497003, 24.141131212595361 ], [ 82.597680399687817, 24.13667887452117 ], [ 82.597584203988774, 24.136659459729294 ], [ 82.597486568515947, 24.136649567252277 ], [ 82.597388433552311, 24.136649292360083 ], [ 82.597290744191184, 24.136658637700073 ], [ 82.597194441234549, 24.136677513271515 ], [ 82.597100452132494, 24.136705737292335 ], [ 82.597009682051464, 24.136743037949788 ], [ 82.596923005156967, 24.136789056018149 ], [ 82.596841256194864, 24.136843348318262 ], [ 82.596765222452376, 24.1369053919856 ], [ 82.596695636175966, 24.13697458950573 ], [ 82.596633167519556, 24.137050274468709 ], [ 82.596578418090431, 24.137131717986964 ], [ 82.596531915155524, 24.137218135714896 ], [ 82.596494106563526, 24.137308695402545 ], [ 82.59646535643185, 24.137402524910613 ], [ 82.596445941639971, 24.137498720609642 ], [ 82.596436049162961, 24.137596356082469 ], [ 82.596435774270759, 24.137694491046116 ], [ 82.596445119610749, 24.137792180407235 ], [ 82.596463995182191, 24.137888483363881 ], [ 82.596492219203014, 24.137982472465932 ], [ 82.596529519860468, 24.138073242546955 ], [ 82.596575537928828, 24.138159919441456 ], [ 82.596629830228935, 24.138241668403552 ], [ 82.596691873896276, 24.138317702146054 ], [ 82.59676107141641, 24.138387288422454 ], [ 82.596836756379389, 24.138449757078874 ], [ 82.596918199897644, 24.138504506507999 ], [ 82.597004617625572, 24.138551009442903 ], [ 82.597095177313221, 24.138588818034897 ], [ 82.597189006821282, 24.138617568166577 ], [ 82.614909554729067, 24.14310912404153 ] ] ] } },
{ "type": "Feature", "properties": { "Seam_ID": "Purewa Bottom", "Mine_ID": "M-NIGAHI", "Mine_Code": "NIGAHI", "Feature_Type": "SYNTHETIC_SEAM_BELT", "Width_m": 100, "Data_Type": "SYNTHETIC_DEMO", "Source_Provenance": "Buffered demonstration representation of seam trace" }, "geometry": { "type": "Polygon", "coordinates": [ [ [ 82.614909554729067, 24.148948146678972 ], [ 82.615013019503834, 24.148968633254029 ], [ 82.615118066557343, 24.148978108269699 ], [ 82.615223527276925, 24.14897646631966 ], [ 82.634778333843727, 24.147638217252563 ], [ 82.652366568352406, 24.151204632397224 ], [ 82.65246358743353, 24.15121939195522 ], [ 82.652561586030941, 24.151224570909022 ], [ 82.652659620364545, 24.151220119382472 ], [ 82.652756746310146, 24.151206080246201 ], [ 82.652852028491779, 24.151182588704774 ], [ 82.652944549289955, 24.151149870994569 ], [ 82.653033417678799, 24.151108242205023 ], [ 82.653117777807168, 24.151058103244136 ], [ 82.653196817240882, 24.150999936977513 ], [ 82.653269774787006, 24.150934303578094 ], [ 82.653335947824488, 24.150861835131394 ], [ 82.653394699070788, 24.150783229548175 ], [ 82.653445462719304, 24.150699243843171 ], [ 82.653487749888342, 24.15061068684463 ], [ 82.653521153329351, 24.150518411404864 ], [ 82.653545351348924, 24.150423306186795 ], [ 82.653560110906923, 24.150326287105663 ], [ 82.653565289860722, 24.150228288508259 ], [ 82.653560838334172, 24.150130254174645 ], [ 82.653546799197912, 24.150033128229047 ], [ 82.653523307656471, 24.149937846047415 ], [ 82.653490589946273, 24.149845325249242 ], [ 82.653448961156727, 24.149756456860391 ], [ 82.65339882219584, 24.149672096732033 ], [ 82.653340655929213, 24.149593057298315 ], [ 82.653275022529797, 24.149520099752191 ], [ 82.653202554083094, 24.149453926714713 ], [ 82.653123948499882, 24.14939517546841 ], [ 82.653039962794878, 24.149344411819897 ], [ 82.65295140579633, 24.149302124650859 ], [ 82.652859130356561, 24.14926872120985 ], [ 82.652764025138495, 24.149244523190269 ], [ 82.63504347723071, 24.145651278490305 ], [ 82.634955120595265, 24.145637442719988 ], [ 82.634865881170782, 24.145631556406467 ], [ 82.634776472723075, 24.145633666630392 ], [ 82.615246221497003, 24.146970235232804 ], [ 82.597680399687817, 24.142517897158609 ], [ 82.597584203988774, 24.142498482366733 ], [ 82.597486568515947, 24.142488589889716 ], [ 82.597388433552311, 24.142488314997522 ], [ 82.597290744191184, 24.142497660337511 ], [ 82.597194441234549, 24.142516535908953 ], [ 82.597100452132494, 24.142544759929773 ], [ 82.597009682051464, 24.142582060587227 ], [ 82.596923005156967, 24.142628078655584 ], [ 82.596841256194864, 24.142682370955701 ], [ 82.596765222452376, 24.142744414623039 ], [ 82.596695636175966, 24.142813612143168 ], [ 82.596633167519556, 24.142889297106148 ], [ 82.596578418090431, 24.142970740624403 ], [ 82.596531915155524, 24.143057158352335 ], [ 82.596494106563526, 24.143147718039984 ], [ 82.59646535643185, 24.143241547548051 ], [ 82.596445941639971, 24.143337743247081 ], [ 82.596436049162961, 24.143435378719907 ], [ 82.596435774270759, 24.143533513683554 ], [ 82.596445119610749, 24.143631203044674 ], [ 82.596463995182191, 24.143727506001319 ], [ 82.596492219203014, 24.143821495103371 ], [ 82.596529519860468, 24.143912265184394 ], [ 82.596575537928828, 24.143998942078895 ], [ 82.596629830228935, 24.14408069104099 ], [ 82.596691873896276, 24.144156724783493 ], [ 82.59676107141641, 24.144226311059892 ], [ 82.596836756379389, 24.144288779716312 ], [ 82.596918199897644, 24.144343529145438 ], [ 82.597004617625572, 24.144390032080342 ], [ 82.597095177313221, 24.144427840672336 ], [ 82.597189006821282, 24.144456590804015 ], [ 82.614909554729067, 24.148948146678972 ] ] ] } },
{ "type": "Feature", "properties": { "Seam_ID": "Purewa Merged", "Mine_ID": "M-NIGAHI", "Mine_Code": "NIGAHI", "Feature_Type": "SYNTHETIC_SEAM_BELT", "Width_m": 100, "Data_Type": "SYNTHETIC_DEMO", "Source_Provenance": "Buffered demonstration representation of seam trace" }, "geometry": { "type": "Polygon", "coordinates": [ [ [ 82.614909554729067, 24.154787169316414 ], [ 82.615013019503834, 24.154807655891471 ], [ 82.615118066557343, 24.154817130907141 ], [ 82.615223527276925, 24.154815488957102 ], [ 82.634778333843727, 24.153477239890005 ], [ 82.652366568352406, 24.157043655034666 ], [ 82.65246358743353, 24.157058414592662 ], [ 82.652561586030941, 24.157063593546464 ], [ 82.652659620364545, 24.157059142019914 ], [ 82.652756746310146, 24.157045102883643 ], [ 82.652852028491779, 24.157021611342216 ], [ 82.652944549289955, 24.156988893632011 ], [ 82.653033417678799, 24.156947264842465 ], [ 82.653117777807168, 24.156897125881578 ], [ 82.653196817240882, 24.156838959614955 ], [ 82.653269774787006, 24.156773326215536 ], [ 82.653335947824488, 24.156700857768836 ], [ 82.653394699070788, 24.156622252185617 ], [ 82.653445462719304, 24.156538266480613 ], [ 82.653487749888342, 24.156449709482072 ], [ 82.653521153329351, 24.156357434042306 ], [ 82.653545351348924, 24.156262328824237 ], [ 82.653560110906923, 24.156165309743105 ], [ 82.653565289860722, 24.156067311145701 ], [ 82.653560838334172, 24.155969276812087 ], [ 82.653546799197912, 24.15587215086649 ], [ 82.653523307656471, 24.155776868684857 ], [ 82.653490589946273, 24.155684347886684 ], [ 82.653448961156727, 24.155595479497833 ], [ 82.65339882219584, 24.155511119369475 ], [ 82.653340655929213, 24.155432079935757 ], [ 82.653275022529797, 24.155359122389633 ], [ 82.653202554083094, 24.155292949352155 ], [ 82.653123948499882, 24.155234198105852 ], [ 82.653039962794878, 24.155183434457339 ], [ 82.65295140579633, 24.155141147288301 ], [ 82.652859130356561, 24.155107743847292 ], [ 82.652764025138495, 24.155083545827711 ], [ 82.63504347723071, 24.151490301127748 ], [ 82.634955120595265, 24.15147646535743 ], [ 82.634865881170782, 24.151470579043909 ], [ 82.634776472723075, 24.151472689267834 ], [ 82.615246221497003, 24.152809257870246 ], [ 82.597680399687817, 24.148356919796051 ], [ 82.597584203988774, 24.148337505004175 ], [ 82.597486568515947, 24.148327612527158 ], [ 82.597388433552311, 24.148327337634964 ], [ 82.597290744191184, 24.148336682974954 ], [ 82.597194441234549, 24.148355558546395 ], [ 82.597100452132494, 24.148383782567215 ], [ 82.597009682051464, 24.148421083224669 ], [ 82.596923005156967, 24.148467101293026 ], [ 82.596841256194864, 24.148521393593143 ], [ 82.596765222452376, 24.148583437260481 ], [ 82.596695636175966, 24.148652634780611 ], [ 82.596633167519556, 24.14872831974359 ], [ 82.596578418090431, 24.148809763261845 ], [ 82.596531915155524, 24.148896180989777 ], [ 82.596494106563526, 24.148986740677426 ], [ 82.59646535643185, 24.149080570185493 ], [ 82.596445941639971, 24.149176765884523 ], [ 82.596436049162961, 24.149274401357349 ], [ 82.596435774270759, 24.149372536320996 ], [ 82.596445119610749, 24.149470225682116 ], [ 82.596463995182191, 24.149566528638761 ], [ 82.596492219203014, 24.149660517740813 ], [ 82.596529519860468, 24.149751287821836 ], [ 82.596575537928828, 24.149837964716337 ], [ 82.596629830228935, 24.149919713678432 ], [ 82.596691873896276, 24.149995747420935 ], [ 82.59676107141641, 24.150065333697334 ], [ 82.596836756379389, 24.150127802353754 ], [ 82.596918199897644, 24.15018255178288 ], [ 82.597004617625572, 24.150229054717784 ], [ 82.597095177313221, 24.150266863309778 ], [ 82.597189006821282, 24.150295613441457 ], [ 82.614909554729067, 24.154787169316414 ] ] ] } },
{ "type": "Feature", "properties": { "Seam_ID": "Turra", "Mine_ID": "M-NIGAHI", "Mine_Code": "NIGAHI", "Feature_Type": "SYNTHETIC_SEAM_BELT", "Width_m": 100, "Data_Type": "SYNTHETIC_DEMO", "Source_Provenance": "Buffered demonstration representation of seam trace" }, "geometry": { "type": "Polygon", "coordinates": [ [ [ 82.614909554729067, 24.160626191953856 ], [ 82.615013019503834, 24.160646678528913 ], [ 82.615118066557343, 24.160656153544583 ], [ 82.615223527276925, 24.160654511594544 ], [ 82.634778333843727, 24.159316262527447 ], [ 82.652366568352406, 24.162882677672108 ], [ 82.65246358743353, 24.162897437230104 ], [ 82.652561586030941, 24.162902616183906 ], [ 82.652659620364545, 24.162898164657356 ], [ 82.652756746310146, 24.162884125521085 ], [ 82.652852028491779, 24.162860633979658 ], [ 82.652944549289955, 24.162827916269453 ], [ 82.653033417678799, 24.162786287479907 ], [ 82.653117777807168, 24.16273614851902 ], [ 82.653196817240882, 24.162677982252397 ], [ 82.653269774787006, 24.162612348852978 ], [ 82.653335947824488, 24.162539880406278 ], [ 82.653394699070788, 24.162461274823059 ], [ 82.653445462719304, 24.162377289118055 ], [ 82.653487749888342, 24.162288732119514 ], [ 82.653521153329351, 24.162196456679748 ], [ 82.653545351348924, 24.162101351461679 ], [ 82.653560110906923, 24.162004332380548 ], [ 82.653565289860722, 24.161906333783143 ], [ 82.653560838334172, 24.161808299449529 ], [ 82.653546799197912, 24.161711173503932 ], [ 82.653523307656471, 24.161615891322299 ], [ 82.653490589946273, 24.161523370524126 ], [ 82.653448961156727, 24.161434502135275 ], [ 82.65339882219584, 24.161350142006917 ], [ 82.653340655929213, 24.161271102573199 ], [ 82.653275022529797, 24.161198145027075 ], [ 82.653202554083094, 24.161131971989597 ], [ 82.653123948499882, 24.161073220743294 ], [ 82.653039962794878, 24.161022457094781 ], [ 82.65295140579633, 24.160980169925743 ], [ 82.652859130356561, 24.160946766484734 ], [ 82.652764025138495, 24.160922568465153 ], [ 82.63504347723071, 24.15732932376519 ], [ 82.634955120595265, 24.157315487994872 ], [ 82.634865881170782, 24.157309601681352 ], [ 82.634776472723075, 24.157311711905276 ], [ 82.615246221497003, 24.158648280507688 ], [ 82.597680399687817, 24.154195942433493 ], [ 82.597584203988774, 24.154176527641617 ], [ 82.597486568515947, 24.1541666351646 ], [ 82.597388433552311, 24.154166360272406 ], [ 82.597290744191184, 24.154175705612396 ], [ 82.597194441234549, 24.154194581183837 ], [ 82.597100452132494, 24.154222805204657 ], [ 82.597009682051464, 24.154260105862111 ], [ 82.596923005156967, 24.154306123930468 ], [ 82.596841256194864, 24.154360416230585 ], [ 82.596765222452376, 24.154422459897923 ], [ 82.596695636175966, 24.154491657418053 ], [ 82.596633167519556, 24.154567342381032 ], [ 82.596578418090431, 24.154648785899287 ], [ 82.596531915155524, 24.154735203627219 ], [ 82.596494106563526, 24.154825763314868 ], [ 82.59646535643185, 24.154919592822935 ], [ 82.596445941639971, 24.155015788521965 ], [ 82.596436049162961, 24.155113423994791 ], [ 82.596435774270759, 24.155211558958438 ], [ 82.596445119610749, 24.155309248319558 ], [ 82.596463995182191, 24.155405551276203 ], [ 82.596492219203014, 24.155499540378255 ], [ 82.596529519860468, 24.155590310459278 ], [ 82.596575537928828, 24.155676987353779 ], [ 82.596629830228935, 24.155758736315875 ], [ 82.596691873896276, 24.155834770058377 ], [ 82.59676107141641, 24.155904356334776 ], [ 82.596836756379389, 24.155966824991197 ], [ 82.596918199897644, 24.156021574420322 ], [ 82.597004617625572, 24.156068077355226 ], [ 82.597095177313221, 24.15610588594722 ], [ 82.597189006821282, 24.1561346360789 ], [ 82.614909554729067, 24.160626191953856 ] ] ] } }
]
}
