{
"type": "FeatureCollection",
"name": "geological_contacts",
"crs": { "type": "name", "properties": { "name": "urn:ogc:def:crs:OGC:1.3:CRS84" } },
"features": [
{ "type": "Feature", "properties": { "Contact_ID": "NIGAHI-GC-01", "Mine_ID": "M-NIGAHI", "Mine_Code": "NIGAHI", "Contact_Type": "GEOLOGICAL_BOUNDARY", "Unit_A": "Sandstone", "Unit_B": "Shale", "Confidence": "DEMO", "Data_Type": "SYNTHETIC_DEMO", "Source_Provenance": "Synthetic geological contact" }, "geometry": { "type": "LineString", "coordinates": [ [ 82.585, 24.12 ], [ 82.605, 24.18 ] ] } },
{ "type": "Feature", "properties": { "Contact_ID": "NIGAHI-GC-02", "Mine_ID": "M-NIGAHI", "Mine_Code": "NIGAHI", "Contact_Type": "SEAM_CONTACT", "Unit_A": "Sandstone", "Unit_B": "Shale", "Confidence": "DEMO", "Data_Type": "SYNTHETIC_DEMO", "Source_Provenance": "Synthetic geological contact" }, "geometry": { "type": "LineString", "coordinates": [ [ 82.615, 24.12 ], [ 82.635, 24.18 ] ] } },
{ "type": "Feature", "properties": { "Contact_ID": "NIGAHI-GC-03", "Mine_ID": "M-NIGAHI", "Mine_Code": "NIGAHI", "Contact_Type": "STRATIGRAPHIC_CONTACT", "Unit_A": "Sandstone", "Unit_B": "Shale", "Confidence": "DEMO", "Data_Type": "SYNTHETIC_DEMO", "Source_Provenance": "Synthetic geological contact" }, "geometry": { "type": "LineString", "coordinates": [ [ 82.645, 24.12 ], [ 82.665, 24.18 ] ] } }
]
}
