{
"type": "FeatureCollection",
"name": "geological_units",
"crs": { "type": "name", "properties": { "name": "urn:ogc:def:crs:OGC:1.3:CRS84" } },
"features": [
{ "type": "Feature", "properties": { "Geology_Unit_ID": "NIGAHI-GU-01", "Mine_ID": "M-NIGAHI", "Mine_Code": "NIGAHI", "Unit_Name": "Sandstone", "Unit_Type": "LITHOLOGY", "Age": "SYNTHETIC", "Description": "Synthetic sandstone unit for demonstration spatial queries", "Relative_Order": 1, "Data_Type": "SYNTHETIC_DEMO", "Source_Provenance": "Synthetic geometry; not an official geological map" }, "geometry": { "type": "Polygon", "coordinates": [ [ [ 82.56, 24.125 ], [ 82.59, 24.12 ], [ 82.62, 24.175 ], [ 82.59, 24.18 ], [ 82.56, 24.125 ] ] ] } },
{ "type": "Feature", "properties": { "Geology_Unit_ID": "NIGAHI-GU-02", "Mine_ID": "M-NIGAHI", "Mine_Code": "NIGAHI", "Unit_Name": "Shale", "Unit_Type": "LITHOLOGY", "Age": "SYNTHETIC", "Description": "Synthetic shale unit for demonstration spatial queries", "Relative_Order": 2, "Data_Type": "SYNTHETIC_DEMO", "Source_Provenance": "Synthetic geometry; not an official geological map" }, "geometry": { "type": "Polygon", "coordinates": [ [ [ 82.572, 24.125 ], [ 82.602, 24.12 ], [ 82.632, 24.175 ], [ 82.602, 24.18 ], [ 82.572, 24.125 ] ] ] } },
{ "type": "Feature", "properties": { "Geology_Unit_ID": "NIGAHI-GU-03", "Mine_ID": "M-NIGAHI", "Mine_Code": "NIGAHI", "Unit_Name": "Coal-bearing sequence", "Unit_Type": "LITHOLOGY", "Age": "SYNTHETIC", "Description": "Synthetic coal-bearing sequence unit for demonstration spatial queries", "Relative_Order": 3, "Data_Type": "SYNTHETIC_DEMO", "Source_Provenance": "Synthetic geometry; not an official geological map" }, "geometry": { "type": "Polygon", "coordinates": [ [ [ 82.584, 24.125 ], [ 82.614, 24.12 ], [ 82.644, 24.175 ], [ 82.614, 24.18 ], [ 82.584, 24.125 ] ] ] } },
{ "type": "Feature", "properties": { "Geology_Unit_ID": "NIGAHI-GU-04", "Mine_ID": "M-NIGAHI", "Mine_Code": "NIGAHI", "Unit_Name": "Siltstone", "Unit_Type": "LITHOLOGY", "Age": "SYNTHETIC", "Description": "Synthetic siltstone unit for demonstration spatial queries", "Relative_Order": 4, "Data_Type": "SYNTHETIC_DEMO", "Source_Provenance": "Synthetic geometry; not an official geological map" }, "geometry": { "type": "Polygon", "coordinates": [ [ [ 82.596, 24.125 ], [ 82.626, 24.12 ], [ 82.656, 24.175 ], [ 82.626, 24.18 ], [ 82.596, 24.125 ] ] ] } },
{ "type": "Feature", "properties": { "Geology_Unit_ID": "NIGAHI-GU-05", "Mine_ID": "M-NIGAHI", "Mine_Code": "NIGAHI", "Unit_Name": "Mudstone", "Unit_Type": "LITHOLOGY", "Age": "SYNTHETIC", "Description": "Synthetic mudstone unit for demonstration spatial queries", "Relative_Order": 5, "Data_Type": "SYNTHETIC_DEMO", "Source_Provenance": "Synthetic geometry; not an official geological map" }, "geometry": { "type": "Polygon", "coordinates": [ [ [ 82.608, 24.125 ], [ 82.638, 24.12 ], [ 82.668, 24.175 ], [ 82.638, 24.18 ], [ 82.608, 24.125 ] ] ] } },
{ "type": "Feature", "properties": { "Geology_Unit_ID": "NIGAHI-GU-06", "Mine_ID": "M-NIGAHI", "Mine_Code": "NIGAHI", "Unit_Name": "Weathered zone", "Unit_Type": "LITHOLOGY", "Age": "SYNTHETIC", "Description": "Synthetic weathered zone unit for demonstration spatial queries", "Relative_Order": 6, "Data_Type": "SYNTHETIC_DEMO", "Source_Provenance": "Synthetic geometry; not an official geological map" }, "geometry": { "type": "Polygon", "coordinates": [ [ [ 82.62, 24.125 ], [ 82.65, 24.12 ], [ 82.68, 24.175 ], [ 82.65, 24.18 ], [ 82.62, 24.125 ] ] ] } }
]
}
