{
"type": "FeatureCollection",
"name": "landuse",
"crs": { "type": "name", "properties": { "name": "urn:ogc:def:crs:OGC:1.3:CRS84" } },
"features": [
{ "type": "Feature", "properties": { "Landuse_ID": "NIGAHI-LU-01", "Mine_ID": "M-NIGAHI", "Mine_Code": "NIGAHI", "Landuse_Class": "Active Mine Working", "Status": "SYNTHETIC", "Data_Type": "SYNTHETIC_DEMO", "Source_Provenance": "Synthetic land-use classification" }, "geometry": { "type": "Polygon", "coordinates": [ [ [ 82.565, 24.138 ], [ 82.585, 24.132 ], [ 82.605, 24.162 ], [ 82.585, 24.168 ], [ 82.565, 24.138 ] ] ] } },
{ "type": "Feature", "properties": { "Landuse_ID": "NIGAHI-LU-02", "Mine_ID": "M-NIGAHI", "Mine_Code": "NIGAHI", "Landuse_Class": "Overburden Dump", "Status": "SYNTHETIC", "Data_Type": "SYNTHETIC_DEMO", "Source_Provenance": "Synthetic land-use classification" }, "geometry": { "type": "Polygon", "coordinates": [ [ [ 82.575, 24.138 ], [ 82.595, 24.132 ], [ 82.615, 24.162 ], [ 82.595, 24.168 ], [ 82.575, 24.138 ] ] ] } },
{ "type": "Feature", "properties": { "Landuse_ID": "NIGAHI-LU-03", "Mine_ID": "M-NIGAHI", "Mine_Code": "NIGAHI", "Landuse_Class": "Infrastructure", "Status": "SYNTHETIC", "Data_Type": "SYNTHETIC_DEMO", "Source_Provenance": "Synthetic land-use classification" }, "geometry": { "type": "Polygon", "coordinates": [ [ [ 82.585, 24.138 ], [ 82.605, 24.132 ], [ 82.625, 24.162 ], [ 82.605, 24.168 ], [ 82.585, 24.138 ] ] ] } },
{ "type": "Feature", "properties": { "Landuse_ID": "NIGAHI-LU-04", "Mine_ID": "M-NIGAHI", "Mine_Code": "NIGAHI", "Landuse_Class": "Green/Reclaimed Area", "Status": "SYNTHETIC", "Data_Type": "SYNTHETIC_DEMO", "Source_Provenance": "Synthetic land-use classification" }, "geometry": { "type": "Polygon", "coordinates": [ [ [ 82.595, 24.138 ], [ 82.615, 24.132 ], [ 82.635, 24.162 ], [ 82.615, 24.168 ], [ 82.595, 24.138 ] ] ] } },
{ "type": "Feature", "properties": { "Landuse_ID": "NIGAHI-LU-05", "Mine_ID": "M-NIGAHI", "Mine_Code": "NIGAHI", "Landuse_Class": "Water Body", "Status": "SYNTHETIC", "Data_Type": "SYNTHETIC_DEMO", "Source_Provenance": "Synthetic land-use classification" }, "geometry": { "type": "Polygon", "coordinates": [ [ [ 82.605, 24.138 ], [ 82.625, 24.132 ], [ 82.645, 24.162 ], [ 82.625, 24.168 ], [ 82.605, 24.138 ] ] ] } },
{ "type": "Feature", "properties": { "Landuse_ID": "NIGAHI-LU-06", "Mine_ID": "M-NIGAHI", "Mine_Code": "NIGAHI", "Landuse_Class": "Road/Transport", "Status": "SYNTHETIC", "Data_Type": "SYNTHETIC_DEMO", "Source_Provenance": "Synthetic land-use classification" }, "geometry": { "type": "Polygon", "coordinates": [ [ [ 82.615, 24.138 ], [ 82.635, 24.132 ], [ 82.655, 24.162 ], [ 82.635, 24.168 ], [ 82.615, 24.138 ] ] ] } }
]
}
