{
"type": "FeatureCollection",
"name": "survey_points",
"crs": { "type": "name", "properties": { "name": "urn:ogc:def:crs:OGC:1.3:CRS84" } },
"features": [
{ "type": "Feature", "properties": { "Survey_Point_ID": "NIGAHI-SP-001", "Mine_ID": "M-NIGAHI", "Mine_Code": "NIGAHI", "Latitude": 24.1755808, "Longitude": 82.6148434, "RL_m": 304.14, "Point_Type": "BENCH_RL", "Survey_Date": "2025-10-22", "Horizontal_Accuracy_m": 0.053, "Vertical_Accuracy_m": 0.109, "Data_Type": "SYNTHETIC_DEMO", "Source_Provenance": "Synthetic survey/control dataset" }, "geometry": { "type": "Point", "coordinates": [ 82.6148434, 24.1755808 ] } },
{ "type": "Feature", "properties": { "Survey_Point_ID": "NIGAHI-SP-002", "Mine_ID": "M-NIGAHI", "Mine_Code": "NIGAHI", "Latitude": 24.1271354, "Longitude": 82.5958299, "RL_m": 298.2, "Point_Type": "PIT_FLOOR", "Survey_Date": "2025-02-05", "Horizontal_Accuracy_m": 0.06, "Vertical_Accuracy_m": 0.058, "Data_Type": "SYNTHETIC_DEMO", "Source_Provenance": "Synthetic survey/control dataset" }, "geometry": { "type": "Point", "coordinates": [ 82.5958299, 24.1271354 ] } },
{ "type": "Feature", "properties": { "Survey_Point_ID": "NIGAHI-SP-003", "Mine_ID": "M-NIGAHI", "Mine_Code": "NIGAHI", "Latitude": 24.1657526, "Longitude": 82.6562336, "RL_m": 259.08, "Point_Type": "DGPS_CONTROL", "Survey_Date": "2025-02-24", "Horizontal_Accuracy_m": 0.094, "Vertical_Accuracy_m": 0.195, "Data_Type": "SYNTHETIC_DEMO", "Source_Provenance": "Synthetic survey/control dataset" }, "geometry": { "type": "Point", "coordinates": [ 82.6562336, 24.1657526 ] } },
{ "type": "Feature", "properties": { "Survey_Point_ID": "NIGAHI-SP-004", "Mine_ID": "M-NIGAHI", "Mine_Code": "NIGAHI", "Latitude": 24.1251288, "Longitude": 82.6597152, "RL_m": 308.96, "Point_Type": "REFERENCE", "Survey_Date": "2025-04-13", "Horizontal_Accuracy_m": 0.059, "Vertical_Accuracy_m": 0.147, "Data_Type": "SYNTHETIC_DEMO", "Source_Provenance": "Synthetic survey/control dataset" }, "geometry": { "type": "Point", "coordinates": [ 82.6597152, 24.1251288 ] } },
{ "type": "Feature", "properties": { "Survey_Point_ID": "NIGAHI-SP-005", "Mine_ID": "M-NIGAHI", "Mine_Code": "NIGAHI", "Latitude": 24.1605297, "Longitude": 82.6578056, "RL_m": 316.96, "Point_Type": "PIT_FLOOR", "Survey_Date": "2025-08-11", "Horizontal_Accuracy_m": 0.088, "Vertical_Accuracy_m": 0.171, "Data_Type": "SYNTHETIC_DEMO", "Source_Provenance": "Synthetic survey/control dataset" }, "geometry": { "type": "Point", "coordinates": [ 82.6578056, 24.1605297 ] } },
{ "type": "Feature", "properties": { "Survey_Point_ID": "NIGAHI-SP-006", "Mine_ID": "M-NIGAHI", "Mine_Code": "NIGAHI", "Latitude": 24.1344643, "Longitude": 82.6198264, "RL_m": 281.73, "Point_Type": "BENCH_RL", "Survey_Date": "2025-06-10", "Horizontal_Accuracy_m": 0.09, "Vertical_Accuracy_m": 0.046, "Data_Type": "SYNTHETIC_DEMO", "Source_Provenance": "Synthetic survey/control dataset" }, "geometry": { "type": "Point", "coordinates": [ 82.6198264, 24.1344643 ] } },
{ "type": "Feature", "properties": { "Survey_Point_ID": "NIGAHI-SP-007", "Mine_ID": "M-NIGAHI", "Mine_Code": "NIGAHI", "Latitude": 24.1350608, "Longitude": 82.6259328, "RL_m": 296.5, "Point_Type": "PIT_RIM", "Survey_Date": "2025-10-20", "Horizontal_Accuracy_m": 0.088, "Vertical_Accuracy_m": 0.178, "Data_Type": "SYNTHETIC_DEMO", "Source_Provenance": "Synthetic survey/control dataset" }, "geometry": { "type": "Point", "coordinates": [ 82.6259328, 24.1350608 ] } },
{ "type": "Feature", "properties": { "Survey_Point_ID": "NIGAHI-SP-008", "Mine_ID": "M-NIGAHI", "Mine_Code": "NIGAHI", "Latitude": 24.1728308, "Longitude": 82.606568, "RL_m": 297.35, "Point_Type": "DGPS_CONTROL", "Survey_Date": "2025-01-05", "Horizontal_Accuracy_m": 0.042, "Vertical_Accuracy_m": 0.147, "Data_Type": "SYNTHETIC_DEMO", "Source_Provenance": "Synthetic survey/control dataset" }, "geometry": { "type": "Point", "coordinates": [ 82.606568, 24.1728308 ] } },
{ "type": "Feature", "properties": { "Survey_Point_ID": "NIGAHI-SP-009", "Mine_ID": "M-NIGAHI", "Mine_Code": "NIGAHI", "Latitude": 24.1431673, "Longitude": 82.6237167, "RL_m": 306.41, "Point_Type": "BENCH_RL", "Survey_Date": "2025-10-02", "Horizontal_Accuracy_m": 0.032, "Vertical_Accuracy_m": 0.079, "Data_Type": "SYNTHETIC_DEMO", "Source_Provenance": "Synthetic survey/control dataset" }, "geometry": { "type": "Point", "coordinates": [ 82.6237167, 24.1431673 ] } },
{ "type": "Feature", "properties": { "Survey_Point_ID": "NIGAHI-SP-010", "Mine_ID": "M-NIGAHI", "Mine_Code": "NIGAHI", "Latitude": 24.1362062, "Longitude": 82.6204116, "RL_m": 282.42, "Point_Type": "DGPS_CONTROL", "Survey_Date": "2025-05-15", "Horizontal_Accuracy_m": 0.061, "Vertical_Accuracy_m": 0.153, "Data_Type": "SYNTHETIC_DEMO", "Source_Provenance": "Synthetic survey/control dataset" }, "geometry": { "type": "Point", "coordinates": [ 82.6204116, 24.1362062 ] } },
{ "type": "Feature", "properties": { "Survey_Point_ID": "NIGAHI-SP-011", "Mine_ID": "M-NIGAHI", "Mine_Code": "NIGAHI", "Latitude": 24.1680763, "Longitude": 82.6437036, "RL_m": 309.54, "Point_Type": "PIT_FLOOR", "Survey_Date": "2025-08-20", "Horizontal_Accuracy_m": 0.071, "Vertical_Accuracy_m": 0.063, "Data_Type": "SYNTHETIC_DEMO", "Source_Provenance": "Synthetic survey/control dataset" }, "geometry": { "type": "Point", "coordinates": [ 82.6437036, 24.1680763 ] } },
{ "type": "Feature", "properties": { "Survey_Point_ID": "NIGAHI-SP-012", "Mine_ID": "M-NIGAHI", "Mine_Code": "NIGAHI", "Latitude": 24.148752, "Longitude": 82.6180156, "RL_m": 256.63, "Point_Type": "PIT_FLOOR", "Survey_Date": "2025-07-09", "Horizontal_Accuracy_m": 0.058, "Vertical_Accuracy_m": 0.099, "Data_Type": "SYNTHETIC_DEMO", "Source_Provenance": "Synthetic survey/control dataset" }, "geometry": { "type": "Point", "coordinates": [ 82.6180156, 24.148752 ] } },
{ "type": "Feature", "properties": { "Survey_Point_ID": "NIGAHI-SP-013", "Mine_ID": "M-NIGAHI", "Mine_Code": "NIGAHI", "Latitude": 24.1767624, "Longitude": 82.6461476, "RL_m": 294.48, "Point_Type": "BENCH_RL", "Survey_Date": "2025-09-04", "Horizontal_Accuracy_m": 0.039, "Vertical_Accuracy_m": 0.028, "Data_Type": "SYNTHETIC_DEMO", "Source_Provenance": "Synthetic survey/control dataset" }, "geometry": { "type": "Point", "coordinates": [ 82.6461476, 24.1767624 ] } },
{ "type": "Feature", "properties": { "Survey_Point_ID": "NIGAHI-SP-014", "Mine_ID": "M-NIGAHI", "Mine_Code": "NIGAHI", "Latitude": 24.1734705, "Longitude": 82.654725, "RL_m": 270.24, "Point_Type": "PIT_RIM", "Survey_Date": "2025-07-04", "Horizontal_Accuracy_m": 0.073, "Vertical_Accuracy_m": 0.034, "Data_Type": "SYNTHETIC_DEMO", "Source_Provenance": "Synthetic survey/control dataset" }, "geometry": { "type": "Point", "coordinates": [ 82.654725, 24.1734705 ] } },
{ "type": "Feature", "properties": { "Survey_Point_ID": "NIGAHI-SP-015", "Mine_ID": "M-NIGAHI", "Mine_Code": "NIGAHI", "Latitude": 24.1341413, "Longitude": 82.6016351, "RL_m": 273.56, "Point_Type": "PIT_RIM", "Survey_Date": "2025-11-22", "Horizontal_Accuracy_m": 0.1, "Vertical_Accuracy_m": 0.145, "Data_Type": "SYNTHETIC_DEMO", "Source_Provenance": "Synthetic survey/control dataset" }, "geometry": { "type": "Point", "coordinates": [ 82.6016351, 24.1341413 ] } },
{ "type": "Feature", "properties": { "Survey_Point_ID": "NIGAHI-SP-016", "Mine_ID": "M-NIGAHI", "Mine_Code": "NIGAHI", "Latitude": 24.1632776, "Longitude": 82.6168941, "RL_m": 323.22, "Point_Type": "REFERENCE", "Survey_Date": "2025-08-17", "Horizontal_Accuracy_m": 0.096, "Vertical_Accuracy_m": 0.03, "Data_Type": "SYNTHETIC_DEMO", "Source_Provenance": "Synthetic survey/control dataset" }, "geometry": { "type": "Point", "coordinates": [ 82.6168941, 24.1632776 ] } },
{ "type": "Feature", "properties": { "Survey_Point_ID": "NIGAHI-SP-017", "Mine_ID": "M-NIGAHI", "Mine_Code": "NIGAHI", "Latitude": 24.1279783, "Longitude": 82.6176165, "RL_m": 276.85, "Point_Type": "PIT_RIM", "Survey_Date": "2025-01-08", "Horizontal_Accuracy_m": 0.025, "Vertical_Accuracy_m": 0.136, "Data_Type": "SYNTHETIC_DEMO", "Source_Provenance": "Synthetic survey/control dataset" }, "geometry": { "type": "Point", "coordinates": [ 82.6176165, 24.1279783 ] } },
{ "type": "Feature", "properties": { "Survey_Point_ID": "NIGAHI-SP-018", "Mine_ID": "M-NIGAHI", "Mine_Code": "NIGAHI", "Latitude": 24.1348461, "Longitude": 82.6171788, "RL_m": 271.28, "Point_Type": "PIT_FLOOR", "Survey_Date": "2025-10-02", "Horizontal_Accuracy_m": 0.042, "Vertical_Accuracy_m": 0.067, "Data_Type": "SYNTHETIC_DEMO", "Source_Provenance": "Synthetic survey/control dataset" }, "geometry": { "type": "Point", "coordinates": [ 82.6171788, 24.1348461 ] } },
{ "type": "Feature", "properties": { "Survey_Point_ID": "NIGAHI-SP-019", "Mine_ID": "M-NIGAHI", "Mine_Code": "NIGAHI", "Latitude": 24.1238097, "Longitude": 82.6217269, "RL_m": 272.38, "Point_Type": "DGPS_CONTROL", "Survey_Date": "2025-04-10", "Horizontal_Accuracy_m": 0.047, "Vertical_Accuracy_m": 0.129, "Data_Type": "SYNTHETIC_DEMO", "Source_Provenance": "Synthetic survey/control dataset" }, "geometry": { "type": "Point", "coordinates": [ 82.6217269, 24.1238097 ] } },
{ "type": "Feature", "properties": { "Survey_Point_ID": "NIGAHI-SP-020", "Mine_ID": "M-NIGAHI", "Mine_Code": "NIGAHI", "Latitude": 24.1294584, "Longitude": 82.608967, "RL_m": 256.1, "Point_Type": "BENCH_RL", "Survey_Date": "2025-03-25", "Horizontal_Accuracy_m": 0.095, "Vertical_Accuracy_m": 0.095, "Data_Type": "SYNTHETIC_DEMO", "Source_Provenance": "Synthetic survey/control dataset" }, "geometry": { "type": "Point", "coordinates": [ 82.608967, 24.1294584 ] } },
{ "type": "Feature", "properties": { "Survey_Point_ID": "NIGAHI-SP-021", "Mine_ID": "M-NIGAHI", "Mine_Code": "NIGAHI", "Latitude": 24.1734739, "Longitude": 82.6306814, "RL_m": 256.62, "Point_Type": "PIT_RIM", "Survey_Date": "2025-05-11", "Horizontal_Accuracy_m": 0.089, "Vertical_Accuracy_m": 0.119, "Data_Type": "SYNTHETIC_DEMO", "Source_Provenance": "Synthetic survey/control dataset" }, "geometry": { "type": "Point", "coordinates": [ 82.6306814, 24.1734739 ] } },
{ "type": "Feature", "properties": { "Survey_Point_ID": "NIGAHI-SP-022", "Mine_ID": "M-NIGAHI", "Mine_Code": "NIGAHI", "Latitude": 24.1450303, "Longitude": 82.6015384, "RL_m": 312.21, "Point_Type": "DGPS_CONTROL", "Survey_Date": "2025-01-16", "Horizontal_Accuracy_m": 0.053, "Vertical_Accuracy_m": 0.197, "Data_Type": "SYNTHETIC_DEMO", "Source_Provenance": "Synthetic survey/control dataset" }, "geometry": { "type": "Point", "coordinates": [ 82.6015384, 24.1450303 ] } },
{ "type": "Feature", "properties": { "Survey_Point_ID": "NIGAHI-SP-023", "Mine_ID": "M-NIGAHI", "Mine_Code": "NIGAHI", "Latitude": 24.1639764, "Longitude": 82.6163717, "RL_m": 281.44, "Point_Type": "PIT_FLOOR", "Survey_Date": "2025-03-05", "Horizontal_Accuracy_m": 0.085, "Vertical_Accuracy_m": 0.122, "Data_Type": "SYNTHETIC_DEMO", "Source_Provenance": "Synthetic survey/control dataset" }, "geometry": { "type": "Point", "coordinates": [ 82.6163717, 24.1639764 ] } },
{ "type": "Feature", "properties": { "Survey_Point_ID": "NIGAHI-SP-024", "Mine_ID": "M-NIGAHI", "Mine_Code": "NIGAHI", "Latitude": 24.124062, "Longitude": 82.5944458, "RL_m": 260.71, "Point_Type": "PIT_FLOOR", "Survey_Date": "2025-09-23", "Horizontal_Accuracy_m": 0.011, "Vertical_Accuracy_m": 0.034, "Data_Type": "SYNTHETIC_DEMO", "Source_Provenance": "Synthetic survey/control dataset" }, "geometry": { "type": "Point", "coordinates": [ 82.5944458, 24.124062 ] } },
{ "type": "Feature", "properties": { "Survey_Point_ID": "NIGAHI-SP-025", "Mine_ID": "M-NIGAHI", "Mine_Code": "NIGAHI", "Latitude": 24.1519234, "Longitude": 82.63842, "RL_m": 309.99, "Point_Type": "BENCH_RL", "Survey_Date": "2025-09-18", "Horizontal_Accuracy_m": 0.092, "Vertical_Accuracy_m": 0.125, "Data_Type": "SYNTHETIC_DEMO", "Source_Provenance": "Synthetic survey/control dataset" }, "geometry": { "type": "Point", "coordinates": [ 82.63842, 24.1519234 ] } }
]
}
