{
"type": "FeatureCollection",
"name": "borehole_intervals",
"crs": { "type": "name", "properties": { "name": "urn:ogc:def:crs:OGC:1.3:CRS84" } },
"features": [
{ "type": "Feature", "properties": { "Borehole_ID": "KUSMUNDA-BH-001", "Mine_ID": "M-KUSMUNDA", "Mine_Code": "KUSMUNDA", "Mine_Name": "Kusmunda OCP", "Interval_No": 1, "From_Depth_m": 0.0, "To_Depth_m": 22.04, "Thickness_m": 22.04, "Lithology": "Shale", "Stratigraphic_Unit": "Underlying sedimentary sequence", "Coal_Bearing": "NO", "Coal_Seam": "", "Weathering_Class": "Moderate", "Sample_ID": "KUSMUNDA-001-S01", "Data_Type": "SYNTHETIC_DEMO", "Source_Provenance": "Synthetic borehole interval generated to match GeoVault demonstration corpus" }, "geometry": { "type": "Point", "coordinates": [ 82.688577, 22.291377 ] } },
{ "type": "Feature", "properties": { "Borehole_ID": "KUSMUNDA-BH-001", "Mine_ID": "M-KUSMUNDA", "Mine_Code": "KUSMUNDA", "Mine_Name": "Kusmunda OCP", "Interval_No": 2, "From_Depth_m": 22.04, "To_Depth_m": 44.08, "Thickness_m": 22.04, "Lithology": "Interbedded Sandstone-Shale", "Stratigraphic_Unit": "Overburden", "Coal_Bearing": "NO", "Coal_Seam": "", "Weathering_Class": "Slight", "Sample_ID": "KUSMUNDA-001-S02", "Data_Type": "SYNTHETIC_DEMO", "Source_Provenance": "Synthetic borehole interval generated to match GeoVault demonstration corpus" }, "geometry": { "type": "Point", "coordinates": [ 82.688577, 22.291377 ] } },
{ "type": "Feature", "properties": { "Borehole_ID": "KUSMUNDA-BH-001", "Mine_ID": "M-KUSMUNDA", "Mine_Code": "KUSMUNDA", "Mine_Name": "Kusmunda OCP", "Interval_No": 3, "From_Depth_m": 44.08, "To_Depth_m": 66.12, "Thickness_m": 22.04, "Lithology": "Carbonaceous Shale", "Stratigraphic_Unit": "Overburden", "Coal_Bearing": "NO", "Coal_Seam": "", "Weathering_Class": "Fresh", "Sample_ID": "KUSMUNDA-001-S03", "Data_Type": "SYNTHETIC_DEMO", "Source_Provenance": "Synthetic borehole interval generated to match GeoVault demonstration corpus" }, "geometry": { "type": "Point", "coordinates": [ 82.688577, 22.291377 ] } },
{ "type": "Feature", "properties": { "Borehole_ID": "KUSMUNDA-BH-001", "Mine_ID": "M-KUSMUNDA", "Mine_Code": "KUSMUNDA", "Mine_Name": "Kusmunda OCP", "Interval_No": 4, "From_Depth_m": 66.12, "To_Depth_m": 88.16, "Thickness_m": 22.04, "Lithology": "Coal", "Stratigraphic_Unit": "Barakar-equivalent demo unit", "Coal_Bearing": "YES", "Coal_Seam": "GV-KUS-S2", "Weathering_Class": "Fresh", "Sample_ID": "KUSMUNDA-001-S04", "Data_Type": "SYNTHETIC_DEMO", "Source_Provenance": "Synthetic borehole interval generated to match GeoVault demonstration corpus" }, "geometry": { "type": "Point", "coordinates": [ 82.688577, 22.291377 ] } },
{ "type": "Feature", "properties": { "Borehole_ID": "KUSMUNDA-BH-001", "Mine_ID": "M-KUSMUNDA", "Mine_Code": "KUSMUNDA", "Mine_Name": "Kusmunda OCP", "Interval_No": 5, "From_Depth_m": 88.16, "To_Depth_m": 110.2, "Thickness_m": 22.04, "Lithology": "Interbedded Sandstone-Shale", "Stratigraphic_Unit": "Overburden", "Coal_Bearing": "NO", "Coal_Seam": "", "Weathering_Class": "Fresh", "Sample_ID": "KUSMUNDA-001-S05", "Data_Type": "SYNTHETIC_DEMO", "Source_Provenance": "Synthetic borehole interval generated to match GeoVault demonstration corpus" }, "geometry": { "type": "Point", "coordinates": [ 82.688577, 22.291377 ] } },
{ "type": "Feature", "properties": { "Borehole_ID": "KUSMUNDA-BH-001", "Mine_ID": "M-KUSMUNDA", "Mine_Code": "KUSMUNDA", "Mine_Name": "Kusmunda OCP", "Interval_No": 6, "From_Depth_m": 110.2, "To_Depth_m": 132.24, "Thickness_m": 22.04, "Lithology": "Siltstone", "Stratigraphic_Unit": "Barakar-equivalent demo unit", "Coal_Bearing": "NO", "Coal_Seam": "", "Weathering_Class": "Fresh", "Sample_ID": "KUSMUNDA-001-S06", "Data_Type": "SYNTHETIC_DEMO", "Source_Provenance": "Synthetic borehole interval generated to match GeoVault demonstration corpus" }, "geometry": { "type": "Point", "coordinates": [ 82.688577, 22.291377 ] } },
{ "type": "Feature", "properties": { "Borehole_ID": "KUSMUNDA-BH-001", "Mine_ID": "M-KUSMUNDA", "Mine_Code": "KUSMUNDA", "Mine_Name": "Kusmunda OCP", "Interval_No": 7, "From_Depth_m": 132.24, "To_Depth_m": 154.28, "Thickness_m": 22.04, "Lithology": "Mudstone", "Stratigraphic_Unit": "Barakar-equivalent demo unit", "Coal_Bearing": "NO", "Coal_Seam": "", "Weathering_Class": "Fresh", "Sample_ID": "KUSMUNDA-001-S07", "Data_Type": "SYNTHETIC_DEMO", "Source_Provenance": "Synthetic borehole interval generated to match GeoVault demonstration corpus" }, "geometry": { "type": "Point", "coordinates": [ 82.688577, 22.291377 ] } },
{ "type": "Feature", "properties": { "Borehole_ID": "KUSMUNDA-BH-001", "Mine_ID": "M-KUSMUNDA", "Mine_Code": "KUSMUNDA", "Mine_Name": "Kusmunda OCP", "Interval_No": 8, "From_Depth_m": 154.28, "To_Depth_m": 176.32, "Thickness_m": 22.04, "Lithology": "Sandstone", "Stratigraphic_Unit": "Coal-bearing sequence", "Coal_Bearing": "NO", "Coal_Seam": "", "Weathering_Class": "Fresh", "Sample_ID": "KUSMUNDA-001-S08", "Data_Type": "SYNTHETIC_DEMO", "Source_Provenance": "Synthetic borehole interval generated to match GeoVault demonstration corpus" }, "geometry": { "type": "Point", "coordinates": [ 82.688577, 22.291377 ] } },
{ "type": "Feature", "properties": { "Borehole_ID": "KUSMUNDA-BH-001", "Mine_ID": "M-KUSMUNDA", "Mine_Code": "KUSMUNDA", "Mine_Name": "Kusmunda OCP", "Interval_No": 9, "From_Depth_m": 176.32, "To_Depth_m": 198.36, "Thickness_m": 22.04, "Lithology": "Siltstone", "Stratigraphic_Unit": "Overburden", "Coal_Bearing": "NO", "Coal_Seam": "", "Weathering_Class": "Fresh", "Sample_ID": "KUSMUNDA-001-S09", "Data_Type": "SYNTHETIC_DEMO", "Source_Provenance": "Synthetic borehole interval generated to match GeoVault demonstration corpus" }, "geometry": { "type": "Point", "coordinates": [ 82.688577, 22.291377 ] } },
{ "type": "Feature", "properties": { "Borehole_ID": "KUSMUNDA-BH-001", "Mine_ID": "M-KUSMUNDA", "Mine_Code": "KUSMUNDA", "Mine_Name": "Kusmunda OCP", "Interval_No": 10, "From_Depth_m": 198.36, "To_Depth_m": 220.4, "Thickness_m": 22.04, "Lithology": "Siltstone", "Stratigraphic_Unit": "Barakar-equivalent demo unit", "Coal_Bearing": "NO", "Coal_Seam": "", "Weathering_Class": "Fresh", "Sample_ID": "KUSMUNDA-001-S10", "Data_Type": "SYNTHETIC_DEMO", "Source_Provenance": "Synthetic borehole interval generated to match GeoVault demonstration corpus" }, "geometry": { "type": "Point", "coordinates": [ 82.688577, 22.291377 ] } },
{ "type": "Feature", "properties": { "Borehole_ID": "KUSMUNDA-BH-002", "Mine_ID": "M-KUSMUNDA", "Mine_Code": "KUSMUNDA", "Mine_Name": "Kusmunda OCP", "Interval_No": 1, "From_Depth_m": 0.0, "To_Depth_m": 22.94, "Thickness_m": 22.94, "Lithology": "Shale", "Stratigraphic_Unit": "Overburden", "Coal_Bearing": "NO", "Coal_Seam": "", "Weathering_Class": "Moderate", "Sample_ID": "KUSMUNDA-002-S01", "Data_Type": "SYNTHETIC_DEMO", "Source_Provenance": "Synthetic borehole interval generated to match GeoVault demonstration corpus" }, "geometry": { "type": "Point", "coordinates": [ 82.691527, 22.315057 ] } },
{ "type": "Feature", "properties": { "Borehole_ID": "KUSMUNDA-BH-002", "Mine_ID": "M-KUSMUNDA", "Mine_Code": "KUSMUNDA", "Mine_Name": "Kusmunda OCP", "Interval_No": 2, "From_Depth_m": 22.94, "To_Depth_m": 45.88, "Thickness_m": 22.94, "Lithology": "Interbedded Sandstone-Shale", "Stratigraphic_Unit": "Underlying sedimentary sequence", "Coal_Bearing": "NO", "Coal_Seam": "", "Weathering_Class": "Slight", "Sample_ID": "KUSMUNDA-002-S02", "Data_Type": "SYNTHETIC_DEMO", "Source_Provenance": "Synthetic borehole interval generated to match GeoVault demonstration corpus" }, "geometry": { "type": "Point", "coordinates": [ 82.691527, 22.315057 ] } },
{ "type": "Feature", "properties": { "Borehole_ID": "KUSMUNDA-BH-002", "Mine_ID": "M-KUSMUNDA", "Mine_Code": "KUSMUNDA", "Mine_Name": "Kusmunda OCP", "Interval_No": 3, "From_Depth_m": 45.88, "To_Depth_m": 68.82, "Thickness_m": 22.94, "Lithology": "Shale", "Stratigraphic_Unit": "Barakar-equivalent demo unit", "Coal_Bearing": "NO", "Coal_Seam": "", "Weathering_Class": "Fresh", "Sample_ID": "KUSMUNDA-002-S03", "Data_Type": "SYNTHETIC_DEMO", "Source_Provenance": "Synthetic borehole interval generated to match GeoVault demonstration corpus" }, "geometry": { "type": "Point", "coordinates": [ 82.691527, 22.315057 ] } },
{ "type": "Feature", "properties": { "Borehole_ID": "KUSMUNDA-BH-002", "Mine_ID": "M-KUSMUNDA", "Mine_Code": "KUSMUNDA", "Mine_Name": "Kusmunda OCP", "Interval_No": 4, "From_Depth_m": 68.82, "To_Depth_m": 91.76, "Thickness_m": 22.94, "Lithology": "Shale", "Stratigraphic_Unit": "Underlying sedimentary sequence", "Coal_Bearing": "NO", "Coal_Seam": "", "Weathering_Class": "Fresh", "Sample_ID": "KUSMUNDA-002-S04", "Data_Type": "SYNTHETIC_DEMO", "Source_Provenance": "Synthetic borehole interval generated to match GeoVault demonstration corpus" }, "geometry": { "type": "Point", "coordinates": [ 82.691527, 22.315057 ] } },
{ "type": "Feature", "properties": { "Borehole_ID": "KUSMUNDA-BH-002", "Mine_ID": "M-KUSMUNDA", "Mine_Code": "KUSMUNDA", "Mine_Name": "Kusmunda OCP", "Interval_No": 5, "From_Depth_m": 91.76, "To_Depth_m": 114.7, "Thickness_m": 22.94, "Lithology": "Sandstone", "Stratigraphic_Unit": "Barakar-equivalent demo unit", "Coal_Bearing": "NO", "Coal_Seam": "", "Weathering_Class": "Fresh", "Sample_ID": "KUSMUNDA-002-S05", "Data_Type": "SYNTHETIC_DEMO", "Source_Provenance": "Synthetic borehole interval generated to match GeoVault demonstration corpus" }, "geometry": { "type": "Point", "coordinates": [ 82.691527, 22.315057 ] } },
{ "type": "Feature", "properties": { "Borehole_ID": "KUSMUNDA-BH-002", "Mine_ID": "M-KUSMUNDA", "Mine_Code": "KUSMUNDA", "Mine_Name": "Kusmunda OCP", "Interval_No": 6, "From_Depth_m": 114.7, "To_Depth_m": 137.64, "Thickness_m": 22.94, "Lithology": "Carbonaceous Shale", "Stratigraphic_Unit": "Coal-bearing sequence", "Coal_Bearing": "NO", "Coal_Seam": "", "Weathering_Class": "Fresh", "Sample_ID": "KUSMUNDA-002-S06", "Data_Type": "SYNTHETIC_DEMO", "Source_Provenance": "Synthetic borehole interval generated to match GeoVault demonstration corpus" }, "geometry": { "type": "Point", "coordinates": [ 82.691527, 22.315057 ] } },
{ "type": "Feature", "properties": { "Borehole_ID": "KUSMUNDA-BH-002", "Mine_ID": "M-KUSMUNDA", "Mine_Code": "KUSMUNDA", "Mine_Name": "Kusmunda OCP", "Interval_No": 7, "From_Depth_m": 137.64, "To_Depth_m": 160.58, "Thickness_m": 22.94, "Lithology": "Coal", "Stratigraphic_Unit": "Underlying sedimentary sequence", "Coal_Bearing": "YES", "Coal_Seam": "GV-KUS-S1", "Weathering_Class": "Fresh", "Sample_ID": "KUSMUNDA-002-S07", "Data_Type": "SYNTHETIC_DEMO", "Source_Provenance": "Synthetic borehole interval generated to match GeoVault demonstration corpus" }, "geometry": { "type": "Point", "coordinates": [ 82.691527, 22.315057 ] } },
{ "type": "Feature", "properties": { "Borehole_ID": "KUSMUNDA-BH-002", "Mine_ID": "M-KUSMUNDA", "Mine_Code": "KUSMUNDA", "Mine_Name": "Kusmunda OCP", "Interval_No": 8, "From_Depth_m": 160.58, "To_Depth_m": 183.52, "Thickness_m": 22.94, "Lithology": "Shale", "Stratigraphic_Unit": "Coal-bearing sequence", "Coal_Bearing": "NO", "Coal_Seam": "", "Weathering_Class": "Fresh", "Sample_ID": "KUSMUNDA-002-S08", "Data_Type": "SYNTHETIC_DEMO", "Source_Provenance": "Synthetic borehole interval generated to match GeoVault demonstration corpus" }, "geometry": { "type": "Point", "coordinates": [ 82.691527, 22.315057 ] } },
{ "type": "Feature", "properties": { "Borehole_ID": "KUSMUNDA-BH-002", "Mine_ID": "M-KUSMUNDA", "Mine_Code": "KUSMUNDA", "Mine_Name": "Kusmunda OCP", "Interval_No": 9, "From_Depth_m": 183.52, "To_Depth_m": 206.46, "Thickness_m": 22.94, "Lithology": "Shale", "Stratigraphic_Unit": "Overburden", "Coal_Bearing": "NO", "Coal_Seam": "", "Weathering_Class": "Fresh", "Sample_ID": "KUSMUNDA-002-S09", "Data_Type": "SYNTHETIC_DEMO", "Source_Provenance": "Synthetic borehole interval generated to match GeoVault demonstration corpus" }, "geometry": { "type": "Point", "coordinates": [ 82.691527, 22.315057 ] } },
{ "type": "Feature", "properties": { "Borehole_ID": "KUSMUNDA-BH-002", "Mine_ID": "M-KUSMUNDA", "Mine_Code": "KUSMUNDA", "Mine_Name": "Kusmunda OCP", "Interval_No": 10, "From_Depth_m": 206.46, "To_Depth_m": 229.4, "Thickness_m": 22.94, "Lithology": "Mudstone", "Stratigraphic_Unit": "Overburden", "Coal_Bearing": "NO", "Coal_Seam": "", "Weathering_Class": "Fresh", "Sample_ID": "KUSMUNDA-002-S10", "Data_Type": "SYNTHETIC_DEMO", "Source_Provenance": "Synthetic borehole interval generated to match GeoVault demonstration corpus" }, "geometry": { "type": "Point", "coordinates": [ 82.691527, 22.315057 ] } },
{ "type": "Feature", "properties": { "Borehole_ID": "KUSMUNDA-BH-003", "Mine_ID": "M-KUSMUNDA", "Mine_Code": "KUSMUNDA", "Mine_Name": "Kusmunda OCP", "Interval_No": 1, "From_Depth_m": 0.0, "To_Depth_m": 22.85, "Thickness_m": 22.85, "Lithology": "Mudstone", "Stratigraphic_Unit": "Barakar-equivalent demo unit", "Coal_Bearing": "NO", "Coal_Seam": "", "Weathering_Class": "Slight", "Sample_ID": "KUSMUNDA-003-S01", "Data_Type": "SYNTHETIC_DEMO", "Source_Provenance": "Synthetic borehole interval generated to match GeoVault demonstration corpus" }, "geometry": { "type": "Point", "coordinates": [ 82.673884, 22.290465 ] } },
{ "type": "Feature", "properties": { "Borehole_ID": "KUSMUNDA-BH-003", "Mine_ID": "M-KUSMUNDA", "Mine_Code": "KUSMUNDA", "Mine_Name": "Kusmunda OCP", "Interval_No": 2, "From_Depth_m": 22.85, "To_Depth_m": 45.7, "Thickness_m": 22.85, "Lithology": "Mudstone", "Stratigraphic_Unit": "Coal-bearing sequence", "Coal_Bearing": "NO", "Coal_Seam": "", "Weathering_Class": "Moderate", "Sample_ID": "KUSMUNDA-003-S02", "Data_Type": "SYNTHETIC_DEMO", "Source_Provenance": "Synthetic borehole interval generated to match GeoVault demonstration corpus" }, "geometry": { "type": "Point", "coordinates": [ 82.673884, 22.290465 ] } },
{ "type": "Feature", "properties": { "Borehole_ID": "KUSMUNDA-BH-003", "Mine_ID": "M-KUSMUNDA", "Mine_Code": "KUSMUNDA", "Mine_Name": "Kusmunda OCP", "Interval_No": 3, "From_Depth_m": 45.7, "To_Depth_m": 68.55, "Thickness_m": 22.85, "Lithology": "Carbonaceous Shale", "Stratigraphic_Unit": "Barakar-equivalent demo unit", "Coal_Bearing": "NO", "Coal_Seam": "", "Weathering_Class": "Fresh", "Sample_ID": "KUSMUNDA-003-S03", "Data_Type": "SYNTHETIC_DEMO", "Source_Provenance": "Synthetic borehole interval generated to match GeoVault demonstration corpus" }, "geometry": { "type": "Point", "coordinates": [ 82.673884, 22.290465 ] } },
{ "type": "Feature", "properties": { "Borehole_ID": "KUSMUNDA-BH-003", "Mine_ID": "M-KUSMUNDA", "Mine_Code": "KUSMUNDA", "Mine_Name": "Kusmunda OCP", "Interval_No": 4, "From_Depth_m": 68.55, "To_Depth_m": 91.4, "Thickness_m": 22.85, "Lithology": "Coal", "Stratigraphic_Unit": "Barakar-equivalent demo unit", "Coal_Bearing": "YES", "Coal_Seam": "GV-KUS-S1", "Weathering_Class": "Fresh", "Sample_ID": "KUSMUNDA-003-S04", "Data_Type": "SYNTHETIC_DEMO", "Source_Provenance": "Synthetic borehole interval generated to match GeoVault demonstration corpus" }, "geometry": { "type": "Point", "coordinates": [ 82.673884, 22.290465 ] } },
{ "type": "Feature", "properties": { "Borehole_ID": "KUSMUNDA-BH-003", "Mine_ID": "M-KUSMUNDA", "Mine_Code": "KUSMUNDA", "Mine_Name": "Kusmunda OCP", "Interval_No": 5, "From_Depth_m": 91.4, "To_Depth_m": 114.25, "Thickness_m": 22.85, "Lithology": "Sandstone", "Stratigraphic_Unit": "Barakar-equivalent demo unit", "Coal_Bearing": "NO", "Coal_Seam": "", "Weathering_Class": "Fresh", "Sample_ID": "KUSMUNDA-003-S05", "Data_Type": "SYNTHETIC_DEMO", "Source_Provenance": "Synthetic borehole interval generated to match GeoVault demonstration corpus" }, "geometry": { "type": "Point", "coordinates": [ 82.673884, 22.290465 ] } },
{ "type": "Feature", "properties": { "Borehole_ID": "KUSMUNDA-BH-003", "Mine_ID": "M-KUSMUNDA", "Mine_Code": "KUSMUNDA", "Mine_Name": "Kusmunda OCP", "Interval_No": 6, "From_Depth_m": 114.25, "To_Depth_m": 137.1, "Thickness_m": 22.85, "Lithology": "Mudstone", "Stratigraphic_Unit": "Coal-bearing sequence", "Coal_Bearing": "NO", "Coal_Seam": "", "Weathering_Class": "Fresh", "Sample_ID": "KUSMUNDA-003-S06", "Data_Type": "SYNTHETIC_DEMO", "Source_Provenance": "Synthetic borehole interval generated to match GeoVault demonstration corpus" }, "geometry": { "type": "Point", "coordinates": [ 82.673884, 22.290465 ] } },
{ "type": "Feature", "properties": { "Borehole_ID": "KUSMUNDA-BH-003", "Mine_ID": "M-KUSMUNDA", "Mine_Code": "KUSMUNDA", "Mine_Name": "Kusmunda OCP", "Interval_No": 7, "From_Depth_m": 137.1, "To_Depth_m": 159.95, "Thickness_m": 22.85, "Lithology": "Siltstone", "Stratigraphic_Unit": "Overburden", "Coal_Bearing": "NO", "Coal_Seam": "", "Weathering_Class": "Fresh", "Sample_ID": "KUSMUNDA-003-S07", "Data_Type": "SYNTHETIC_DEMO", "Source_Provenance": "Synthetic borehole interval generated to match GeoVault demonstration corpus" }, "geometry": { "type": "Point", "coordinates": [ 82.673884, 22.290465 ] } },
{ "type": "Feature", "properties": { "Borehole_ID": "KUSMUNDA-BH-003", "Mine_ID": "M-KUSMUNDA", "Mine_Code": "KUSMUNDA", "Mine_Name": "Kusmunda OCP", "Interval_No": 8, "From_Depth_m": 159.95, "To_Depth_m": 182.8, "Thickness_m": 22.85, "Lithology": "Siltstone", "Stratigraphic_Unit": "Coal-bearing sequence", "Coal_Bearing": "NO", "Coal_Seam": "", "Weathering_Class": "Fresh", "Sample_ID": "KUSMUNDA-003-S08", "Data_Type": "SYNTHETIC_DEMO", "Source_Provenance": "Synthetic borehole interval generated to match GeoVault demonstration corpus" }, "geometry": { "type": "Point", "coordinates": [ 82.673884, 22.290465 ] } },
{ "type": "Feature", "properties": { "Borehole_ID": "KUSMUNDA-BH-003", "Mine_ID": "M-KUSMUNDA", "Mine_Code": "KUSMUNDA", "Mine_Name": "Kusmunda OCP", "Interval_No": 9, "From_Depth_m": 182.8, "To_Depth_m": 205.65, "Thickness_m": 22.85, "Lithology": "Interbedded Sandstone-Shale", "Stratigraphic_Unit": "Underlying sedimentary sequence", "Coal_Bearing": "NO", "Coal_Seam": "", "Weathering_Class": "Fresh", "Sample_ID": "KUSMUNDA-003-S09", "Data_Type": "SYNTHETIC_DEMO", "Source_Provenance": "Synthetic borehole interval generated to match GeoVault demonstration corpus" }, "geometry": { "type": "Point", "coordinates": [ 82.673884, 22.290465 ] } },
{ "type": "Feature", "properties": { "Borehole_ID": "KUSMUNDA-BH-003", "Mine_ID": "M-KUSMUNDA", "Mine_Code": "KUSMUNDA", "Mine_Name": "Kusmunda OCP", "Interval_No": 10, "From_Depth_m": 205.65, "To_Depth_m": 228.5, "Thickness_m": 22.85, "Lithology": "Interbedded Sandstone-Shale", "Stratigraphic_Unit": "Coal-bearing sequence", "Coal_Bearing": "NO", "Coal_Seam": "", "Weathering_Class": "Fresh", "Sample_ID": "KUSMUNDA-003-S10", "Data_Type": "SYNTHETIC_DEMO", "Source_Provenance": "Synthetic borehole interval generated to match GeoVault demonstration corpus" }, "geometry": { "type": "Point", "coordinates": [ 82.673884, 22.290465 ] } },
{ "type": "Feature", "properties": { "Borehole_ID": "KUSMUNDA-BH-004", "Mine_ID": "M-KUSMUNDA", "Mine_Code": "KUSMUNDA", "Mine_Name": "Kusmunda OCP", "Interval_No": 1, "From_Depth_m": 0.0, "To_Depth_m": 22.31, "Thickness_m": 22.31, "Lithology": "Sandstone", "Stratigraphic_Unit": "Overburden", "Coal_Bearing": "NO", "Coal_Seam": "", "Weathering_Class": "Moderate", "Sample_ID": "KUSMUNDA-004-S01", "Data_Type": "SYNTHETIC_DEMO", "Source_Provenance": "Synthetic borehole interval generated to match GeoVault demonstration corpus" }, "geometry": { "type": "Point", "coordinates": [ 82.680375, 22.311226 ] } },
{ "type": "Feature", "properties": { "Borehole_ID": "KUSMUNDA-BH-004", "Mine_ID": "M-KUSMUNDA", "Mine_Code": "KUSMUNDA", "Mine_Name": "Kusmunda OCP", "Interval_No": 2, "From_Depth_m": 22.31, "To_Depth_m": 44.62, "Thickness_m": 22.31, "Lithology": "Shale", "Stratigraphic_Unit": "Coal-bearing sequence", "Coal_Bearing": "NO", "Coal_Seam": "", "Weathering_Class": "Slight", "Sample_ID": "KUSMUNDA-004-S02", "Data_Type": "SYNTHETIC_DEMO", "Source_Provenance": "Synthetic borehole interval generated to match GeoVault demonstration corpus" }, "geometry": { "type": "Point", "coordinates": [ 82.680375, 22.311226 ] } },
{ "type": "Feature", "properties": { "Borehole_ID": "KUSMUNDA-BH-004", "Mine_ID": "M-KUSMUNDA", "Mine_Code": "KUSMUNDA", "Mine_Name": "Kusmunda OCP", "Interval_No": 3, "From_Depth_m": 44.62, "To_Depth_m": 66.93, "Thickness_m": 22.31, "Lithology": "Carbonaceous Shale", "Stratigraphic_Unit": "Overburden", "Coal_Bearing": "NO", "Coal_Seam": "", "Weathering_Class": "Fresh", "Sample_ID": "KUSMUNDA-004-S03", "Data_Type": "SYNTHETIC_DEMO", "Source_Provenance": "Synthetic borehole interval generated to match GeoVault demonstration corpus" }, "geometry": { "type": "Point", "coordinates": [ 82.680375, 22.311226 ] } },
{ "type": "Feature", "properties": { "Borehole_ID": "KUSMUNDA-BH-004", "Mine_ID": "M-KUSMUNDA", "Mine_Code": "KUSMUNDA", "Mine_Name": "Kusmunda OCP", "Interval_No": 4, "From_Depth_m": 66.93, "To_Depth_m": 89.24, "Thickness_m": 22.31, "Lithology": "Coal", "Stratigraphic_Unit": "Underlying sedimentary sequence", "Coal_Bearing": "YES", "Coal_Seam": "GV-KUS-S2", "Weathering_Class": "Fresh", "Sample_ID": "KUSMUNDA-004-S04", "Data_Type": "SYNTHETIC_DEMO", "Source_Provenance": "Synthetic borehole interval generated to match GeoVault demonstration corpus" }, "geometry": { "type": "Point", "coordinates": [ 82.680375, 22.311226 ] } },
{ "type": "Feature", "properties": { "Borehole_ID": "KUSMUNDA-BH-004", "Mine_ID": "M-KUSMUNDA", "Mine_Code": "KUSMUNDA", "Mine_Name": "Kusmunda OCP", "Interval_No": 5, "From_Depth_m": 89.24, "To_Depth_m": 111.55, "Thickness_m": 22.31, "Lithology": "Siltstone", "Stratigraphic_Unit": "Coal-bearing sequence", "Coal_Bearing": "NO", "Coal_Seam": "", "Weathering_Class": "Fresh", "Sample_ID": "KUSMUNDA-004-S05", "Data_Type": "SYNTHETIC_DEMO", "Source_Provenance": "Synthetic borehole interval generated to match GeoVault demonstration corpus" }, "geometry": { "type": "Point", "coordinates": [ 82.680375, 22.311226 ] } },
{ "type": "Feature", "properties": { "Borehole_ID": "KUSMUNDA-BH-004", "Mine_ID": "M-KUSMUNDA", "Mine_Code": "KUSMUNDA", "Mine_Name": "Kusmunda OCP", "Interval_No": 6, "From_Depth_m": 111.55, "To_Depth_m": 133.86, "Thickness_m": 22.31, "Lithology": "Mudstone", "Stratigraphic_Unit": "Overburden", "Coal_Bearing": "NO", "Coal_Seam": "", "Weathering_Class": "Fresh", "Sample_ID": "KUSMUNDA-004-S06", "Data_Type": "SYNTHETIC_DEMO", "Source_Provenance": "Synthetic borehole interval generated to match GeoVault demonstration corpus" }, "geometry": { "type": "Point", "coordinates": [ 82.680375, 22.311226 ] } },
{ "type": "Feature", "properties": { "Borehole_ID": "KUSMUNDA-BH-004", "Mine_ID": "M-KUSMUNDA", "Mine_Code": "KUSMUNDA", "Mine_Name": "Kusmunda OCP", "Interval_No": 7, "From_Depth_m": 133.86, "To_Depth_m": 156.17, "Thickness_m": 22.31, "Lithology": "Mudstone", "Stratigraphic_Unit": "Barakar-equivalent demo unit", "Coal_Bearing": "NO", "Coal_Seam": "", "Weathering_Class": "Fresh", "Sample_ID": "KUSMUNDA-004-S07", "Data_Type": "SYNTHETIC_DEMO", "Source_Provenance": "Synthetic borehole interval generated to match GeoVault demonstration corpus" }, "geometry": { "type": "Point", "coordinates": [ 82.680375, 22.311226 ] } },
{ "type": "Feature", "properties": { "Borehole_ID": "KUSMUNDA-BH-004", "Mine_ID": "M-KUSMUNDA", "Mine_Code": "KUSMUNDA", "Mine_Name": "Kusmunda OCP", "Interval_No": 8, "From_Depth_m": 156.17, "To_Depth_m": 178.48, "Thickness_m": 22.31, "Lithology": "Siltstone", "Stratigraphic_Unit": "Overburden", "Coal_Bearing": "NO", "Coal_Seam": "", "Weathering_Class": "Fresh", "Sample_ID": "KUSMUNDA-004-S08", "Data_Type": "SYNTHETIC_DEMO", "Source_Provenance": "Synthetic borehole interval generated to match GeoVault demonstration corpus" }, "geometry": { "type": "Point", "coordinates": [ 82.680375, 22.311226 ] } },
{ "type": "Feature", "properties": { "Borehole_ID": "KUSMUNDA-BH-004", "Mine_ID": "M-KUSMUNDA", "Mine_Code": "KUSMUNDA", "Mine_Name": "Kusmunda OCP", "Interval_No": 9, "From_Depth_m": 178.48, "To_Depth_m": 200.79, "Thickness_m": 22.31, "Lithology": "Mudstone", "Stratigraphic_Unit": "Overburden", "Coal_Bearing": "NO", "Coal_Seam": "", "Weathering_Class": "Fresh", "Sample_ID": "KUSMUNDA-004-S09", "Data_Type": "SYNTHETIC_DEMO", "Source_Provenance": "Synthetic borehole interval generated to match GeoVault demonstration corpus" }, "geometry": { "type": "Point", "coordinates": [ 82.680375, 22.311226 ] } },
{ "type": "Feature", "properties": { "Borehole_ID": "KUSMUNDA-BH-004", "Mine_ID": "M-KUSMUNDA", "Mine_Code": "KUSMUNDA", "Mine_Name": "Kusmunda OCP", "Interval_No": 10, "From_Depth_m": 200.79, "To_Depth_m": 223.1, "Thickness_m": 22.31, "Lithology": "Interbedded Sandstone-Shale", "Stratigraphic_Unit": "Barakar-equivalent demo unit", "Coal_Bearing": "NO", "Coal_Seam": "", "Weathering_Class": "Fresh", "Sample_ID": "KUSMUNDA-004-S10", "Data_Type": "SYNTHETIC_DEMO", "Source_Provenance": "Synthetic borehole interval generated to match GeoVault demonstration corpus" }, "geometry": { "type": "Point", "coordinates": [ 82.680375, 22.311226 ] } },
{ "type": "Feature", "properties": { "Borehole_ID": "KUSMUNDA-BH-005", "Mine_ID": "M-KUSMUNDA", "Mine_Code": "KUSMUNDA", "Mine_Name": "Kusmunda OCP", "Interval_No": 1, "From_Depth_m": 0.0, "To_Depth_m": 14.48, "Thickness_m": 14.48, "Lithology": "Siltstone", "Stratigraphic_Unit": "Underlying sedimentary sequence", "Coal_Bearing": "NO", "Coal_Seam": "", "Weathering_Class": "Slight", "Sample_ID": "KUSMUNDA-005-S01", "Data_Type": "SYNTHETIC_DEMO", "Source_Provenance": "Synthetic borehole interval generated to match GeoVault demonstration corpus" }, "geometry": { "type": "Point", "coordinates": [ 82.664971, 22.300834 ] } },
{ "type": "Feature", "properties": { "Borehole_ID": "KUSMUNDA-BH-005", "Mine_ID": "M-KUSMUNDA", "Mine_Code": "KUSMUNDA", "Mine_Name": "Kusmunda OCP", "Interval_No": 2, "From_Depth_m": 14.48, "To_Depth_m": 28.96, "Thickness_m": 14.48, "Lithology": "Siltstone", "Stratigraphic_Unit": "Coal-bearing sequence", "Coal_Bearing": "NO", "Coal_Seam": "", "Weathering_Class": "Slight", "Sample_ID": "KUSMUNDA-005-S02", "Data_Type": "SYNTHETIC_DEMO", "Source_Provenance": "Synthetic borehole interval generated to match GeoVault demonstration corpus" }, "geometry": { "type": "Point", "coordinates": [ 82.664971, 22.300834 ] } },
{ "type": "Feature", "properties": { "Borehole_ID": "KUSMUNDA-BH-005", "Mine_ID": "M-KUSMUNDA", "Mine_Code": "KUSMUNDA", "Mine_Name": "Kusmunda OCP", "Interval_No": 3, "From_Depth_m": 28.96, "To_Depth_m": 43.44, "Thickness_m": 14.48, "Lithology": "Siltstone", "Stratigraphic_Unit": "Coal-bearing sequence", "Coal_Bearing": "NO", "Coal_Seam": "", "Weathering_Class": "Fresh", "Sample_ID": "KUSMUNDA-005-S03", "Data_Type": "SYNTHETIC_DEMO", "Source_Provenance": "Synthetic borehole interval generated to match GeoVault demonstration corpus" }, "geometry": { "type": "Point", "coordinates": [ 82.664971, 22.300834 ] } },
{ "type": "Feature", "properties": { "Borehole_ID": "KUSMUNDA-BH-005", "Mine_ID": "M-KUSMUNDA", "Mine_Code": "KUSMUNDA", "Mine_Name": "Kusmunda OCP", "Interval_No": 4, "From_Depth_m": 43.44, "To_Depth_m": 57.92, "Thickness_m": 14.48, "Lithology": "Carbonaceous Shale", "Stratigraphic_Unit": "Underlying sedimentary sequence", "Coal_Bearing": "NO", "Coal_Seam": "", "Weathering_Class": "Fresh", "Sample_ID": "KUSMUNDA-005-S04", "Data_Type": "SYNTHETIC_DEMO", "Source_Provenance": "Synthetic borehole interval generated to match GeoVault demonstration corpus" }, "geometry": { "type": "Point", "coordinates": [ 82.664971, 22.300834 ] } },
{ "type": "Feature", "properties": { "Borehole_ID": "KUSMUNDA-BH-005", "Mine_ID": "M-KUSMUNDA", "Mine_Code": "KUSMUNDA", "Mine_Name": "Kusmunda OCP", "Interval_No": 5, "From_Depth_m": 57.92, "To_Depth_m": 72.4, "Thickness_m": 14.48, "Lithology": "Coal", "Stratigraphic_Unit": "Coal-bearing sequence", "Coal_Bearing": "YES", "Coal_Seam": "GV-KUS-S1", "Weathering_Class": "Fresh", "Sample_ID": "KUSMUNDA-005-S05", "Data_Type": "SYNTHETIC_DEMO", "Source_Provenance": "Synthetic borehole interval generated to match GeoVault demonstration corpus" }, "geometry": { "type": "Point", "coordinates": [ 82.664971, 22.300834 ] } },
{ "type": "Feature", "properties": { "Borehole_ID": "KUSMUNDA-BH-005", "Mine_ID": "M-KUSMUNDA", "Mine_Code": "KUSMUNDA", "Mine_Name": "Kusmunda OCP", "Interval_No": 6, "From_Depth_m": 72.4, "To_Depth_m": 86.88, "Thickness_m": 14.48, "Lithology": "Mudstone", "Stratigraphic_Unit": "Coal-bearing sequence", "Coal_Bearing": "NO", "Coal_Seam": "", "Weathering_Class": "Fresh", "Sample_ID": "KUSMUNDA-005-S06", "Data_Type": "SYNTHETIC_DEMO", "Source_Provenance": "Synthetic borehole interval generated to match GeoVault demonstration corpus" }, "geometry": { "type": "Point", "coordinates": [ 82.664971, 22.300834 ] } },
{ "type": "Feature", "properties": { "Borehole_ID": "KUSMUNDA-BH-005", "Mine_ID": "M-KUSMUNDA", "Mine_Code": "KUSMUNDA", "Mine_Name": "Kusmunda OCP", "Interval_No": 7, "From_Depth_m": 86.88, "To_Depth_m": 101.36, "Thickness_m": 14.48, "Lithology": "Interbedded Sandstone-Shale", "Stratigraphic_Unit": "Barakar-equivalent demo unit", "Coal_Bearing": "NO", "Coal_Seam": "", "Weathering_Class": "Fresh", "Sample_ID": "KUSMUNDA-005-S07", "Data_Type": "SYNTHETIC_DEMO", "Source_Provenance": "Synthetic borehole interval generated to match GeoVault demonstration corpus" }, "geometry": { "type": "Point", "coordinates": [ 82.664971, 22.300834 ] } },
{ "type": "Feature", "properties": { "Borehole_ID": "KUSMUNDA-BH-005", "Mine_ID": "M-KUSMUNDA", "Mine_Code": "KUSMUNDA", "Mine_Name": "Kusmunda OCP", "Interval_No": 8, "From_Depth_m": 101.36, "To_Depth_m": 115.84, "Thickness_m": 14.48, "Lithology": "Shale", "Stratigraphic_Unit": "Underlying sedimentary sequence", "Coal_Bearing": "NO", "Coal_Seam": "", "Weathering_Class": "Fresh", "Sample_ID": "KUSMUNDA-005-S08", "Data_Type": "SYNTHETIC_DEMO", "Source_Provenance": "Synthetic borehole interval generated to match GeoVault demonstration corpus" }, "geometry": { "type": "Point", "coordinates": [ 82.664971, 22.300834 ] } },
{ "type": "Feature", "properties": { "Borehole_ID": "KUSMUNDA-BH-005", "Mine_ID": "M-KUSMUNDA", "Mine_Code": "KUSMUNDA", "Mine_Name": "Kusmunda OCP", "Interval_No": 9, "From_Depth_m": 115.84, "To_Depth_m": 130.32, "Thickness_m": 14.48, "Lithology": "Mudstone", "Stratigraphic_Unit": "Barakar-equivalent demo unit", "Coal_Bearing": "NO", "Coal_Seam": "", "Weathering_Class": "Fresh", "Sample_ID": "KUSMUNDA-005-S09", "Data_Type": "SYNTHETIC_DEMO", "Source_Provenance": "Synthetic borehole interval generated to match GeoVault demonstration corpus" }, "geometry": { "type": "Point", "coordinates": [ 82.664971, 22.300834 ] } },
{ "type": "Feature", "properties": { "Borehole_ID": "KUSMUNDA-BH-005", "Mine_ID": "M-KUSMUNDA", "Mine_Code": "KUSMUNDA", "Mine_Name": "Kusmunda OCP", "Interval_No": 10, "From_Depth_m": 130.32, "To_Depth_m": 144.8, "Thickness_m": 14.48, "Lithology": "Interbedded Sandstone-Shale", "Stratigraphic_Unit": "Coal-bearing sequence", "Coal_Bearing": "NO", "Coal_Seam": "", "Weathering_Class": "Fresh", "Sample_ID": "KUSMUNDA-005-S10", "Data_Type": "SYNTHETIC_DEMO", "Source_Provenance": "Synthetic borehole interval generated to match GeoVault demonstration corpus" }, "geometry": { "type": "Point", "coordinates": [ 82.664971, 22.300834 ] } },
{ "type": "Feature", "properties": { "Borehole_ID": "KUSMUNDA-BH-006", "Mine_ID": "M-KUSMUNDA", "Mine_Code": "KUSMUNDA", "Mine_Name": "Kusmunda OCP", "Interval_No": 1, "From_Depth_m": 0.0, "To_Depth_m": 21.59, "Thickness_m": 21.59, "Lithology": "Mudstone", "Stratigraphic_Unit": "Overburden", "Coal_Bearing": "NO", "Coal_Seam": "", "Weathering_Class": "Moderate", "Sample_ID": "KUSMUNDA-006-S01", "Data_Type": "SYNTHETIC_DEMO", "Source_Provenance": "Synthetic borehole interval generated to match GeoVault demonstration corpus" }, "geometry": { "type": "Point", "coordinates": [ 82.705069, 22.307746 ] } },
{ "type": "Feature", "properties": { "Borehole_ID": "KUSMUNDA-BH-006", "Mine_ID": "M-KUSMUNDA", "Mine_Code": "KUSMUNDA", "Mine_Name": "Kusmunda OCP", "Interval_No": 2, "From_Depth_m": 21.59, "To_Depth_m": 43.18, "Thickness_m": 21.59, "Lithology": "Siltstone", "Stratigraphic_Unit": "Barakar-equivalent demo unit", "Coal_Bearing": "NO", "Coal_Seam": "", "Weathering_Class": "Moderate", "Sample_ID": "KUSMUNDA-006-S02", "Data_Type": "SYNTHETIC_DEMO", "Source_Provenance": "Synthetic borehole interval generated to match GeoVault demonstration corpus" }, "geometry": { "type": "Point", "coordinates": [ 82.705069, 22.307746 ] } },
{ "type": "Feature", "properties": { "Borehole_ID": "KUSMUNDA-BH-006", "Mine_ID": "M-KUSMUNDA", "Mine_Code": "KUSMUNDA", "Mine_Name": "Kusmunda OCP", "Interval_No": 3, "From_Depth_m": 43.18, "To_Depth_m": 64.77, "Thickness_m": 21.59, "Lithology": "Interbedded Sandstone-Shale", "Stratigraphic_Unit": "Coal-bearing sequence", "Coal_Bearing": "NO", "Coal_Seam": "", "Weathering_Class": "Fresh", "Sample_ID": "KUSMUNDA-006-S03", "Data_Type": "SYNTHETIC_DEMO", "Source_Provenance": "Synthetic borehole interval generated to match GeoVault demonstration corpus" }, "geometry": { "type": "Point", "coordinates": [ 82.705069, 22.307746 ] } },
{ "type": "Feature", "properties": { "Borehole_ID": "KUSMUNDA-BH-006", "Mine_ID": "M-KUSMUNDA", "Mine_Code": "KUSMUNDA", "Mine_Name": "Kusmunda OCP", "Interval_No": 4, "From_Depth_m": 64.77, "To_Depth_m": 86.36, "Thickness_m": 21.59, "Lithology": "Mudstone", "Stratigraphic_Unit": "Underlying sedimentary sequence", "Coal_Bearing": "NO", "Coal_Seam": "", "Weathering_Class": "Fresh", "Sample_ID": "KUSMUNDA-006-S04", "Data_Type": "SYNTHETIC_DEMO", "Source_Provenance": "Synthetic borehole interval generated to match GeoVault demonstration corpus" }, "geometry": { "type": "Point", "coordinates": [ 82.705069, 22.307746 ] } },
{ "type": "Feature", "properties": { "Borehole_ID": "KUSMUNDA-BH-006", "Mine_ID": "M-KUSMUNDA", "Mine_Code": "KUSMUNDA", "Mine_Name": "Kusmunda OCP", "Interval_No": 5, "From_Depth_m": 86.36, "To_Depth_m": 107.95, "Thickness_m": 21.59, "Lithology": "Mudstone", "Stratigraphic_Unit": "Barakar-equivalent demo unit", "Coal_Bearing": "NO", "Coal_Seam": "", "Weathering_Class": "Fresh", "Sample_ID": "KUSMUNDA-006-S05", "Data_Type": "SYNTHETIC_DEMO", "Source_Provenance": "Synthetic borehole interval generated to match GeoVault demonstration corpus" }, "geometry": { "type": "Point", "coordinates": [ 82.705069, 22.307746 ] } },
{ "type": "Feature", "properties": { "Borehole_ID": "KUSMUNDA-BH-006", "Mine_ID": "M-KUSMUNDA", "Mine_Code": "KUSMUNDA", "Mine_Name": "Kusmunda OCP", "Interval_No": 6, "From_Depth_m": 107.95, "To_Depth_m": 129.54, "Thickness_m": 21.59, "Lithology": "Carbonaceous Shale", "Stratigraphic_Unit": "Underlying sedimentary sequence", "Coal_Bearing": "NO", "Coal_Seam": "", "Weathering_Class": "Fresh", "Sample_ID": "KUSMUNDA-006-S06", "Data_Type": "SYNTHETIC_DEMO", "Source_Provenance": "Synthetic borehole interval generated to match GeoVault demonstration corpus" }, "geometry": { "type": "Point", "coordinates": [ 82.705069, 22.307746 ] } },
{ "type": "Feature", "properties": { "Borehole_ID": "KUSMUNDA-BH-006", "Mine_ID": "M-KUSMUNDA", "Mine_Code": "KUSMUNDA", "Mine_Name": "Kusmunda OCP", "Interval_No": 7, "From_Depth_m": 129.54, "To_Depth_m": 151.13, "Thickness_m": 21.59, "Lithology": "Coal", "Stratigraphic_Unit": "Barakar-equivalent demo unit", "Coal_Bearing": "YES", "Coal_Seam": "GV-KUS-S3", "Weathering_Class": "Fresh", "Sample_ID": "KUSMUNDA-006-S07", "Data_Type": "SYNTHETIC_DEMO", "Source_Provenance": "Synthetic borehole interval generated to match GeoVault demonstration corpus" }, "geometry": { "type": "Point", "coordinates": [ 82.705069, 22.307746 ] } },
{ "type": "Feature", "properties": { "Borehole_ID": "KUSMUNDA-BH-006", "Mine_ID": "M-KUSMUNDA", "Mine_Code": "KUSMUNDA", "Mine_Name": "Kusmunda OCP", "Interval_No": 8, "From_Depth_m": 151.13, "To_Depth_m": 172.72, "Thickness_m": 21.59, "Lithology": "Sandstone", "Stratigraphic_Unit": "Coal-bearing sequence", "Coal_Bearing": "NO", "Coal_Seam": "", "Weathering_Class": "Fresh", "Sample_ID": "KUSMUNDA-006-S08", "Data_Type": "SYNTHETIC_DEMO", "Source_Provenance": "Synthetic borehole interval generated to match GeoVault demonstration corpus" }, "geometry": { "type": "Point", "coordinates": [ 82.705069, 22.307746 ] } },
{ "type": "Feature", "properties": { "Borehole_ID": "KUSMUNDA-BH-006", "Mine_ID": "M-KUSMUNDA", "Mine_Code": "KUSMUNDA", "Mine_Name": "Kusmunda OCP", "Interval_No": 9, "From_Depth_m": 172.72, "To_Depth_m": 194.31, "Thickness_m": 21.59, "Lithology": "Interbedded Sandstone-Shale", "Stratigraphic_Unit": "Coal-bearing sequence", "Coal_Bearing": "NO", "Coal_Seam": "", "Weathering_Class": "Fresh", "Sample_ID": "KUSMUNDA-006-S09", "Data_Type": "SYNTHETIC_DEMO", "Source_Provenance": "Synthetic borehole interval generated to match GeoVault demonstration corpus" }, "geometry": { "type": "Point", "coordinates": [ 82.705069, 22.307746 ] } },
{ "type": "Feature", "properties": { "Borehole_ID": "KUSMUNDA-BH-006", "Mine_ID": "M-KUSMUNDA", "Mine_Code": "KUSMUNDA", "Mine_Name": "Kusmunda OCP", "Interval_No": 10, "From_Depth_m": 194.31, "To_Depth_m": 215.9, "Thickness_m": 21.59, "Lithology": "Sandstone", "Stratigraphic_Unit": "Barakar-equivalent demo unit", "Coal_Bearing": "NO", "Coal_Seam": "", "Weathering_Class": "Fresh", "Sample_ID": "KUSMUNDA-006-S10", "Data_Type": "SYNTHETIC_DEMO", "Source_Provenance": "Synthetic borehole interval generated to match GeoVault demonstration corpus" }, "geometry": { "type": "Point", "coordinates": [ 82.705069, 22.307746 ] } },
{ "type": "Feature", "properties": { "Borehole_ID": "KUSMUNDA-BH-007", "Mine_ID": "M-KUSMUNDA", "Mine_Code": "KUSMUNDA", "Mine_Name": "Kusmunda OCP", "Interval_No": 1, "From_Depth_m": 0.0, "To_Depth_m": 15.77, "Thickness_m": 15.77, "Lithology": "Siltstone", "Stratigraphic_Unit": "Barakar-equivalent demo unit", "Coal_Bearing": "NO", "Coal_Seam": "", "Weathering_Class": "Slight", "Sample_ID": "KUSMUNDA-007-S01", "Data_Type": "SYNTHETIC_DEMO", "Source_Provenance": "Synthetic borehole interval generated to match GeoVault demonstration corpus" }, "geometry": { "type": "Point", "coordinates": [ 82.668951, 22.28426 ] } },
{ "type": "Feature", "properties": { "Borehole_ID": "KUSMUNDA-BH-007", "Mine_ID": "M-KUSMUNDA", "Mine_Code": "KUSMUNDA", "Mine_Name": "Kusmunda OCP", "Interval_No": 2, "From_Depth_m": 15.77, "To_Depth_m": 31.54, "Thickness_m": 15.77, "Lithology": "Shale", "Stratigraphic_Unit": "Overburden", "Coal_Bearing": "NO", "Coal_Seam": "", "Weathering_Class": "Slight", "Sample_ID": "KUSMUNDA-007-S02", "Data_Type": "SYNTHETIC_DEMO", "Source_Provenance": "Synthetic borehole interval generated to match GeoVault demonstration corpus" }, "geometry": { "type": "Point", "coordinates": [ 82.668951, 22.28426 ] } },
{ "type": "Feature", "properties": { "Borehole_ID": "KUSMUNDA-BH-007", "Mine_ID": "M-KUSMUNDA", "Mine_Code": "KUSMUNDA", "Mine_Name": "Kusmunda OCP", "Interval_No": 3, "From_Depth_m": 31.54, "To_Depth_m": 47.31, "Thickness_m": 15.77, "Lithology": "Shale", "Stratigraphic_Unit": "Underlying sedimentary sequence", "Coal_Bearing": "NO", "Coal_Seam": "", "Weathering_Class": "Fresh", "Sample_ID": "KUSMUNDA-007-S03", "Data_Type": "SYNTHETIC_DEMO", "Source_Provenance": "Synthetic borehole interval generated to match GeoVault demonstration corpus" }, "geometry": { "type": "Point", "coordinates": [ 82.668951, 22.28426 ] } },
{ "type": "Feature", "properties": { "Borehole_ID": "KUSMUNDA-BH-007", "Mine_ID": "M-KUSMUNDA", "Mine_Code": "KUSMUNDA", "Mine_Name": "Kusmunda OCP", "Interval_No": 4, "From_Depth_m": 47.31, "To_Depth_m": 63.08, "Thickness_m": 15.77, "Lithology": "Interbedded Sandstone-Shale", "Stratigraphic_Unit": "Overburden", "Coal_Bearing": "NO", "Coal_Seam": "", "Weathering_Class": "Fresh", "Sample_ID": "KUSMUNDA-007-S04", "Data_Type": "SYNTHETIC_DEMO", "Source_Provenance": "Synthetic borehole interval generated to match GeoVault demonstration corpus" }, "geometry": { "type": "Point", "coordinates": [ 82.668951, 22.28426 ] } },
{ "type": "Feature", "properties": { "Borehole_ID": "KUSMUNDA-BH-007", "Mine_ID": "M-KUSMUNDA", "Mine_Code": "KUSMUNDA", "Mine_Name": "Kusmunda OCP", "Interval_No": 5, "From_Depth_m": 63.08, "To_Depth_m": 78.85, "Thickness_m": 15.77, "Lithology": "Mudstone", "Stratigraphic_Unit": "Underlying sedimentary sequence", "Coal_Bearing": "NO", "Coal_Seam": "", "Weathering_Class": "Fresh", "Sample_ID": "KUSMUNDA-007-S05", "Data_Type": "SYNTHETIC_DEMO", "Source_Provenance": "Synthetic borehole interval generated to match GeoVault demonstration corpus" }, "geometry": { "type": "Point", "coordinates": [ 82.668951, 22.28426 ] } },
{ "type": "Feature", "properties": { "Borehole_ID": "KUSMUNDA-BH-007", "Mine_ID": "M-KUSMUNDA", "Mine_Code": "KUSMUNDA", "Mine_Name": "Kusmunda OCP", "Interval_No": 6, "From_Depth_m": 78.85, "To_Depth_m": 94.62, "Thickness_m": 15.77, "Lithology": "Carbonaceous Shale", "Stratigraphic_Unit": "Barakar-equivalent demo unit", "Coal_Bearing": "NO", "Coal_Seam": "", "Weathering_Class": "Fresh", "Sample_ID": "KUSMUNDA-007-S06", "Data_Type": "SYNTHETIC_DEMO", "Source_Provenance": "Synthetic borehole interval generated to match GeoVault demonstration corpus" }, "geometry": { "type": "Point", "coordinates": [ 82.668951, 22.28426 ] } },
{ "type": "Feature", "properties": { "Borehole_ID": "KUSMUNDA-BH-007", "Mine_ID": "M-KUSMUNDA", "Mine_Code": "KUSMUNDA", "Mine_Name": "Kusmunda OCP", "Interval_No": 7, "From_Depth_m": 94.62, "To_Depth_m": 110.39, "Thickness_m": 15.77, "Lithology": "Coal", "Stratigraphic_Unit": "Underlying sedimentary sequence", "Coal_Bearing": "YES", "Coal_Seam": "GV-KUS-S4", "Weathering_Class": "Fresh", "Sample_ID": "KUSMUNDA-007-S07", "Data_Type": "SYNTHETIC_DEMO", "Source_Provenance": "Synthetic borehole interval generated to match GeoVault demonstration corpus" }, "geometry": { "type": "Point", "coordinates": [ 82.668951, 22.28426 ] } },
{ "type": "Feature", "properties": { "Borehole_ID": "KUSMUNDA-BH-007", "Mine_ID": "M-KUSMUNDA", "Mine_Code": "KUSMUNDA", "Mine_Name": "Kusmunda OCP", "Interval_No": 8, "From_Depth_m": 110.39, "To_Depth_m": 126.16, "Thickness_m": 15.77, "Lithology": "Mudstone", "Stratigraphic_Unit": "Underlying sedimentary sequence", "Coal_Bearing": "NO", "Coal_Seam": "", "Weathering_Class": "Fresh", "Sample_ID": "KUSMUNDA-007-S08", "Data_Type": "SYNTHETIC_DEMO", "Source_Provenance": "Synthetic borehole interval generated to match GeoVault demonstration corpus" }, "geometry": { "type": "Point", "coordinates": [ 82.668951, 22.28426 ] } },
{ "type": "Feature", "properties": { "Borehole_ID": "KUSMUNDA-BH-007", "Mine_ID": "M-KUSMUNDA", "Mine_Code": "KUSMUNDA", "Mine_Name": "Kusmunda OCP", "Interval_No": 9, "From_Depth_m": 126.16, "To_Depth_m": 141.93, "Thickness_m": 15.77, "Lithology": "Shale", "Stratigraphic_Unit": "Barakar-equivalent demo unit", "Coal_Bearing": "NO", "Coal_Seam": "", "Weathering_Class": "Fresh", "Sample_ID": "KUSMUNDA-007-S09", "Data_Type": "SYNTHETIC_DEMO", "Source_Provenance": "Synthetic borehole interval generated to match GeoVault demonstration corpus" }, "geometry": { "type": "Point", "coordinates": [ 82.668951, 22.28426 ] } },
{ "type": "Feature", "properties": { "Borehole_ID": "KUSMUNDA-BH-007", "Mine_ID": "M-KUSMUNDA", "Mine_Code": "KUSMUNDA", "Mine_Name": "Kusmunda OCP", "Interval_No": 10, "From_Depth_m": 141.93, "To_Depth_m": 157.7, "Thickness_m": 15.77, "Lithology": "Sandstone", "Stratigraphic_Unit": "Overburden", "Coal_Bearing": "NO", "Coal_Seam": "", "Weathering_Class": "Fresh", "Sample_ID": "KUSMUNDA-007-S10", "Data_Type": "SYNTHETIC_DEMO", "Source_Provenance": "Synthetic borehole interval generated to match GeoVault demonstration corpus" }, "geometry": { "type": "Point", "coordinates": [ 82.668951, 22.28426 ] } },
{ "type": "Feature", "properties": { "Borehole_ID": "KUSMUNDA-BH-008", "Mine_ID": "M-KUSMUNDA", "Mine_Code": "KUSMUNDA", "Mine_Name": "Kusmunda OCP", "Interval_No": 1, "From_Depth_m": 0.0, "To_Depth_m": 10.82, "Thickness_m": 10.82, "Lithology": "Mudstone", "Stratigraphic_Unit": "Barakar-equivalent demo unit", "Coal_Bearing": "NO", "Coal_Seam": "", "Weathering_Class": "Slight", "Sample_ID": "KUSMUNDA-008-S01", "Data_Type": "SYNTHETIC_DEMO", "Source_Provenance": "Synthetic borehole interval generated to match GeoVault demonstration corpus" }, "geometry": { "type": "Point", "coordinates": [ 82.669966, 22.291816 ] } },
{ "type": "Feature", "properties": { "Borehole_ID": "KUSMUNDA-BH-008", "Mine_ID": "M-KUSMUNDA", "Mine_Code": "KUSMUNDA", "Mine_Name": "Kusmunda OCP", "Interval_No": 2, "From_Depth_m": 10.82, "To_Depth_m": 21.64, "Thickness_m": 10.82, "Lithology": "Interbedded Sandstone-Shale", "Stratigraphic_Unit": "Underlying sedimentary sequence", "Coal_Bearing": "NO", "Coal_Seam": "", "Weathering_Class": "Slight", "Sample_ID": "KUSMUNDA-008-S02", "Data_Type": "SYNTHETIC_DEMO", "Source_Provenance": "Synthetic borehole interval generated to match GeoVault demonstration corpus" }, "geometry": { "type": "Point", "coordinates": [ 82.669966, 22.291816 ] } },
{ "type": "Feature", "properties": { "Borehole_ID": "KUSMUNDA-BH-008", "Mine_ID": "M-KUSMUNDA", "Mine_Code": "KUSMUNDA", "Mine_Name": "Kusmunda OCP", "Interval_No": 3, "From_Depth_m": 21.64, "To_Depth_m": 32.46, "Thickness_m": 10.82, "Lithology": "Interbedded Sandstone-Shale", "Stratigraphic_Unit": "Barakar-equivalent demo unit", "Coal_Bearing": "NO", "Coal_Seam": "", "Weathering_Class": "Slight", "Sample_ID": "KUSMUNDA-008-S03", "Data_Type": "SYNTHETIC_DEMO", "Source_Provenance": "Synthetic borehole interval generated to match GeoVault demonstration corpus" }, "geometry": { "type": "Point", "coordinates": [ 82.669966, 22.291816 ] } },
{ "type": "Feature", "properties": { "Borehole_ID": "KUSMUNDA-BH-008", "Mine_ID": "M-KUSMUNDA", "Mine_Code": "KUSMUNDA", "Mine_Name": "Kusmunda OCP", "Interval_No": 4, "From_Depth_m": 32.46, "To_Depth_m": 43.28, "Thickness_m": 10.82, "Lithology": "Carbonaceous Shale", "Stratigraphic_Unit": "Underlying sedimentary sequence", "Coal_Bearing": "NO", "Coal_Seam": "", "Weathering_Class": "Fresh", "Sample_ID": "KUSMUNDA-008-S04", "Data_Type": "SYNTHETIC_DEMO", "Source_Provenance": "Synthetic borehole interval generated to match GeoVault demonstration corpus" }, "geometry": { "type": "Point", "coordinates": [ 82.669966, 22.291816 ] } },
{ "type": "Feature", "properties": { "Borehole_ID": "KUSMUNDA-BH-008", "Mine_ID": "M-KUSMUNDA", "Mine_Code": "KUSMUNDA", "Mine_Name": "Kusmunda OCP", "Interval_No": 5, "From_Depth_m": 43.28, "To_Depth_m": 54.1, "Thickness_m": 10.82, "Lithology": "Coal", "Stratigraphic_Unit": "Barakar-equivalent demo unit", "Coal_Bearing": "YES", "Coal_Seam": "GV-KUS-S4", "Weathering_Class": "Fresh", "Sample_ID": "KUSMUNDA-008-S05", "Data_Type": "SYNTHETIC_DEMO", "Source_Provenance": "Synthetic borehole interval generated to match GeoVault demonstration corpus" }, "geometry": { "type": "Point", "coordinates": [ 82.669966, 22.291816 ] } },
{ "type": "Feature", "properties": { "Borehole_ID": "KUSMUNDA-BH-008", "Mine_ID": "M-KUSMUNDA", "Mine_Code": "KUSMUNDA", "Mine_Name": "Kusmunda OCP", "Interval_No": 6, "From_Depth_m": 54.1, "To_Depth_m": 64.92, "Thickness_m": 10.82, "Lithology": "Mudstone", "Stratigraphic_Unit": "Coal-bearing sequence", "Coal_Bearing": "NO", "Coal_Seam": "", "Weathering_Class": "Fresh", "Sample_ID": "KUSMUNDA-008-S06", "Data_Type": "SYNTHETIC_DEMO", "Source_Provenance": "Synthetic borehole interval generated to match GeoVault demonstration corpus" }, "geometry": { "type": "Point", "coordinates": [ 82.669966, 22.291816 ] } },
{ "type": "Feature", "properties": { "Borehole_ID": "KUSMUNDA-BH-008", "Mine_ID": "M-KUSMUNDA", "Mine_Code": "KUSMUNDA", "Mine_Name": "Kusmunda OCP", "Interval_No": 7, "From_Depth_m": 64.92, "To_Depth_m": 75.74, "Thickness_m": 10.82, "Lithology": "Mudstone", "Stratigraphic_Unit": "Underlying sedimentary sequence", "Coal_Bearing": "NO", "Coal_Seam": "", "Weathering_Class": "Fresh", "Sample_ID": "KUSMUNDA-008-S07", "Data_Type": "SYNTHETIC_DEMO", "Source_Provenance": "Synthetic borehole interval generated to match GeoVault demonstration corpus" }, "geometry": { "type": "Point", "coordinates": [ 82.669966, 22.291816 ] } },
{ "type": "Feature", "properties": { "Borehole_ID": "KUSMUNDA-BH-008", "Mine_ID": "M-KUSMUNDA", "Mine_Code": "KUSMUNDA", "Mine_Name": "Kusmunda OCP", "Interval_No": 8, "From_Depth_m": 75.74, "To_Depth_m": 86.56, "Thickness_m": 10.82, "Lithology": "Interbedded Sandstone-Shale", "Stratigraphic_Unit": "Underlying sedimentary sequence", "Coal_Bearing": "NO", "Coal_Seam": "", "Weathering_Class": "Fresh", "Sample_ID": "KUSMUNDA-008-S08", "Data_Type": "SYNTHETIC_DEMO", "Source_Provenance": "Synthetic borehole interval generated to match GeoVault demonstration corpus" }, "geometry": { "type": "Point", "coordinates": [ 82.669966, 22.291816 ] } },
{ "type": "Feature", "properties": { "Borehole_ID": "KUSMUNDA-BH-008", "Mine_ID": "M-KUSMUNDA", "Mine_Code": "KUSMUNDA", "Mine_Name": "Kusmunda OCP", "Interval_No": 9, "From_Depth_m": 86.56, "To_Depth_m": 97.38, "Thickness_m": 10.82, "Lithology": "Shale", "Stratigraphic_Unit": "Underlying sedimentary sequence", "Coal_Bearing": "NO", "Coal_Seam": "", "Weathering_Class": "Fresh", "Sample_ID": "KUSMUNDA-008-S09", "Data_Type": "SYNTHETIC_DEMO", "Source_Provenance": "Synthetic borehole interval generated to match GeoVault demonstration corpus" }, "geometry": { "type": "Point", "coordinates": [ 82.669966, 22.291816 ] } },
{ "type": "Feature", "properties": { "Borehole_ID": "KUSMUNDA-BH-008", "Mine_ID": "M-KUSMUNDA", "Mine_Code": "KUSMUNDA", "Mine_Name": "Kusmunda OCP", "Interval_No": 10, "From_Depth_m": 97.38, "To_Depth_m": 108.2, "Thickness_m": 10.82, "Lithology": "Mudstone", "Stratigraphic_Unit": "Coal-bearing sequence", "Coal_Bearing": "NO", "Coal_Seam": "", "Weathering_Class": "Fresh", "Sample_ID": "KUSMUNDA-008-S10", "Data_Type": "SYNTHETIC_DEMO", "Source_Provenance": "Synthetic borehole interval generated to match GeoVault demonstration corpus" }, "geometry": { "type": "Point", "coordinates": [ 82.669966, 22.291816 ] } },
{ "type": "Feature", "properties": { "Borehole_ID": "KUSMUNDA-BH-009", "Mine_ID": "M-KUSMUNDA", "Mine_Code": "KUSMUNDA", "Mine_Name": "Kusmunda OCP", "Interval_No": 1, "From_Depth_m": 0.0, "To_Depth_m": 11.95, "Thickness_m": 11.95, "Lithology": "Shale", "Stratigraphic_Unit": "Coal-bearing sequence", "Coal_Bearing": "NO", "Coal_Seam": "", "Weathering_Class": "Moderate", "Sample_ID": "KUSMUNDA-009-S01", "Data_Type": "SYNTHETIC_DEMO", "Source_Provenance": "Synthetic borehole interval generated to match GeoVault demonstration corpus" }, "geometry": { "type": "Point", "coordinates": [ 82.671011, 22.315098 ] } },
{ "type": "Feature", "properties": { "Borehole_ID": "KUSMUNDA-BH-009", "Mine_ID": "M-KUSMUNDA", "Mine_Code": "KUSMUNDA", "Mine_Name": "Kusmunda OCP", "Interval_No": 2, "From_Depth_m": 11.95, "To_Depth_m": 23.9, "Thickness_m": 11.95, "Lithology": "Shale", "Stratigraphic_Unit": "Coal-bearing sequence", "Coal_Bearing": "NO", "Coal_Seam": "", "Weathering_Class": "Moderate", "Sample_ID": "KUSMUNDA-009-S02", "Data_Type": "SYNTHETIC_DEMO", "Source_Provenance": "Synthetic borehole interval generated to match GeoVault demonstration corpus" }, "geometry": { "type": "Point", "coordinates": [ 82.671011, 22.315098 ] } },
{ "type": "Feature", "properties": { "Borehole_ID": "KUSMUNDA-BH-009", "Mine_ID": "M-KUSMUNDA", "Mine_Code": "KUSMUNDA", "Mine_Name": "Kusmunda OCP", "Interval_No": 3, "From_Depth_m": 23.9, "To_Depth_m": 35.85, "Thickness_m": 11.95, "Lithology": "Sandstone", "Stratigraphic_Unit": "Coal-bearing sequence", "Coal_Bearing": "NO", "Coal_Seam": "", "Weathering_Class": "Slight", "Sample_ID": "KUSMUNDA-009-S03", "Data_Type": "SYNTHETIC_DEMO", "Source_Provenance": "Synthetic borehole interval generated to match GeoVault demonstration corpus" }, "geometry": { "type": "Point", "coordinates": [ 82.671011, 22.315098 ] } },
{ "type": "Feature", "properties": { "Borehole_ID": "KUSMUNDA-BH-009", "Mine_ID": "M-KUSMUNDA", "Mine_Code": "KUSMUNDA", "Mine_Name": "Kusmunda OCP", "Interval_No": 4, "From_Depth_m": 35.85, "To_Depth_m": 47.8, "Thickness_m": 11.95, "Lithology": "Siltstone", "Stratigraphic_Unit": "Coal-bearing sequence", "Coal_Bearing": "NO", "Coal_Seam": "", "Weathering_Class": "Fresh", "Sample_ID": "KUSMUNDA-009-S04", "Data_Type": "SYNTHETIC_DEMO", "Source_Provenance": "Synthetic borehole interval generated to match GeoVault demonstration corpus" }, "geometry": { "type": "Point", "coordinates": [ 82.671011, 22.315098 ] } },
{ "type": "Feature", "properties": { "Borehole_ID": "KUSMUNDA-BH-009", "Mine_ID": "M-KUSMUNDA", "Mine_Code": "KUSMUNDA", "Mine_Name": "Kusmunda OCP", "Interval_No": 5, "From_Depth_m": 47.8, "To_Depth_m": 59.75, "Thickness_m": 11.95, "Lithology": "Carbonaceous Shale", "Stratigraphic_Unit": "Coal-bearing sequence", "Coal_Bearing": "NO", "Coal_Seam": "", "Weathering_Class": "Fresh", "Sample_ID": "KUSMUNDA-009-S05", "Data_Type": "SYNTHETIC_DEMO", "Source_Provenance": "Synthetic borehole interval generated to match GeoVault demonstration corpus" }, "geometry": { "type": "Point", "coordinates": [ 82.671011, 22.315098 ] } },
{ "type": "Feature", "properties": { "Borehole_ID": "KUSMUNDA-BH-009", "Mine_ID": "M-KUSMUNDA", "Mine_Code": "KUSMUNDA", "Mine_Name": "Kusmunda OCP", "Interval_No": 6, "From_Depth_m": 59.75, "To_Depth_m": 71.7, "Thickness_m": 11.95, "Lithology": "Coal", "Stratigraphic_Unit": "Overburden", "Coal_Bearing": "YES", "Coal_Seam": "GV-KUS-S4", "Weathering_Class": "Fresh", "Sample_ID": "KUSMUNDA-009-S06", "Data_Type": "SYNTHETIC_DEMO", "Source_Provenance": "Synthetic borehole interval generated to match GeoVault demonstration corpus" }, "geometry": { "type": "Point", "coordinates": [ 82.671011, 22.315098 ] } },
{ "type": "Feature", "properties": { "Borehole_ID": "KUSMUNDA-BH-009", "Mine_ID": "M-KUSMUNDA", "Mine_Code": "KUSMUNDA", "Mine_Name": "Kusmunda OCP", "Interval_No": 7, "From_Depth_m": 71.7, "To_Depth_m": 83.65, "Thickness_m": 11.95, "Lithology": "Shale", "Stratigraphic_Unit": "Barakar-equivalent demo unit", "Coal_Bearing": "NO", "Coal_Seam": "", "Weathering_Class": "Fresh", "Sample_ID": "KUSMUNDA-009-S07", "Data_Type": "SYNTHETIC_DEMO", "Source_Provenance": "Synthetic borehole interval generated to match GeoVault demonstration corpus" }, "geometry": { "type": "Point", "coordinates": [ 82.671011, 22.315098 ] } },
{ "type": "Feature", "properties": { "Borehole_ID": "KUSMUNDA-BH-009", "Mine_ID": "M-KUSMUNDA", "Mine_Code": "KUSMUNDA", "Mine_Name": "Kusmunda OCP", "Interval_No": 8, "From_Depth_m": 83.65, "To_Depth_m": 95.6, "Thickness_m": 11.95, "Lithology": "Shale", "Stratigraphic_Unit": "Underlying sedimentary sequence", "Coal_Bearing": "NO", "Coal_Seam": "", "Weathering_Class": "Fresh", "Sample_ID": "KUSMUNDA-009-S08", "Data_Type": "SYNTHETIC_DEMO", "Source_Provenance": "Synthetic borehole interval generated to match GeoVault demonstration corpus" }, "geometry": { "type": "Point", "coordinates": [ 82.671011, 22.315098 ] } },
{ "type": "Feature", "properties": { "Borehole_ID": "KUSMUNDA-BH-009", "Mine_ID": "M-KUSMUNDA", "Mine_Code": "KUSMUNDA", "Mine_Name": "Kusmunda OCP", "Interval_No": 9, "From_Depth_m": 95.6, "To_Depth_m": 107.55, "Thickness_m": 11.95, "Lithology": "Shale", "Stratigraphic_Unit": "Barakar-equivalent demo unit", "Coal_Bearing": "NO", "Coal_Seam": "", "Weathering_Class": "Fresh", "Sample_ID": "KUSMUNDA-009-S09", "Data_Type": "SYNTHETIC_DEMO", "Source_Provenance": "Synthetic borehole interval generated to match GeoVault demonstration corpus" }, "geometry": { "type": "Point", "coordinates": [ 82.671011, 22.315098 ] } },
{ "type": "Feature", "properties": { "Borehole_ID": "KUSMUNDA-BH-009", "Mine_ID": "M-KUSMUNDA", "Mine_Code": "KUSMUNDA", "Mine_Name": "Kusmunda OCP", "Interval_No": 10, "From_Depth_m": 107.55, "To_Depth_m": 119.5, "Thickness_m": 11.95, "Lithology": "Sandstone", "Stratigraphic_Unit": "Underlying sedimentary sequence", "Coal_Bearing": "NO", "Coal_Seam": "", "Weathering_Class": "Fresh", "Sample_ID": "KUSMUNDA-009-S10", "Data_Type": "SYNTHETIC_DEMO", "Source_Provenance": "Synthetic borehole interval generated to match GeoVault demonstration corpus" }, "geometry": { "type": "Point", "coordinates": [ 82.671011, 22.315098 ] } },
{ "type": "Feature", "properties": { "Borehole_ID": "KUSMUNDA-BH-010", "Mine_ID": "M-KUSMUNDA", "Mine_Code": "KUSMUNDA", "Mine_Name": "Kusmunda OCP", "Interval_No": 1, "From_Depth_m": 0.0, "To_Depth_m": 17.57, "Thickness_m": 17.57, "Lithology": "Mudstone", "Stratigraphic_Unit": "Coal-bearing sequence", "Coal_Bearing": "NO", "Coal_Seam": "", "Weathering_Class": "Moderate", "Sample_ID": "KUSMUNDA-010-S01", "Data_Type": "SYNTHETIC_DEMO", "Source_Provenance": "Synthetic borehole interval generated to match GeoVault demonstration corpus" }, "geometry": { "type": "Point", "coordinates": [ 82.649655, 22.283079 ] } },
{ "type": "Feature", "properties": { "Borehole_ID": "KUSMUNDA-BH-010", "Mine_ID": "M-KUSMUNDA", "Mine_Code": "KUSMUNDA", "Mine_Name": "Kusmunda OCP", "Interval_No": 2, "From_Depth_m": 17.57, "To_Depth_m": 35.14, "Thickness_m": 17.57, "Lithology": "Mudstone", "Stratigraphic_Unit": "Overburden", "Coal_Bearing": "NO", "Coal_Seam": "", "Weathering_Class": "Slight", "Sample_ID": "KUSMUNDA-010-S02", "Data_Type": "SYNTHETIC_DEMO", "Source_Provenance": "Synthetic borehole interval generated to match GeoVault demonstration corpus" }, "geometry": { "type": "Point", "coordinates": [ 82.649655, 22.283079 ] } },
{ "type": "Feature", "properties": { "Borehole_ID": "KUSMUNDA-BH-010", "Mine_ID": "M-KUSMUNDA", "Mine_Code": "KUSMUNDA", "Mine_Name": "Kusmunda OCP", "Interval_No": 3, "From_Depth_m": 35.14, "To_Depth_m": 52.71, "Thickness_m": 17.57, "Lithology": "Carbonaceous Shale", "Stratigraphic_Unit": "Underlying sedimentary sequence", "Coal_Bearing": "NO", "Coal_Seam": "", "Weathering_Class": "Fresh", "Sample_ID": "KUSMUNDA-010-S03", "Data_Type": "SYNTHETIC_DEMO", "Source_Provenance": "Synthetic borehole interval generated to match GeoVault demonstration corpus" }, "geometry": { "type": "Point", "coordinates": [ 82.649655, 22.283079 ] } },
{ "type": "Feature", "properties": { "Borehole_ID": "KUSMUNDA-BH-010", "Mine_ID": "M-KUSMUNDA", "Mine_Code": "KUSMUNDA", "Mine_Name": "Kusmunda OCP", "Interval_No": 4, "From_Depth_m": 52.71, "To_Depth_m": 70.28, "Thickness_m": 17.57, "Lithology": "Coal", "Stratigraphic_Unit": "Underlying sedimentary sequence", "Coal_Bearing": "YES", "Coal_Seam": "GV-KUS-S3", "Weathering_Class": "Fresh", "Sample_ID": "KUSMUNDA-010-S04", "Data_Type": "SYNTHETIC_DEMO", "Source_Provenance": "Synthetic borehole interval generated to match GeoVault demonstration corpus" }, "geometry": { "type": "Point", "coordinates": [ 82.649655, 22.283079 ] } },
{ "type": "Feature", "properties": { "Borehole_ID": "KUSMUNDA-BH-010", "Mine_ID": "M-KUSMUNDA", "Mine_Code": "KUSMUNDA", "Mine_Name": "Kusmunda OCP", "Interval_No": 5, "From_Depth_m": 70.28, "To_Depth_m": 87.85, "Thickness_m": 17.57, "Lithology": "Interbedded Sandstone-Shale", "Stratigraphic_Unit": "Overburden", "Coal_Bearing": "NO", "Coal_Seam": "", "Weathering_Class": "Fresh", "Sample_ID": "KUSMUNDA-010-S05", "Data_Type": "SYNTHETIC_DEMO", "Source_Provenance": "Synthetic borehole interval generated to match GeoVault demonstration corpus" }, "geometry": { "type": "Point", "coordinates": [ 82.649655, 22.283079 ] } },
{ "type": "Feature", "properties": { "Borehole_ID": "KUSMUNDA-BH-010", "Mine_ID": "M-KUSMUNDA", "Mine_Code": "KUSMUNDA", "Mine_Name": "Kusmunda OCP", "Interval_No": 6, "From_Depth_m": 87.85, "To_Depth_m": 105.42, "Thickness_m": 17.57, "Lithology": "Interbedded Sandstone-Shale", "Stratigraphic_Unit": "Underlying sedimentary sequence", "Coal_Bearing": "NO", "Coal_Seam": "", "Weathering_Class": "Fresh", "Sample_ID": "KUSMUNDA-010-S06", "Data_Type": "SYNTHETIC_DEMO", "Source_Provenance": "Synthetic borehole interval generated to match GeoVault demonstration corpus" }, "geometry": { "type": "Point", "coordinates": [ 82.649655, 22.283079 ] } },
{ "type": "Feature", "properties": { "Borehole_ID": "KUSMUNDA-BH-010", "Mine_ID": "M-KUSMUNDA", "Mine_Code": "KUSMUNDA", "Mine_Name": "Kusmunda OCP", "Interval_No": 7, "From_Depth_m": 105.42, "To_Depth_m": 122.99, "Thickness_m": 17.57, "Lithology": "Mudstone", "Stratigraphic_Unit": "Overburden", "Coal_Bearing": "NO", "Coal_Seam": "", "Weathering_Class": "Fresh", "Sample_ID": "KUSMUNDA-010-S07", "Data_Type": "SYNTHETIC_DEMO", "Source_Provenance": "Synthetic borehole interval generated to match GeoVault demonstration corpus" }, "geometry": { "type": "Point", "coordinates": [ 82.649655, 22.283079 ] } },
{ "type": "Feature", "properties": { "Borehole_ID": "KUSMUNDA-BH-010", "Mine_ID": "M-KUSMUNDA", "Mine_Code": "KUSMUNDA", "Mine_Name": "Kusmunda OCP", "Interval_No": 8, "From_Depth_m": 122.99, "To_Depth_m": 140.56, "Thickness_m": 17.57, "Lithology": "Siltstone", "Stratigraphic_Unit": "Coal-bearing sequence", "Coal_Bearing": "NO", "Coal_Seam": "", "Weathering_Class": "Fresh", "Sample_ID": "KUSMUNDA-010-S08", "Data_Type": "SYNTHETIC_DEMO", "Source_Provenance": "Synthetic borehole interval generated to match GeoVault demonstration corpus" }, "geometry": { "type": "Point", "coordinates": [ 82.649655, 22.283079 ] } },
{ "type": "Feature", "properties": { "Borehole_ID": "KUSMUNDA-BH-010", "Mine_ID": "M-KUSMUNDA", "Mine_Code": "KUSMUNDA", "Mine_Name": "Kusmunda OCP", "Interval_No": 9, "From_Depth_m": 140.56, "To_Depth_m": 158.13, "Thickness_m": 17.57, "Lithology": "Mudstone", "Stratigraphic_Unit": "Underlying sedimentary sequence", "Coal_Bearing": "NO", "Coal_Seam": "", "Weathering_Class": "Fresh", "Sample_ID": "KUSMUNDA-010-S09", "Data_Type": "SYNTHETIC_DEMO", "Source_Provenance": "Synthetic borehole interval generated to match GeoVault demonstration corpus" }, "geometry": { "type": "Point", "coordinates": [ 82.649655, 22.283079 ] } },
{ "type": "Feature", "properties": { "Borehole_ID": "KUSMUNDA-BH-010", "Mine_ID": "M-KUSMUNDA", "Mine_Code": "KUSMUNDA", "Mine_Name": "Kusmunda OCP", "Interval_No": 10, "From_Depth_m": 158.13, "To_Depth_m": 175.7, "Thickness_m": 17.57, "Lithology": "Interbedded Sandstone-Shale", "Stratigraphic_Unit": "Barakar-equivalent demo unit", "Coal_Bearing": "NO", "Coal_Seam": "", "Weathering_Class": "Fresh", "Sample_ID": "KUSMUNDA-010-S10", "Data_Type": "SYNTHETIC_DEMO", "Source_Provenance": "Synthetic borehole interval generated to match GeoVault demonstration corpus" }, "geometry": { "type": "Point", "coordinates": [ 82.649655, 22.283079 ] } },
{ "type": "Feature", "properties": { "Borehole_ID": "KUSMUNDA-BH-011", "Mine_ID": "M-KUSMUNDA", "Mine_Code": "KUSMUNDA", "Mine_Name": "Kusmunda OCP", "Interval_No": 1, "From_Depth_m": 0.0, "To_Depth_m": 16.0, "Thickness_m": 16.0, "Lithology": "Mudstone", "Stratigraphic_Unit": "Barakar-equivalent demo unit", "Coal_Bearing": "NO", "Coal_Seam": "", "Weathering_Class": "Moderate", "Sample_ID": "KUSMUNDA-011-S01", "Data_Type": "SYNTHETIC_DEMO", "Source_Provenance": "Synthetic borehole interval generated to match GeoVault demonstration corpus" }, "geometry": { "type": "Point", "coordinates": [ 82.686485, 22.283073 ] } },
{ "type": "Feature", "properties": { "Borehole_ID": "KUSMUNDA-BH-011", "Mine_ID": "M-KUSMUNDA", "Mine_Code": "KUSMUNDA", "Mine_Name": "Kusmunda OCP", "Interval_No": 2, "From_Depth_m": 16.0, "To_Depth_m": 32.0, "Thickness_m": 16.0, "Lithology": "Mudstone", "Stratigraphic_Unit": "Underlying sedimentary sequence", "Coal_Bearing": "NO", "Coal_Seam": "", "Weathering_Class": "Slight", "Sample_ID": "KUSMUNDA-011-S02", "Data_Type": "SYNTHETIC_DEMO", "Source_Provenance": "Synthetic borehole interval generated to match GeoVault demonstration corpus" }, "geometry": { "type": "Point", "coordinates": [ 82.686485, 22.283073 ] } },
{ "type": "Feature", "properties": { "Borehole_ID": "KUSMUNDA-BH-011", "Mine_ID": "M-KUSMUNDA", "Mine_Code": "KUSMUNDA", "Mine_Name": "Kusmunda OCP", "Interval_No": 3, "From_Depth_m": 32.0, "To_Depth_m": 48.0, "Thickness_m": 16.0, "Lithology": "Mudstone", "Stratigraphic_Unit": "Coal-bearing sequence", "Coal_Bearing": "NO", "Coal_Seam": "", "Weathering_Class": "Fresh", "Sample_ID": "KUSMUNDA-011-S03", "Data_Type": "SYNTHETIC_DEMO", "Source_Provenance": "Synthetic borehole interval generated to match GeoVault demonstration corpus" }, "geometry": { "type": "Point", "coordinates": [ 82.686485, 22.283073 ] } },
{ "type": "Feature", "properties": { "Borehole_ID": "KUSMUNDA-BH-011", "Mine_ID": "M-KUSMUNDA", "Mine_Code": "KUSMUNDA", "Mine_Name": "Kusmunda OCP", "Interval_No": 4, "From_Depth_m": 48.0, "To_Depth_m": 64.0, "Thickness_m": 16.0, "Lithology": "Mudstone", "Stratigraphic_Unit": "Barakar-equivalent demo unit", "Coal_Bearing": "NO", "Coal_Seam": "", "Weathering_Class": "Fresh", "Sample_ID": "KUSMUNDA-011-S04", "Data_Type": "SYNTHETIC_DEMO", "Source_Provenance": "Synthetic borehole interval generated to match GeoVault demonstration corpus" }, "geometry": { "type": "Point", "coordinates": [ 82.686485, 22.283073 ] } },
{ "type": "Feature", "properties": { "Borehole_ID": "KUSMUNDA-BH-011", "Mine_ID": "M-KUSMUNDA", "Mine_Code": "KUSMUNDA", "Mine_Name": "Kusmunda OCP", "Interval_No": 5, "From_Depth_m": 64.0, "To_Depth_m": 80.0, "Thickness_m": 16.0, "Lithology": "Mudstone", "Stratigraphic_Unit": "Barakar-equivalent demo unit", "Coal_Bearing": "NO", "Coal_Seam": "", "Weathering_Class": "Fresh", "Sample_ID": "KUSMUNDA-011-S05", "Data_Type": "SYNTHETIC_DEMO", "Source_Provenance": "Synthetic borehole interval generated to match GeoVault demonstration corpus" }, "geometry": { "type": "Point", "coordinates": [ 82.686485, 22.283073 ] } },
{ "type": "Feature", "properties": { "Borehole_ID": "KUSMUNDA-BH-011", "Mine_ID": "M-KUSMUNDA", "Mine_Code": "KUSMUNDA", "Mine_Name": "Kusmunda OCP", "Interval_No": 6, "From_Depth_m": 80.0, "To_Depth_m": 96.0, "Thickness_m": 16.0, "Lithology": "Interbedded Sandstone-Shale", "Stratigraphic_Unit": "Overburden", "Coal_Bearing": "NO", "Coal_Seam": "", "Weathering_Class": "Fresh", "Sample_ID": "KUSMUNDA-011-S06", "Data_Type": "SYNTHETIC_DEMO", "Source_Provenance": "Synthetic borehole interval generated to match GeoVault demonstration corpus" }, "geometry": { "type": "Point", "coordinates": [ 82.686485, 22.283073 ] } },
{ "type": "Feature", "properties": { "Borehole_ID": "KUSMUNDA-BH-011", "Mine_ID": "M-KUSMUNDA", "Mine_Code": "KUSMUNDA", "Mine_Name": "Kusmunda OCP", "Interval_No": 7, "From_Depth_m": 96.0, "To_Depth_m": 112.0, "Thickness_m": 16.0, "Lithology": "Carbonaceous Shale", "Stratigraphic_Unit": "Underlying sedimentary sequence", "Coal_Bearing": "NO", "Coal_Seam": "", "Weathering_Class": "Fresh", "Sample_ID": "KUSMUNDA-011-S07", "Data_Type": "SYNTHETIC_DEMO", "Source_Provenance": "Synthetic borehole interval generated to match GeoVault demonstration corpus" }, "geometry": { "type": "Point", "coordinates": [ 82.686485, 22.283073 ] } },
{ "type": "Feature", "properties": { "Borehole_ID": "KUSMUNDA-BH-011", "Mine_ID": "M-KUSMUNDA", "Mine_Code": "KUSMUNDA", "Mine_Name": "Kusmunda OCP", "Interval_No": 8, "From_Depth_m": 112.0, "To_Depth_m": 128.0, "Thickness_m": 16.0, "Lithology": "Coal", "Stratigraphic_Unit": "Overburden", "Coal_Bearing": "YES", "Coal_Seam": "GV-KUS-S1", "Weathering_Class": "Fresh", "Sample_ID": "KUSMUNDA-011-S08", "Data_Type": "SYNTHETIC_DEMO", "Source_Provenance": "Synthetic borehole interval generated to match GeoVault demonstration corpus" }, "geometry": { "type": "Point", "coordinates": [ 82.686485, 22.283073 ] } },
{ "type": "Feature", "properties": { "Borehole_ID": "KUSMUNDA-BH-011", "Mine_ID": "M-KUSMUNDA", "Mine_Code": "KUSMUNDA", "Mine_Name": "Kusmunda OCP", "Interval_No": 9, "From_Depth_m": 128.0, "To_Depth_m": 144.0, "Thickness_m": 16.0, "Lithology": "Sandstone", "Stratigraphic_Unit": "Underlying sedimentary sequence", "Coal_Bearing": "NO", "Coal_Seam": "", "Weathering_Class": "Fresh", "Sample_ID": "KUSMUNDA-011-S09", "Data_Type": "SYNTHETIC_DEMO", "Source_Provenance": "Synthetic borehole interval generated to match GeoVault demonstration corpus" }, "geometry": { "type": "Point", "coordinates": [ 82.686485, 22.283073 ] } },
{ "type": "Feature", "properties": { "Borehole_ID": "KUSMUNDA-BH-011", "Mine_ID": "M-KUSMUNDA", "Mine_Code": "KUSMUNDA", "Mine_Name": "Kusmunda OCP", "Interval_No": 10, "From_Depth_m": 144.0, "To_Depth_m": 160.0, "Thickness_m": 16.0, "Lithology": "Shale", "Stratigraphic_Unit": "Underlying sedimentary sequence", "Coal_Bearing": "NO", "Coal_Seam": "", "Weathering_Class": "Fresh", "Sample_ID": "KUSMUNDA-011-S10", "Data_Type": "SYNTHETIC_DEMO", "Source_Provenance": "Synthetic borehole interval generated to match GeoVault demonstration corpus" }, "geometry": { "type": "Point", "coordinates": [ 82.686485, 22.283073 ] } },
{ "type": "Feature", "properties": { "Borehole_ID": "KUSMUNDA-BH-012", "Mine_ID": "M-KUSMUNDA", "Mine_Code": "KUSMUNDA", "Mine_Name": "Kusmunda OCP", "Interval_No": 1, "From_Depth_m": 0.0, "To_Depth_m": 19.41, "Thickness_m": 19.41, "Lithology": "Shale", "Stratigraphic_Unit": "Overburden", "Coal_Bearing": "NO", "Coal_Seam": "", "Weathering_Class": "Moderate", "Sample_ID": "KUSMUNDA-012-S01", "Data_Type": "SYNTHETIC_DEMO", "Source_Provenance": "Synthetic borehole interval generated to match GeoVault demonstration corpus" }, "geometry": { "type": "Point", "coordinates": [ 82.703551, 22.324271 ] } },
{ "type": "Feature", "properties": { "Borehole_ID": "KUSMUNDA-BH-012", "Mine_ID": "M-KUSMUNDA", "Mine_Code": "KUSMUNDA", "Mine_Name": "Kusmunda OCP", "Interval_No": 2, "From_Depth_m": 19.41, "To_Depth_m": 38.82, "Thickness_m": 19.41, "Lithology": "Mudstone", "Stratigraphic_Unit": "Coal-bearing sequence", "Coal_Bearing": "NO", "Coal_Seam": "", "Weathering_Class": "Slight", "Sample_ID": "KUSMUNDA-012-S02", "Data_Type": "SYNTHETIC_DEMO", "Source_Provenance": "Synthetic borehole interval generated to match GeoVault demonstration corpus" }, "geometry": { "type": "Point", "coordinates": [ 82.703551, 22.324271 ] } },
{ "type": "Feature", "properties": { "Borehole_ID": "KUSMUNDA-BH-012", "Mine_ID": "M-KUSMUNDA", "Mine_Code": "KUSMUNDA", "Mine_Name": "Kusmunda OCP", "Interval_No": 3, "From_Depth_m": 38.82, "To_Depth_m": 58.23, "Thickness_m": 19.41, "Lithology": "Carbonaceous Shale", "Stratigraphic_Unit": "Underlying sedimentary sequence", "Coal_Bearing": "NO", "Coal_Seam": "", "Weathering_Class": "Fresh", "Sample_ID": "KUSMUNDA-012-S03", "Data_Type": "SYNTHETIC_DEMO", "Source_Provenance": "Synthetic borehole interval generated to match GeoVault demonstration corpus" }, "geometry": { "type": "Point", "coordinates": [ 82.703551, 22.324271 ] } },
{ "type": "Feature", "properties": { "Borehole_ID": "KUSMUNDA-BH-012", "Mine_ID": "M-KUSMUNDA", "Mine_Code": "KUSMUNDA", "Mine_Name": "Kusmunda OCP", "Interval_No": 4, "From_Depth_m": 58.23, "To_Depth_m": 77.64, "Thickness_m": 19.41, "Lithology": "Coal", "Stratigraphic_Unit": "Coal-bearing sequence", "Coal_Bearing": "YES", "Coal_Seam": "GV-KUS-S3", "Weathering_Class": "Fresh", "Sample_ID": "KUSMUNDA-012-S04", "Data_Type": "SYNTHETIC_DEMO", "Source_Provenance": "Synthetic borehole interval generated to match GeoVault demonstration corpus" }, "geometry": { "type": "Point", "coordinates": [ 82.703551, 22.324271 ] } },
{ "type": "Feature", "properties": { "Borehole_ID": "KUSMUNDA-BH-012", "Mine_ID": "M-KUSMUNDA", "Mine_Code": "KUSMUNDA", "Mine_Name": "Kusmunda OCP", "Interval_No": 5, "From_Depth_m": 77.64, "To_Depth_m": 97.05, "Thickness_m": 19.41, "Lithology": "Siltstone", "Stratigraphic_Unit": "Underlying sedimentary sequence", "Coal_Bearing": "NO", "Coal_Seam": "", "Weathering_Class": "Fresh", "Sample_ID": "KUSMUNDA-012-S05", "Data_Type": "SYNTHETIC_DEMO", "Source_Provenance": "Synthetic borehole interval generated to match GeoVault demonstration corpus" }, "geometry": { "type": "Point", "coordinates": [ 82.703551, 22.324271 ] } },
{ "type": "Feature", "properties": { "Borehole_ID": "KUSMUNDA-BH-012", "Mine_ID": "M-KUSMUNDA", "Mine_Code": "KUSMUNDA", "Mine_Name": "Kusmunda OCP", "Interval_No": 6, "From_Depth_m": 97.05, "To_Depth_m": 116.46, "Thickness_m": 19.41, "Lithology": "Siltstone", "Stratigraphic_Unit": "Underlying sedimentary sequence", "Coal_Bearing": "NO", "Coal_Seam": "", "Weathering_Class": "Fresh", "Sample_ID": "KUSMUNDA-012-S06", "Data_Type": "SYNTHETIC_DEMO", "Source_Provenance": "Synthetic borehole interval generated to match GeoVault demonstration corpus" }, "geometry": { "type": "Point", "coordinates": [ 82.703551, 22.324271 ] } },
{ "type": "Feature", "properties": { "Borehole_ID": "KUSMUNDA-BH-012", "Mine_ID": "M-KUSMUNDA", "Mine_Code": "KUSMUNDA", "Mine_Name": "Kusmunda OCP", "Interval_No": 7, "From_Depth_m": 116.46, "To_Depth_m": 135.87, "Thickness_m": 19.41, "Lithology": "Siltstone", "Stratigraphic_Unit": "Overburden", "Coal_Bearing": "NO", "Coal_Seam": "", "Weathering_Class": "Fresh", "Sample_ID": "KUSMUNDA-012-S07", "Data_Type": "SYNTHETIC_DEMO", "Source_Provenance": "Synthetic borehole interval generated to match GeoVault demonstration corpus" }, "geometry": { "type": "Point", "coordinates": [ 82.703551, 22.324271 ] } },
{ "type": "Feature", "properties": { "Borehole_ID": "KUSMUNDA-BH-012", "Mine_ID": "M-KUSMUNDA", "Mine_Code": "KUSMUNDA", "Mine_Name": "Kusmunda OCP", "Interval_No": 8, "From_Depth_m": 135.87, "To_Depth_m": 155.28, "Thickness_m": 19.41, "Lithology": "Mudstone", "Stratigraphic_Unit": "Overburden", "Coal_Bearing": "NO", "Coal_Seam": "", "Weathering_Class": "Fresh", "Sample_ID": "KUSMUNDA-012-S08", "Data_Type": "SYNTHETIC_DEMO", "Source_Provenance": "Synthetic borehole interval generated to match GeoVault demonstration corpus" }, "geometry": { "type": "Point", "coordinates": [ 82.703551, 22.324271 ] } },
{ "type": "Feature", "properties": { "Borehole_ID": "KUSMUNDA-BH-012", "Mine_ID": "M-KUSMUNDA", "Mine_Code": "KUSMUNDA", "Mine_Name": "Kusmunda OCP", "Interval_No": 9, "From_Depth_m": 155.28, "To_Depth_m": 174.69, "Thickness_m": 19.41, "Lithology": "Interbedded Sandstone-Shale", "Stratigraphic_Unit": "Overburden", "Coal_Bearing": "NO", "Coal_Seam": "", "Weathering_Class": "Fresh", "Sample_ID": "KUSMUNDA-012-S09", "Data_Type": "SYNTHETIC_DEMO", "Source_Provenance": "Synthetic borehole interval generated to match GeoVault demonstration corpus" }, "geometry": { "type": "Point", "coordinates": [ 82.703551, 22.324271 ] } },
{ "type": "Feature", "properties": { "Borehole_ID": "KUSMUNDA-BH-012", "Mine_ID": "M-KUSMUNDA", "Mine_Code": "KUSMUNDA", "Mine_Name": "Kusmunda OCP", "Interval_No": 10, "From_Depth_m": 174.69, "To_Depth_m": 194.1, "Thickness_m": 19.41, "Lithology": "Siltstone", "Stratigraphic_Unit": "Barakar-equivalent demo unit", "Coal_Bearing": "NO", "Coal_Seam": "", "Weathering_Class": "Fresh", "Sample_ID": "KUSMUNDA-012-S10", "Data_Type": "SYNTHETIC_DEMO", "Source_Provenance": "Synthetic borehole interval generated to match GeoVault demonstration corpus" }, "geometry": { "type": "Point", "coordinates": [ 82.703551, 22.324271 ] } }
]
}
