{
"type": "FeatureCollection",
"name": "borehole_traces",
"crs": { "type": "name", "properties": { "name": "urn:ogc:def:crs:OGC:1.3:CRS84" } },
"features": [
{ "type": "Feature", "properties": { "Trace_ID": "KUSMUNDA-BH-001-TRACE", "Borehole_ID": "KUSMUNDA-BH-001", "Mine_ID": "M-KUSMUNDA", "Mine_Code": "KUSMUNDA", "Azimuth_deg": 167.4, "Inclination_deg": 86.5, "Total_Depth_m": 220.4, "Data_Type": "SYNTHETIC_DEMO", "Source_Provenance": "Synthetic borehole trace; 2D plan-view representation" }, "geometry": { "type": "LineString", "coordinates": [ [ 82.688577, 22.291377 ], [ 82.682523487685373, 22.29273516223504 ] ] } },
{ "type": "Feature", "properties": { "Trace_ID": "KUSMUNDA-BH-002-TRACE", "Borehole_ID": "KUSMUNDA-BH-002", "Mine_ID": "M-KUSMUNDA", "Mine_Code": "KUSMUNDA", "Azimuth_deg": 213.3, "Inclination_deg": 76.4, "Total_Depth_m": 229.4, "Data_Type": "SYNTHETIC_DEMO", "Source_Provenance": "Synthetic borehole trace; 2D plan-view representation" }, "geometry": { "type": "LineString", "coordinates": [ [ 82.691527, 22.315057 ], [ 82.686265877467136, 22.311602289347242 ] ] } },
{ "type": "Feature", "properties": { "Trace_ID": "KUSMUNDA-BH-003-TRACE", "Borehole_ID": "KUSMUNDA-BH-003", "Mine_ID": "M-KUSMUNDA", "Mine_Code": "KUSMUNDA", "Azimuth_deg": 88.4, "Inclination_deg": 88.7, "Total_Depth_m": 228.5, "Data_Type": "SYNTHETIC_DEMO", "Source_Provenance": "Synthetic borehole trace; 2D plan-view representation" }, "geometry": { "type": "LineString", "coordinates": [ [ 82.673884, 22.290465 ], [ 82.674061871207442, 22.296747482537466 ] ] } },
{ "type": "Feature", "properties": { "Trace_ID": "KUSMUNDA-BH-004-TRACE", "Borehole_ID": "KUSMUNDA-BH-004", "Mine_ID": "M-KUSMUNDA", "Mine_Code": "KUSMUNDA", "Azimuth_deg": 100.4, "Inclination_deg": 79.0, "Total_Depth_m": 223.1, "Data_Type": "SYNTHETIC_DEMO", "Source_Provenance": "Synthetic borehole trace; 2D plan-view representation" }, "geometry": { "type": "LineString", "coordinates": [ [ 82.680375, 22.311226 ], [ 82.679248669579678, 22.317354355471437 ] ] } },
{ "type": "Feature", "properties": { "Trace_ID": "KUSMUNDA-BH-005-TRACE", "Borehole_ID": "KUSMUNDA-BH-005", "Mine_ID": "M-KUSMUNDA", "Mine_Code": "KUSMUNDA", "Azimuth_deg": 270.2, "Inclination_deg": 81.4, "Total_Depth_m": 144.8, "Data_Type": "SYNTHETIC_DEMO", "Source_Provenance": "Synthetic borehole trace; 2D plan-view representation" }, "geometry": { "type": "LineString", "coordinates": [ [ 82.664971, 22.300834 ], [ 82.664987303480558, 22.295386024394645 ] ] } },
{ "type": "Feature", "properties": { "Trace_ID": "KUSMUNDA-BH-006-TRACE", "Borehole_ID": "KUSMUNDA-BH-006", "Mine_ID": "M-KUSMUNDA", "Mine_Code": "KUSMUNDA", "Azimuth_deg": 240.5, "Inclination_deg": 76.7, "Total_Depth_m": 215.9, "Data_Type": "SYNTHETIC_DEMO", "Source_Provenance": "Synthetic borehole trace; 2D plan-view representation" }, "geometry": { "type": "LineString", "coordinates": [ [ 82.705069, 22.307746 ], [ 82.702040641076096, 22.302382948328791 ] ] } },
{ "type": "Feature", "properties": { "Trace_ID": "KUSMUNDA-BH-007-TRACE", "Borehole_ID": "KUSMUNDA-BH-007", "Mine_ID": "M-KUSMUNDA", "Mine_Code": "KUSMUNDA", "Azimuth_deg": 178.0, "Inclination_deg": 76.5, "Total_Depth_m": 157.7, "Data_Type": "SYNTHETIC_DEMO", "Source_Provenance": "Synthetic borehole trace; 2D plan-view representation" }, "geometry": { "type": "LineString", "coordinates": [ [ 82.668951, 22.28426 ], [ 82.663377568142323, 22.284459465104213 ] ] } },
{ "type": "Feature", "properties": { "Trace_ID": "KUSMUNDA-BH-008-TRACE", "Borehole_ID": "KUSMUNDA-BH-008", "Mine_ID": "M-KUSMUNDA", "Mine_Code": "KUSMUNDA", "Azimuth_deg": 175.5, "Inclination_deg": 77.1, "Total_Depth_m": 108.2, "Data_Type": "SYNTHETIC_DEMO", "Source_Provenance": "Synthetic borehole trace; 2D plan-view representation" }, "geometry": { "type": "LineString", "coordinates": [ [ 82.669966, 22.291816 ], [ 82.664899541264248, 22.292213139621328 ] ] } },
{ "type": "Feature", "properties": { "Trace_ID": "KUSMUNDA-BH-009-TRACE", "Borehole_ID": "KUSMUNDA-BH-009", "Mine_ID": "M-KUSMUNDA", "Mine_Code": "KUSMUNDA", "Azimuth_deg": 93.0, "Inclination_deg": 75.6, "Total_Depth_m": 119.5, "Data_Type": "SYNTHETIC_DEMO", "Source_Provenance": "Synthetic borehole trace; 2D plan-view representation" }, "geometry": { "type": "LineString", "coordinates": [ [ 82.671011, 22.315098 ], [ 82.670738492915547, 22.320285847808957 ] ] } },
{ "type": "Feature", "properties": { "Trace_ID": "KUSMUNDA-BH-010-TRACE", "Borehole_ID": "KUSMUNDA-BH-010", "Mine_ID": "M-KUSMUNDA", "Mine_Code": "KUSMUNDA", "Azimuth_deg": 214.6, "Inclination_deg": 87.6, "Total_Depth_m": 175.7, "Data_Type": "SYNTHETIC_DEMO", "Source_Provenance": "Synthetic borehole trace; 2D plan-view representation" }, "geometry": { "type": "LineString", "coordinates": [ [ 82.649655, 22.283079 ], [ 82.644917105756747, 22.279808616667768 ] ] } },
{ "type": "Feature", "properties": { "Trace_ID": "KUSMUNDA-BH-011-TRACE", "Borehole_ID": "KUSMUNDA-BH-011", "Mine_ID": "M-KUSMUNDA", "Mine_Code": "KUSMUNDA", "Azimuth_deg": 200.1, "Inclination_deg": 80.3, "Total_Depth_m": 160.0, "Data_Type": "SYNTHETIC_DEMO", "Source_Provenance": "Synthetic borehole trace; 2D plan-view representation" }, "geometry": { "type": "LineString", "coordinates": [ [ 82.686485, 22.283073 ], [ 82.681225560818945, 22.281149903668378 ] ] } },
{ "type": "Feature", "properties": { "Trace_ID": "KUSMUNDA-BH-012-TRACE", "Borehole_ID": "KUSMUNDA-BH-012", "Mine_ID": "M-KUSMUNDA", "Mine_Code": "KUSMUNDA", "Azimuth_deg": 68.8, "Inclination_deg": 74.8, "Total_Depth_m": 194.1, "Data_Type": "SYNTHETIC_DEMO", "Source_Provenance": "Synthetic borehole trace; 2D plan-view representation" }, "geometry": { "type": "LineString", "coordinates": [ [ 82.703551, 22.324271 ], [ 82.705701314690018, 22.329809197155566 ] ] } }
]
}
