{
"type": "FeatureCollection",
"name": "coal_seam_belts",
"crs": { "type": "name", "properties": { "name": "urn:ogc:def:crs:OGC:1.3:CRS84" } },
"features": [
{ "type": "Feature", "properties": { "Seam_ID": "GV-KUS-S1", "Mine_ID": "M-KUSMUNDA", "Mine_Code": "KUSMUNDA", "Feature_Type": "SYNTHETIC_SEAM_BELT", "Width_m": 100, "Data_Type": "SYNTHETIC_DEMO", "Source_Provenance": "Buffered demonstration representation of seam trace" }, "geometry": { "type": "Polygon", "coordinates": [ [ [ 82.665041476246074, 22.298108305032212 ], [ 82.665146277547407, 22.298129339759715 ], [ 82.66525272534885, 22.298139067970727 ], [ 82.665359603402052, 22.298137378512923 ], [ 82.684642300066926, 22.296799386030941 ], [ 82.70198554881793, 22.300365067793361 ], [ 82.702082527558304, 22.300380090129135 ], [ 82.702180511765917, 22.300385534549452 ], [ 82.702278557799303, 22.300381348621571 ], [ 82.702375721421561, 22.300367572658264 ], [ 82.702471066893892, 22.300344339329587 ], [ 82.702563675987278, 22.300311872385194 ], [ 82.702652656825521, 22.300270484499514 ], [ 82.702737152474512, 22.300220574260504 ], [ 82.702816349194961, 22.300162622331055 ], [ 82.70288948427914, 22.300097186819926 ], [ 82.702955853396233, 22.300024897906855 ], [ 82.703014817375333, 22.2999464517736 ], [ 82.703065808361117, 22.2998626038993 ], [ 82.703108335282508, 22.299774161784825 ], [ 82.703141988582004, 22.299681977176082 ], [ 82.703166444159933, 22.29958693786125 ], [ 82.703181466495707, 22.299489959120883 ], [ 82.703186910916017, 22.299391974913263 ], [ 82.703182724988139, 22.299293928879873 ], [ 82.703168949024828, 22.299196765257612 ], [ 82.703145715696152, 22.299101419785281 ], [ 82.703113248751762, 22.299008810691898 ], [ 82.703071860866075, 22.298919829853652 ], [ 82.703021950627075, 22.298835334204668 ], [ 82.702963998697626, 22.298756137484226 ], [ 82.702898563186494, 22.29868300240004 ], [ 82.70282627427342, 22.298616633282954 ], [ 82.702747828140161, 22.298557669303843 ], [ 82.702663980265868, 22.298506678318059 ], [ 82.702575538151393, 22.298464151396669 ], [ 82.702483353542647, 22.298430498097176 ], [ 82.702388314227818, 22.29840604251925 ], [ 82.684911001105974, 22.294812797819286 ], [ 82.684821471006657, 22.294798585648049 ], [ 82.684731021744611, 22.294792539534139 ], [ 82.684640396597942, 22.294794709162247 ], [ 82.665382575473657, 22.296130975574123 ], [ 82.648061973830011, 22.29167969353049 ], [ 82.647965842956111, 22.291659960265733 ], [ 82.647868240780454, 22.291649744495398 ], [ 82.647770107265359, 22.291649144602935 ], [ 82.647672387490232, 22.291658166365639 ], [ 82.647576022549899, 22.291676722899005 ], [ 82.647481940491431, 22.291704635493467 ], [ 82.647391047376473, 22.291741635335487 ], [ 82.647304218555419, 22.291787366096358 ], [ 82.647222290237266, 22.291841387363853 ], [ 82.647146051436536, 22.291903178883633 ], [ 82.647076236374517, 22.291972145569591 ], [ 82.647013517408453, 22.292047623234833 ], [ 82.646958498556245, 22.292128884988188 ], [ 82.646911709679543, 22.292215148234547 ], [ 82.64687360138079, 22.292305582211689 ], [ 82.646844540663736, 22.292399315990977 ], [ 82.646824807398986, 22.292495446864883 ], [ 82.64681459162864, 22.292593049040537 ], [ 82.646813991736181, 22.292691182555629 ], [ 82.646823013498889, 22.29278890233077 ], [ 82.646841570032251, 22.2928852672711 ], [ 82.646869482626713, 22.29297934932957 ], [ 82.646906482468736, 22.293070242444525 ], [ 82.646952213229596, 22.293157071265579 ], [ 82.647006234497098, 22.293238999583725 ], [ 82.647068026016882, 22.293315238384466 ], [ 82.647136992702841, 22.293385053446478 ], [ 82.647212470368075, 22.293447772412549 ], [ 82.64729373212144, 22.29350279126475 ], [ 82.647379995367785, 22.293549580141455 ], [ 82.647470429344935, 22.293587688440208 ], [ 82.64756416312423, 22.293616749157259 ], [ 82.665041476246074, 22.298108305032212 ] ] ] } },
{ "type": "Feature", "properties": { "Seam_ID": "GV-KUS-S2", "Mine_ID": "M-KUSMUNDA", "Mine_Code": "KUSMUNDA", "Feature_Type": "SYNTHETIC_SEAM_BELT", "Width_m": 100, "Data_Type": "SYNTHETIC_DEMO", "Source_Provenance": "Buffered demonstration representation of seam trace" }, "geometry": { "type": "Polygon", "coordinates": [ [ [ 82.665041476246074, 22.303947327669654 ], [ 82.665146277547407, 22.303968362397157 ], [ 82.66525272534885, 22.303978090608169 ], [ 82.665359603402052, 22.303976401150365 ], [ 82.684642300066926, 22.302638408668383 ], [ 82.70198554881793, 22.306204090430803 ], [ 82.702082527558304, 22.306219112766577 ], [ 82.702180511765917, 22.306224557186894 ], [ 82.702278557799303, 22.306220371259013 ], [ 82.702375721421561, 22.306206595295706 ], [ 82.702471066893892, 22.30618336196703 ], [ 82.702563675987278, 22.306150895022636 ], [ 82.702652656825521, 22.306109507136956 ], [ 82.702737152474512, 22.306059596897946 ], [ 82.702816349194961, 22.306001644968497 ], [ 82.70288948427914, 22.305936209457368 ], [ 82.702955853396233, 22.305863920544297 ], [ 82.703014817375333, 22.305785474411042 ], [ 82.703065808361117, 22.305701626536742 ], [ 82.703108335282508, 22.305613184422267 ], [ 82.703141988582004, 22.305520999813524 ], [ 82.703166444159933, 22.305425960498692 ], [ 82.703181466495707, 22.305328981758326 ], [ 82.703186910916017, 22.305230997550705 ], [ 82.703182724988139, 22.305132951517315 ], [ 82.703168949024828, 22.305035787895054 ], [ 82.703145715696152, 22.304940442422723 ], [ 82.703113248751762, 22.30484783332934 ], [ 82.703071860866075, 22.304758852491094 ], [ 82.703021950627075, 22.30467435684211 ], [ 82.702963998697626, 22.304595160121668 ], [ 82.702898563186494, 22.304522025037482 ], [ 82.70282627427342, 22.304455655920396 ], [ 82.702747828140161, 22.304396691941285 ], [ 82.702663980265868, 22.304345700955501 ], [ 82.702575538151393, 22.304303174034111 ], [ 82.702483353542647, 22.304269520734618 ], [ 82.702388314227818, 22.304245065156692 ], [ 82.684911001105974, 22.300651820456729 ], [ 82.684821471006657, 22.300637608285491 ], [ 82.684731021744611, 22.300631562171581 ], [ 82.684640396597942, 22.300633731799689 ], [ 82.665382575473657, 22.301969998211565 ], [ 82.648061973830011, 22.297518716167929 ], [ 82.647965842956111, 22.297498982903171 ], [ 82.647868240780454, 22.297488767132837 ], [ 82.647770107265359, 22.297488167240374 ], [ 82.647672387490232, 22.297497189003078 ], [ 82.647576022549899, 22.297515745536444 ], [ 82.647481940491431, 22.297543658130905 ], [ 82.647391047376473, 22.297580657972926 ], [ 82.647304218555419, 22.297626388733793 ], [ 82.647222290237266, 22.297680410001291 ], [ 82.647146051436536, 22.297742201521071 ], [ 82.647076236374517, 22.29781116820703 ], [ 82.647013517408453, 22.297886645872271 ], [ 82.646958498556245, 22.297967907625626 ], [ 82.646911709679543, 22.298054170871985 ], [ 82.64687360138079, 22.298144604849128 ], [ 82.646844540663736, 22.298238338628416 ], [ 82.646824807398986, 22.298334469502322 ], [ 82.64681459162864, 22.298432071677976 ], [ 82.646813991736181, 22.298530205193067 ], [ 82.646823013498889, 22.298627924968208 ], [ 82.646841570032251, 22.298724289908538 ], [ 82.646869482626713, 22.298818371967009 ], [ 82.646906482468736, 22.298909265081964 ], [ 82.646952213229596, 22.298996093903018 ], [ 82.647006234497098, 22.299078022221163 ], [ 82.647068026016882, 22.299154261021904 ], [ 82.647136992702841, 22.299224076083917 ], [ 82.647212470368075, 22.299286795049987 ], [ 82.64729373212144, 22.299341813902188 ], [ 82.647379995367785, 22.299388602778894 ], [ 82.647470429344935, 22.299426711077647 ], [ 82.64756416312423, 22.299455771794698 ], [ 82.665041476246074, 22.303947327669654 ] ] ] } },
{ "type": "Feature", "properties": { "Seam_ID": "GV-KUS-S3", "Mine_ID": "M-KUSMUNDA", "Mine_Code": "KUSMUNDA", "Feature_Type": "SYNTHETIC_SEAM_BELT", "Width_m": 100, "Data_Type": "SYNTHETIC_DEMO", "Source_Provenance": "Buffered demonstration representation of seam trace" }, "geometry": { "type": "Polygon", "coordinates": [ [ [ 82.665041476246074, 22.309786350307096 ], [ 82.665146277547407, 22.309807385034599 ], [ 82.66525272534885, 22.309817113245611 ], [ 82.665359603402052, 22.309815423787807 ], [ 82.684642300066926, 22.308477431305825 ], [ 82.70198554881793, 22.312043113068246 ], [ 82.702082527558304, 22.312058135404019 ], [ 82.702180511765917, 22.312063579824336 ], [ 82.702278557799303, 22.312059393896455 ], [ 82.702375721421561, 22.312045617933148 ], [ 82.702471066893892, 22.312022384604472 ], [ 82.702563675987278, 22.311989917660078 ], [ 82.702652656825521, 22.311948529774398 ], [ 82.702737152474512, 22.311898619535388 ], [ 82.702816349194961, 22.311840667605939 ], [ 82.70288948427914, 22.31177523209481 ], [ 82.702955853396233, 22.311702943181739 ], [ 82.703014817375333, 22.311624497048484 ], [ 82.703065808361117, 22.311540649174184 ], [ 82.703108335282508, 22.311452207059709 ], [ 82.703141988582004, 22.311360022450966 ], [ 82.703166444159933, 22.311264983136134 ], [ 82.703181466495707, 22.311168004395768 ], [ 82.703186910916017, 22.311070020188147 ], [ 82.703182724988139, 22.310971974154757 ], [ 82.703168949024828, 22.310874810532496 ], [ 82.703145715696152, 22.310779465060165 ], [ 82.703113248751762, 22.310686855966782 ], [ 82.703071860866075, 22.310597875128536 ], [ 82.703021950627075, 22.310513379479552 ], [ 82.702963998697626, 22.31043418275911 ], [ 82.702898563186494, 22.310361047674924 ], [ 82.70282627427342, 22.310294678557838 ], [ 82.702747828140161, 22.310235714578727 ], [ 82.702663980265868, 22.310184723592943 ], [ 82.702575538151393, 22.310142196671553 ], [ 82.702483353542647, 22.31010854337206 ], [ 82.702388314227818, 22.310084087794134 ], [ 82.684911001105974, 22.306490843094171 ], [ 82.684821471006657, 22.306476630922933 ], [ 82.684731021744611, 22.306470584809023 ], [ 82.684640396597942, 22.306472754437131 ], [ 82.665382575473657, 22.307809020849007 ], [ 82.648061973830011, 22.303357738805371 ], [ 82.647965842956111, 22.303338005540613 ], [ 82.647868240780454, 22.303327789770279 ], [ 82.647770107265359, 22.303327189877816 ], [ 82.647672387490232, 22.30333621164052 ], [ 82.647576022549899, 22.303354768173886 ], [ 82.647481940491431, 22.303382680768348 ], [ 82.647391047376473, 22.303419680610368 ], [ 82.647304218555419, 22.303465411371235 ], [ 82.647222290237266, 22.303519432638733 ], [ 82.647146051436536, 22.303581224158513 ], [ 82.647076236374517, 22.303650190844472 ], [ 82.647013517408453, 22.303725668509713 ], [ 82.646958498556245, 22.303806930263068 ], [ 82.646911709679543, 22.303893193509428 ], [ 82.64687360138079, 22.30398362748657 ], [ 82.646844540663736, 22.304077361265858 ], [ 82.646824807398986, 22.304173492139764 ], [ 82.64681459162864, 22.304271094315418 ], [ 82.646813991736181, 22.304369227830509 ], [ 82.646823013498889, 22.304466947605651 ], [ 82.646841570032251, 22.30456331254598 ], [ 82.646869482626713, 22.304657394604451 ], [ 82.646906482468736, 22.304748287719406 ], [ 82.646952213229596, 22.30483511654046 ], [ 82.647006234497098, 22.304917044858605 ], [ 82.647068026016882, 22.304993283659346 ], [ 82.647136992702841, 22.305063098721359 ], [ 82.647212470368075, 22.305125817687429 ], [ 82.64729373212144, 22.30518083653963 ], [ 82.647379995367785, 22.305227625416336 ], [ 82.647470429344935, 22.305265733715089 ], [ 82.64756416312423, 22.30529479443214 ], [ 82.665041476246074, 22.309786350307096 ] ] ] } },
{ "type": "Feature", "properties": { "Seam_ID": "GV-KUS-S4", "Mine_ID": "M-KUSMUNDA", "Mine_Code": "KUSMUNDA", "Feature_Type": "SYNTHETIC_SEAM_BELT", "Width_m": 100, "Data_Type": "SYNTHETIC_DEMO", "Source_Provenance": "Buffered demonstration representation of seam trace" }, "geometry": { "type": "Polygon", "coordinates": [ [ [ 82.665041476246074, 22.315625372944538 ], [ 82.665146277547407, 22.315646407672041 ], [ 82.66525272534885, 22.315656135883053 ], [ 82.665359603402052, 22.315654446425249 ], [ 82.684642300066926, 22.314316453943267 ], [ 82.70198554881793, 22.317882135705688 ], [ 82.702082527558304, 22.317897158041461 ], [ 82.702180511765917, 22.317902602461778 ], [ 82.702278557799303, 22.317898416533897 ], [ 82.702375721421561, 22.31788464057059 ], [ 82.702471066893892, 22.317861407241914 ], [ 82.702563675987278, 22.31782894029752 ], [ 82.702652656825521, 22.31778755241184 ], [ 82.702737152474512, 22.31773764217283 ], [ 82.702816349194961, 22.317679690243381 ], [ 82.70288948427914, 22.317614254732252 ], [ 82.702955853396233, 22.317541965819181 ], [ 82.703014817375333, 22.317463519685926 ], [ 82.703065808361117, 22.317379671811626 ], [ 82.703108335282508, 22.317291229697151 ], [ 82.703141988582004, 22.317199045088408 ], [ 82.703166444159933, 22.317104005773576 ], [ 82.703181466495707, 22.31700702703321 ], [ 82.703186910916017, 22.316909042825589 ], [ 82.703182724988139, 22.316810996792199 ], [ 82.703168949024828, 22.316713833169938 ], [ 82.703145715696152, 22.316618487697607 ], [ 82.703113248751762, 22.316525878604224 ], [ 82.703071860866075, 22.316436897765978 ], [ 82.703021950627075, 22.316352402116994 ], [ 82.702963998697626, 22.316273205396552 ], [ 82.702898563186494, 22.316200070312366 ], [ 82.70282627427342, 22.31613370119528 ], [ 82.702747828140161, 22.316074737216169 ], [ 82.702663980265868, 22.316023746230385 ], [ 82.702575538151393, 22.315981219308995 ], [ 82.702483353542647, 22.315947566009502 ], [ 82.702388314227818, 22.315923110431577 ], [ 82.684911001105974, 22.312329865731613 ], [ 82.684821471006657, 22.312315653560375 ], [ 82.684731021744611, 22.312309607446466 ], [ 82.684640396597942, 22.312311777074573 ], [ 82.665382575473657, 22.313648043486449 ], [ 82.648061973830011, 22.309196761442813 ], [ 82.647965842956111, 22.309177028178055 ], [ 82.647868240780454, 22.309166812407721 ], [ 82.647770107265359, 22.309166212515258 ], [ 82.647672387490232, 22.309175234277962 ], [ 82.647576022549899, 22.309193790811328 ], [ 82.647481940491431, 22.30922170340579 ], [ 82.647391047376473, 22.30925870324781 ], [ 82.647304218555419, 22.309304434008677 ], [ 82.647222290237266, 22.309358455276175 ], [ 82.647146051436536, 22.309420246795955 ], [ 82.647076236374517, 22.309489213481914 ], [ 82.647013517408453, 22.309564691147155 ], [ 82.646958498556245, 22.30964595290051 ], [ 82.646911709679543, 22.30973221614687 ], [ 82.64687360138079, 22.309822650124012 ], [ 82.646844540663736, 22.3099163839033 ], [ 82.646824807398986, 22.310012514777206 ], [ 82.64681459162864, 22.31011011695286 ], [ 82.646813991736181, 22.310208250467952 ], [ 82.646823013498889, 22.310305970243093 ], [ 82.646841570032251, 22.310402335183422 ], [ 82.646869482626713, 22.310496417241893 ], [ 82.646906482468736, 22.310587310356848 ], [ 82.646952213229596, 22.310674139177902 ], [ 82.647006234497098, 22.310756067496047 ], [ 82.647068026016882, 22.310832306296788 ], [ 82.647136992702841, 22.310902121358801 ], [ 82.647212470368075, 22.310964840324871 ], [ 82.64729373212144, 22.311019859177073 ], [ 82.647379995367785, 22.311066648053778 ], [ 82.647470429344935, 22.311104756352531 ], [ 82.64756416312423, 22.311133817069582 ], [ 82.665041476246074, 22.315625372944538 ] ] ] } }
]
}
