{
"type": "FeatureCollection",
"name": "geological_events_spatial",
"crs": { "type": "name", "properties": { "name": "urn:ogc:def:crs:OGC:1.3:CRS84" } },
"features": [
{ "type": "Feature", "properties": { "Event_ID": "EV-KUSMUNDA-GEO-01", "Mine_ID": "M-KUSMUNDA", "Mine_Code": "KUSMUNDA", "Financial_Year": "FY 2023-24", "Event_Type": "Geotechnical", "Severity": "Moderate", "Area": "Central working block", "Description": "Localized synthetic bench movement triggered additional inspection and monitoring.", "Action": "Increase inspection frequency; review haulage alignment.", "Data_Type": "SYNTHETIC_DEMO", "Source_Provenance": "Synthetic event location linked to geological event record" }, "geometry": { "type": "Point", "coordinates": [ 82.64833920936141, 22.322115701764908 ] } },
{ "type": "Feature", "properties": { "Event_ID": "EV-KUSMUNDA-WAT-01", "Mine_ID": "M-KUSMUNDA", "Mine_Code": "KUSMUNDA", "Financial_Year": "FY 2021-22", "Event_Type": "Hydrology", "Severity": "Moderate", "Area": "Pit floor / drainage", "Description": "Synthetic monsoon water accumulation affected selected working areas.", "Action": "Temporary pumping and drainage-channel maintenance.", "Data_Type": "SYNTHETIC_DEMO", "Source_Provenance": "Synthetic event location linked to geological event record" }, "geometry": { "type": "Point", "coordinates": [ 82.648098128672473, 22.280912124071417 ] } }
]
}
