{
"type": "FeatureCollection",
"name": "geological_units",
"crs": { "type": "name", "properties": { "name": "urn:ogc:def:crs:OGC:1.3:CRS84" } },
"features": [
{ "type": "Feature", "properties": { "Geology_Unit_ID": "KUSMUNDA-GU-01", "Mine_ID": "M-KUSMUNDA", "Mine_Code": "KUSMUNDA", "Unit_Name": "Sandstone", "Unit_Type": "LITHOLOGY", "Age": "SYNTHETIC", "Description": "Synthetic sandstone unit for demonstration spatial queries", "Relative_Order": 1, "Data_Type": "SYNTHETIC_DEMO", "Source_Provenance": "Synthetic geometry; not an official geological map" }, "geometry": { "type": "Polygon", "coordinates": [ [ [ 82.61, 22.28 ], [ 82.64, 22.275 ], [ 82.67, 22.33 ], [ 82.64, 22.335 ], [ 82.61, 22.28 ] ] ] } },
{ "type": "Feature", "properties": { "Geology_Unit_ID": "KUSMUNDA-GU-02", "Mine_ID": "M-KUSMUNDA", "Mine_Code": "KUSMUNDA", "Unit_Name": "Shale", "Unit_Type": "LITHOLOGY", "Age": "SYNTHETIC", "Description": "Synthetic shale unit for demonstration spatial queries", "Relative_Order": 2, "Data_Type": "SYNTHETIC_DEMO", "Source_Provenance": "Synthetic geometry; not an official geological map" }, "geometry": { "type": "Polygon", "coordinates": [ [ [ 82.622, 22.28 ], [ 82.652, 22.275 ], [ 82.682, 22.33 ], [ 82.652, 22.335 ], [ 82.622, 22.28 ] ] ] } },
{ "type": "Feature", "properties": { "Geology_Unit_ID": "KUSMUNDA-GU-03", "Mine_ID": "M-KUSMUNDA", "Mine_Code": "KUSMUNDA", "Unit_Name": "Coal-bearing sequence", "Unit_Type": "LITHOLOGY", "Age": "SYNTHETIC", "Description": "Synthetic coal-bearing sequence unit for demonstration spatial queries", "Relative_Order": 3, "Data_Type": "SYNTHETIC_DEMO", "Source_Provenance": "Synthetic geometry; not an official geological map" }, "geometry": { "type": "Polygon", "coordinates": [ [ [ 82.634, 22.28 ], [ 82.664, 22.275 ], [ 82.694, 22.33 ], [ 82.664, 22.335 ], [ 82.634, 22.28 ] ] ] } },
{ "type": "Feature", "properties": { "Geology_Unit_ID": "KUSMUNDA-GU-04", "Mine_ID": "M-KUSMUNDA", "Mine_Code": "KUSMUNDA", "Unit_Name": "Siltstone", "Unit_Type": "LITHOLOGY", "Age": "SYNTHETIC", "Description": "Synthetic siltstone unit for demonstration spatial queries", "Relative_Order": 4, "Data_Type": "SYNTHETIC_DEMO", "Source_Provenance": "Synthetic geometry; not an official geological map" }, "geometry": { "type": "Polygon", "coordinates": [ [ [ 82.646, 22.28 ], [ 82.676, 22.275 ], [ 82.706, 22.33 ], [ 82.676, 22.335 ], [ 82.646, 22.28 ] ] ] } },
{ "type": "Feature", "properties": { "Geology_Unit_ID": "KUSMUNDA-GU-05", "Mine_ID": "M-KUSMUNDA", "Mine_Code": "KUSMUNDA", "Unit_Name": "Mudstone", "Unit_Type": "LITHOLOGY", "Age": "SYNTHETIC", "Description": "Synthetic mudstone unit for demonstration spatial queries", "Relative_Order": 5, "Data_Type": "SYNTHETIC_DEMO", "Source_Provenance": "Synthetic geometry; not an official geological map" }, "geometry": { "type": "Polygon", "coordinates": [ [ [ 82.658, 22.28 ], [ 82.688, 22.275 ], [ 82.718, 22.33 ], [ 82.688, 22.335 ], [ 82.658, 22.28 ] ] ] } },
{ "type": "Feature", "properties": { "Geology_Unit_ID": "KUSMUNDA-GU-06", "Mine_ID": "M-KUSMUNDA", "Mine_Code": "KUSMUNDA", "Unit_Name": "Weathered zone", "Unit_Type": "LITHOLOGY", "Age": "SYNTHETIC", "Description": "Synthetic weathered zone unit for demonstration spatial queries", "Relative_Order": 6, "Data_Type": "SYNTHETIC_DEMO", "Source_Provenance": "Synthetic geometry; not an official geological map" }, "geometry": { "type": "Polygon", "coordinates": [ [ [ 82.67, 22.28 ], [ 82.7, 22.275 ], [ 82.73, 22.33 ], [ 82.7, 22.335 ], [ 82.67, 22.28 ] ] ] } }
]
}
