{
"type": "FeatureCollection",
"name": "geological_contacts",
"crs": { "type": "name", "properties": { "name": "urn:ogc:def:crs:OGC:1.3:CRS84" } },
"features": [
{ "type": "Feature", "properties": { "Contact_ID": "KUSMUNDA-GC-01", "Mine_ID": "M-KUSMUNDA", "Mine_Code": "KUSMUNDA", "Contact_Type": "GEOLOGICAL_BOUNDARY", "Unit_A": "Sandstone", "Unit_B": "Shale", "Confidence": "DEMO", "Data_Type": "SYNTHETIC_DEMO", "Source_Provenance": "Synthetic geological contact" }, "geometry": { "type": "LineString", "coordinates": [ [ 82.635, 22.275 ], [ 82.655, 22.335 ] ] } },
{ "type": "Feature", "properties": { "Contact_ID": "KUSMUNDA-GC-02", "Mine_ID": "M-KUSMUNDA", "Mine_Code": "KUSMUNDA", "Contact_Type": "GEOLOGICAL_BOUNDARY", "Unit_A": "Sandstone", "Unit_B": "Shale", "Confidence": "DEMO", "Data_Type": "SYNTHETIC_DEMO", "Source_Provenance": "Synthetic geological contact" }, "geometry": { "type": "LineString", "coordinates": [ [ 82.665, 22.275 ], [ 82.685, 22.335 ] ] } },
{ "type": "Feature", "properties": { "Contact_ID": "KUSMUNDA-GC-03", "Mine_ID": "M-KUSMUNDA", "Mine_Code": "KUSMUNDA", "Contact_Type": "SEAM_CONTACT", "Unit_A": "Sandstone", "Unit_B": "Shale", "Confidence": "DEMO", "Data_Type": "SYNTHETIC_DEMO", "Source_Provenance": "Synthetic geological contact" }, "geometry": { "type": "LineString", "coordinates": [ [ 82.695, 22.275 ], [ 82.715, 22.335 ] ] } }
]
}
