{
"type": "FeatureCollection",
"name": "landuse",
"crs": { "type": "name", "properties": { "name": "urn:ogc:def:crs:OGC:1.3:CRS84" } },
"features": [
{ "type": "Feature", "properties": { "Landuse_ID": "KUSMUNDA-LU-01", "Mine_ID": "M-KUSMUNDA", "Mine_Code": "KUSMUNDA", "Landuse_Class": "Active Mine Working", "Status": "SYNTHETIC", "Data_Type": "SYNTHETIC_DEMO", "Source_Provenance": "Synthetic land-use classification" }, "geometry": { "type": "Polygon", "coordinates": [ [ [ 82.615, 22.293 ], [ 82.635, 22.287 ], [ 82.655, 22.317 ], [ 82.635, 22.323 ], [ 82.615, 22.293 ] ] ] } },
{ "type": "Feature", "properties": { "Landuse_ID": "KUSMUNDA-LU-02", "Mine_ID": "M-KUSMUNDA", "Mine_Code": "KUSMUNDA", "Landuse_Class": "Overburden Dump", "Status": "SYNTHETIC", "Data_Type": "SYNTHETIC_DEMO", "Source_Provenance": "Synthetic land-use classification" }, "geometry": { "type": "Polygon", "coordinates": [ [ [ 82.625, 22.293 ], [ 82.645, 22.287 ], [ 82.665, 22.317 ], [ 82.645, 22.323 ], [ 82.625, 22.293 ] ] ] } },
{ "type": "Feature", "properties": { "Landuse_ID": "KUSMUNDA-LU-03", "Mine_ID": "M-KUSMUNDA", "Mine_Code": "KUSMUNDA", "Landuse_Class": "Infrastructure", "Status": "SYNTHETIC", "Data_Type": "SYNTHETIC_DEMO", "Source_Provenance": "Synthetic land-use classification" }, "geometry": { "type": "Polygon", "coordinates": [ [ [ 82.635, 22.293 ], [ 82.655, 22.287 ], [ 82.675, 22.317 ], [ 82.655, 22.323 ], [ 82.635, 22.293 ] ] ] } },
{ "type": "Feature", "properties": { "Landuse_ID": "KUSMUNDA-LU-04", "Mine_ID": "M-KUSMUNDA", "Mine_Code": "KUSMUNDA", "Landuse_Class": "Green/Reclaimed Area", "Status": "SYNTHETIC", "Data_Type": "SYNTHETIC_DEMO", "Source_Provenance": "Synthetic land-use classification" }, "geometry": { "type": "Polygon", "coordinates": [ [ [ 82.645, 22.293 ], [ 82.665, 22.287 ], [ 82.685, 22.317 ], [ 82.665, 22.323 ], [ 82.645, 22.293 ] ] ] } },
{ "type": "Feature", "properties": { "Landuse_ID": "KUSMUNDA-LU-05", "Mine_ID": "M-KUSMUNDA", "Mine_Code": "KUSMUNDA", "Landuse_Class": "Water Body", "Status": "SYNTHETIC", "Data_Type": "SYNTHETIC_DEMO", "Source_Provenance": "Synthetic land-use classification" }, "geometry": { "type": "Polygon", "coordinates": [ [ [ 82.655, 22.293 ], [ 82.675, 22.287 ], [ 82.695, 22.317 ], [ 82.675, 22.323 ], [ 82.655, 22.293 ] ] ] } },
{ "type": "Feature", "properties": { "Landuse_ID": "KUSMUNDA-LU-06", "Mine_ID": "M-KUSMUNDA", "Mine_Code": "KUSMUNDA", "Landuse_Class": "Road/Transport", "Status": "SYNTHETIC", "Data_Type": "SYNTHETIC_DEMO", "Source_Provenance": "Synthetic land-use classification" }, "geometry": { "type": "Polygon", "coordinates": [ [ [ 82.665, 22.293 ], [ 82.685, 22.287 ], [ 82.705, 22.317 ], [ 82.685, 22.323 ], [ 82.665, 22.293 ] ] ] } }
]
}
