{
"type": "FeatureCollection",
"name": "survey_points",
"crs": { "type": "name", "properties": { "name": "urn:ogc:def:crs:OGC:1.3:CRS84" } },
"features": [
{ "type": "Feature", "properties": { "Survey_Point_ID": "KUSMUNDA-SP-001", "Mine_ID": "M-KUSMUNDA", "Mine_Code": "KUSMUNDA", "Latitude": 22.2919397, "Longitude": 82.7098418, "RL_m": 328.13, "Point_Type": "DGPS_CONTROL", "Survey_Date": "2025-11-02", "Horizontal_Accuracy_m": 0.047, "Vertical_Accuracy_m": 0.026, "Data_Type": "SYNTHETIC_DEMO", "Source_Provenance": "Synthetic survey/control dataset" }, "geometry": { "type": "Point", "coordinates": [ 82.7098418, 22.2919397 ] } },
{ "type": "Feature", "properties": { "Survey_Point_ID": "KUSMUNDA-SP-002", "Mine_ID": "M-KUSMUNDA", "Mine_Code": "KUSMUNDA", "Latitude": 22.3125237, "Longitude": 82.664155, "RL_m": 304.46, "Point_Type": "DGPS_CONTROL", "Survey_Date": "2025-04-07", "Horizontal_Accuracy_m": 0.058, "Vertical_Accuracy_m": 0.101, "Data_Type": "SYNTHETIC_DEMO", "Source_Provenance": "Synthetic survey/control dataset" }, "geometry": { "type": "Point", "coordinates": [ 82.664155, 22.3125237 ] } },
{ "type": "Feature", "properties": { "Survey_Point_ID": "KUSMUNDA-SP-003", "Mine_ID": "M-KUSMUNDA", "Mine_Code": "KUSMUNDA", "Latitude": 22.310191, "Longitude": 82.6787025, "RL_m": 256.47, "Point_Type": "DGPS_CONTROL", "Survey_Date": "2025-10-05", "Horizontal_Accuracy_m": 0.043, "Vertical_Accuracy_m": 0.064, "Data_Type": "SYNTHETIC_DEMO", "Source_Provenance": "Synthetic survey/control dataset" }, "geometry": { "type": "Point", "coordinates": [ 82.6787025, 22.310191 ] } },
{ "type": "Feature", "properties": { "Survey_Point_ID": "KUSMUNDA-SP-004", "Mine_ID": "M-KUSMUNDA", "Mine_Code": "KUSMUNDA", "Latitude": 22.3033368, "Longitude": 82.6962198, "RL_m": 328.67, "Point_Type": "BENCH_RL", "Survey_Date": "2025-03-16", "Horizontal_Accuracy_m": 0.046, "Vertical_Accuracy_m": 0.167, "Data_Type": "SYNTHETIC_DEMO", "Source_Provenance": "Synthetic survey/control dataset" }, "geometry": { "type": "Point", "coordinates": [ 82.6962198, 22.3033368 ] } },
{ "type": "Feature", "properties": { "Survey_Point_ID": "KUSMUNDA-SP-005", "Mine_ID": "M-KUSMUNDA", "Mine_Code": "KUSMUNDA", "Latitude": 22.2854402, "Longitude": 82.6958842, "RL_m": 290.66, "Point_Type": "DGPS_CONTROL", "Survey_Date": "2025-10-07", "Horizontal_Accuracy_m": 0.073, "Vertical_Accuracy_m": 0.175, "Data_Type": "SYNTHETIC_DEMO", "Source_Provenance": "Synthetic survey/control dataset" }, "geometry": { "type": "Point", "coordinates": [ 82.6958842, 22.2854402 ] } },
{ "type": "Feature", "properties": { "Survey_Point_ID": "KUSMUNDA-SP-006", "Mine_ID": "M-KUSMUNDA", "Mine_Code": "KUSMUNDA", "Latitude": 22.2893335, "Longitude": 82.6628171, "RL_m": 306.89, "Point_Type": "PIT_FLOOR", "Survey_Date": "2025-12-09", "Horizontal_Accuracy_m": 0.083, "Vertical_Accuracy_m": 0.083, "Data_Type": "SYNTHETIC_DEMO", "Source_Provenance": "Synthetic survey/control dataset" }, "geometry": { "type": "Point", "coordinates": [ 82.6628171, 22.2893335 ] } },
{ "type": "Feature", "properties": { "Survey_Point_ID": "KUSMUNDA-SP-007", "Mine_ID": "M-KUSMUNDA", "Mine_Code": "KUSMUNDA", "Latitude": 22.3296693, "Longitude": 82.6467324, "RL_m": 281.81, "Point_Type": "PIT_RIM", "Survey_Date": "2025-03-20", "Horizontal_Accuracy_m": 0.057, "Vertical_Accuracy_m": 0.171, "Data_Type": "SYNTHETIC_DEMO", "Source_Provenance": "Synthetic survey/control dataset" }, "geometry": { "type": "Point", "coordinates": [ 82.6467324, 22.3296693 ] } },
{ "type": "Feature", "properties": { "Survey_Point_ID": "KUSMUNDA-SP-008", "Mine_ID": "M-KUSMUNDA", "Mine_Code": "KUSMUNDA", "Latitude": 22.3181721, "Longitude": 82.6872983, "RL_m": 266.73, "Point_Type": "REFERENCE", "Survey_Date": "2025-12-23", "Horizontal_Accuracy_m": 0.059, "Vertical_Accuracy_m": 0.145, "Data_Type": "SYNTHETIC_DEMO", "Source_Provenance": "Synthetic survey/control dataset" }, "geometry": { "type": "Point", "coordinates": [ 82.6872983, 22.3181721 ] } },
{ "type": "Feature", "properties": { "Survey_Point_ID": "KUSMUNDA-SP-009", "Mine_ID": "M-KUSMUNDA", "Mine_Code": "KUSMUNDA", "Latitude": 22.2867975, "Longitude": 82.6559985, "RL_m": 328.57, "Point_Type": "DGPS_CONTROL", "Survey_Date": "2025-03-10", "Horizontal_Accuracy_m": 0.056, "Vertical_Accuracy_m": 0.067, "Data_Type": "SYNTHETIC_DEMO", "Source_Provenance": "Synthetic survey/control dataset" }, "geometry": { "type": "Point", "coordinates": [ 82.6559985, 22.2867975 ] } },
{ "type": "Feature", "properties": { "Survey_Point_ID": "KUSMUNDA-SP-010", "Mine_ID": "M-KUSMUNDA", "Mine_Code": "KUSMUNDA", "Latitude": 22.3310635, "Longitude": 82.7097378, "RL_m": 294.66, "Point_Type": "DGPS_CONTROL", "Survey_Date": "2025-10-01", "Horizontal_Accuracy_m": 0.089, "Vertical_Accuracy_m": 0.054, "Data_Type": "SYNTHETIC_DEMO", "Source_Provenance": "Synthetic survey/control dataset" }, "geometry": { "type": "Point", "coordinates": [ 82.7097378, 22.3310635 ] } },
{ "type": "Feature", "properties": { "Survey_Point_ID": "KUSMUNDA-SP-011", "Mine_ID": "M-KUSMUNDA", "Mine_Code": "KUSMUNDA", "Latitude": 22.31622, "Longitude": 82.659521, "RL_m": 317.73, "Point_Type": "PIT_RIM", "Survey_Date": "2025-10-22", "Horizontal_Accuracy_m": 0.087, "Vertical_Accuracy_m": 0.093, "Data_Type": "SYNTHETIC_DEMO", "Source_Provenance": "Synthetic survey/control dataset" }, "geometry": { "type": "Point", "coordinates": [ 82.659521, 22.31622 ] } },
{ "type": "Feature", "properties": { "Survey_Point_ID": "KUSMUNDA-SP-012", "Mine_ID": "M-KUSMUNDA", "Mine_Code": "KUSMUNDA", "Latitude": 22.324652, "Longitude": 82.7021439, "RL_m": 324.85, "Point_Type": "PIT_FLOOR", "Survey_Date": "2025-07-23", "Horizontal_Accuracy_m": 0.081, "Vertical_Accuracy_m": 0.14, "Data_Type": "SYNTHETIC_DEMO", "Source_Provenance": "Synthetic survey/control dataset" }, "geometry": { "type": "Point", "coordinates": [ 82.7021439, 22.324652 ] } },
{ "type": "Feature", "properties": { "Survey_Point_ID": "KUSMUNDA-SP-013", "Mine_ID": "M-KUSMUNDA", "Mine_Code": "KUSMUNDA", "Latitude": 22.2978478, "Longitude": 82.6806481, "RL_m": 325.21, "Point_Type": "BENCH_RL", "Survey_Date": "2025-02-19", "Horizontal_Accuracy_m": 0.098, "Vertical_Accuracy_m": 0.071, "Data_Type": "SYNTHETIC_DEMO", "Source_Provenance": "Synthetic survey/control dataset" }, "geometry": { "type": "Point", "coordinates": [ 82.6806481, 22.2978478 ] } },
{ "type": "Feature", "properties": { "Survey_Point_ID": "KUSMUNDA-SP-014", "Mine_ID": "M-KUSMUNDA", "Mine_Code": "KUSMUNDA", "Latitude": 22.3041944, "Longitude": 82.6613755, "RL_m": 285.87, "Point_Type": "BENCH_RL", "Survey_Date": "2025-02-23", "Horizontal_Accuracy_m": 0.1, "Vertical_Accuracy_m": 0.052, "Data_Type": "SYNTHETIC_DEMO", "Source_Provenance": "Synthetic survey/control dataset" }, "geometry": { "type": "Point", "coordinates": [ 82.6613755, 22.3041944 ] } },
{ "type": "Feature", "properties": { "Survey_Point_ID": "KUSMUNDA-SP-015", "Mine_ID": "M-KUSMUNDA", "Mine_Code": "KUSMUNDA", "Latitude": 22.304658, "Longitude": 82.6412653, "RL_m": 264.31, "Point_Type": "PIT_RIM", "Survey_Date": "2025-11-20", "Horizontal_Accuracy_m": 0.043, "Vertical_Accuracy_m": 0.154, "Data_Type": "SYNTHETIC_DEMO", "Source_Provenance": "Synthetic survey/control dataset" }, "geometry": { "type": "Point", "coordinates": [ 82.6412653, 22.304658 ] } },
{ "type": "Feature", "properties": { "Survey_Point_ID": "KUSMUNDA-SP-016", "Mine_ID": "M-KUSMUNDA", "Mine_Code": "KUSMUNDA", "Latitude": 22.2942514, "Longitude": 82.6904658, "RL_m": 293.4, "Point_Type": "DGPS_CONTROL", "Survey_Date": "2025-10-26", "Horizontal_Accuracy_m": 0.056, "Vertical_Accuracy_m": 0.135, "Data_Type": "SYNTHETIC_DEMO", "Source_Provenance": "Synthetic survey/control dataset" }, "geometry": { "type": "Point", "coordinates": [ 82.6904658, 22.2942514 ] } },
{ "type": "Feature", "properties": { "Survey_Point_ID": "KUSMUNDA-SP-017", "Mine_ID": "M-KUSMUNDA", "Mine_Code": "KUSMUNDA", "Latitude": 22.3100328, "Longitude": 82.6575323, "RL_m": 328.31, "Point_Type": "DGPS_CONTROL", "Survey_Date": "2025-06-18", "Horizontal_Accuracy_m": 0.054, "Vertical_Accuracy_m": 0.183, "Data_Type": "SYNTHETIC_DEMO", "Source_Provenance": "Synthetic survey/control dataset" }, "geometry": { "type": "Point", "coordinates": [ 82.6575323, 22.3100328 ] } },
{ "type": "Feature", "properties": { "Survey_Point_ID": "KUSMUNDA-SP-018", "Mine_ID": "M-KUSMUNDA", "Mine_Code": "KUSMUNDA", "Latitude": 22.2966044, "Longitude": 82.6704076, "RL_m": 301.61, "Point_Type": "PIT_FLOOR", "Survey_Date": "2025-11-12", "Horizontal_Accuracy_m": 0.07, "Vertical_Accuracy_m": 0.176, "Data_Type": "SYNTHETIC_DEMO", "Source_Provenance": "Synthetic survey/control dataset" }, "geometry": { "type": "Point", "coordinates": [ 82.6704076, 22.2966044 ] } },
{ "type": "Feature", "properties": { "Survey_Point_ID": "KUSMUNDA-SP-019", "Mine_ID": "M-KUSMUNDA", "Mine_Code": "KUSMUNDA", "Latitude": 22.3049548, "Longitude": 82.656113, "RL_m": 295.76, "Point_Type": "DGPS_CONTROL", "Survey_Date": "2025-09-21", "Horizontal_Accuracy_m": 0.079, "Vertical_Accuracy_m": 0.028, "Data_Type": "SYNTHETIC_DEMO", "Source_Provenance": "Synthetic survey/control dataset" }, "geometry": { "type": "Point", "coordinates": [ 82.656113, 22.3049548 ] } },
{ "type": "Feature", "properties": { "Survey_Point_ID": "KUSMUNDA-SP-020", "Mine_ID": "M-KUSMUNDA", "Mine_Code": "KUSMUNDA", "Latitude": 22.3033169, "Longitude": 82.7096185, "RL_m": 272.36, "Point_Type": "PIT_RIM", "Survey_Date": "2025-01-28", "Horizontal_Accuracy_m": 0.09, "Vertical_Accuracy_m": 0.155, "Data_Type": "SYNTHETIC_DEMO", "Source_Provenance": "Synthetic survey/control dataset" }, "geometry": { "type": "Point", "coordinates": [ 82.7096185, 22.3033169 ] } },
{ "type": "Feature", "properties": { "Survey_Point_ID": "KUSMUNDA-SP-021", "Mine_ID": "M-KUSMUNDA", "Mine_Code": "KUSMUNDA", "Latitude": 22.295522, "Longitude": 82.706715, "RL_m": 294.22, "Point_Type": "PIT_FLOOR", "Survey_Date": "2025-08-04", "Horizontal_Accuracy_m": 0.062, "Vertical_Accuracy_m": 0.196, "Data_Type": "SYNTHETIC_DEMO", "Source_Provenance": "Synthetic survey/control dataset" }, "geometry": { "type": "Point", "coordinates": [ 82.706715, 22.295522 ] } },
{ "type": "Feature", "properties": { "Survey_Point_ID": "KUSMUNDA-SP-022", "Mine_ID": "M-KUSMUNDA", "Mine_Code": "KUSMUNDA", "Latitude": 22.294119, "Longitude": 82.6452742, "RL_m": 265.27, "Point_Type": "PIT_FLOOR", "Survey_Date": "2025-06-21", "Horizontal_Accuracy_m": 0.034, "Vertical_Accuracy_m": 0.107, "Data_Type": "SYNTHETIC_DEMO", "Source_Provenance": "Synthetic survey/control dataset" }, "geometry": { "type": "Point", "coordinates": [ 82.6452742, 22.294119 ] } },
{ "type": "Feature", "properties": { "Survey_Point_ID": "KUSMUNDA-SP-023", "Mine_ID": "M-KUSMUNDA", "Mine_Code": "KUSMUNDA", "Latitude": 22.2991027, "Longitude": 82.6660881, "RL_m": 317.54, "Point_Type": "PIT_FLOOR", "Survey_Date": "2025-12-05", "Horizontal_Accuracy_m": 0.094, "Vertical_Accuracy_m": 0.033, "Data_Type": "SYNTHETIC_DEMO", "Source_Provenance": "Synthetic survey/control dataset" }, "geometry": { "type": "Point", "coordinates": [ 82.6660881, 22.2991027 ] } },
{ "type": "Feature", "properties": { "Survey_Point_ID": "KUSMUNDA-SP-024", "Mine_ID": "M-KUSMUNDA", "Mine_Code": "KUSMUNDA", "Latitude": 22.314584, "Longitude": 82.6546243, "RL_m": 278.69, "Point_Type": "PIT_FLOOR", "Survey_Date": "2025-03-24", "Horizontal_Accuracy_m": 0.033, "Vertical_Accuracy_m": 0.073, "Data_Type": "SYNTHETIC_DEMO", "Source_Provenance": "Synthetic survey/control dataset" }, "geometry": { "type": "Point", "coordinates": [ 82.6546243, 22.314584 ] } },
{ "type": "Feature", "properties": { "Survey_Point_ID": "KUSMUNDA-SP-025", "Mine_ID": "M-KUSMUNDA", "Mine_Code": "KUSMUNDA", "Latitude": 22.3245255, "Longitude": 82.6625786, "RL_m": 260.93, "Point_Type": "REFERENCE", "Survey_Date": "2025-11-09", "Horizontal_Accuracy_m": 0.074, "Vertical_Accuracy_m": 0.12, "Data_Type": "SYNTHETIC_DEMO", "Source_Provenance": "Synthetic survey/control dataset" }, "geometry": { "type": "Point", "coordinates": [ 82.6625786, 22.3245255 ] } }
]
}
