{
"type": "FeatureCollection",
"name": "borehole_traces",
"crs": { "type": "name", "properties": { "name": "urn:ogc:def:crs:OGC:1.3:CRS84" } },
"features": [
{ "type": "Feature", "properties": { "Trace_ID": "GEVRA-BH-001-TRACE", "Borehole_ID": "GEVRA-BH-001", "Mine_ID": "M-GEVRA", "Mine_Code": "GEVRA", "Azimuth_deg": 240.4, "Inclination_deg": 81.1, "Total_Depth_m": 140.5, "Data_Type": "SYNTHETIC_DEMO", "Source_Provenance": "Synthetic borehole trace; 2D plan-view representation" }, "geometry": { "type": "LineString", "coordinates": [ [ 82.548922, 22.217246 ], [ 82.546254767102454, 22.212544947599714 ] ] } },
{ "type": "Feature", "properties": { "Trace_ID": "GEVRA-BH-002-TRACE", "Borehole_ID": "GEVRA-BH-002", "Mine_ID": "M-GEVRA", "Mine_Code": "GEVRA", "Azimuth_deg": 335.4, "Inclination_deg": 72.1, "Total_Depth_m": 100.7, "Data_Type": "SYNTHETIC_DEMO", "Source_Provenance": "Synthetic borehole trace; 2D plan-view representation" }, "geometry": { "type": "LineString", "coordinates": [ [ 82.557119, 22.185645 ], [ 82.561672714919865, 22.183563238863698 ] ] } },
{ "type": "Feature", "properties": { "Trace_ID": "GEVRA-BH-003-TRACE", "Borehole_ID": "GEVRA-BH-003", "Mine_ID": "M-GEVRA", "Mine_Code": "GEVRA", "Azimuth_deg": 316.1, "Inclination_deg": 75.3, "Total_Depth_m": 103.9, "Data_Type": "SYNTHETIC_DEMO", "Source_Provenance": "Synthetic borehole trace; 2D plan-view representation" }, "geometry": { "type": "LineString", "coordinates": [ [ 82.547133, 22.205846 ], [ 82.550765424392537, 22.202353577626845 ] ] } },
{ "type": "Feature", "properties": { "Trace_ID": "GEVRA-BH-004-TRACE", "Borehole_ID": "GEVRA-BH-004", "Mine_ID": "M-GEVRA", "Mine_Code": "GEVRA", "Azimuth_deg": 320.3, "Inclination_deg": 84.8, "Total_Depth_m": 218.9, "Data_Type": "SYNTHETIC_DEMO", "Source_Provenance": "Synthetic borehole trace; 2D plan-view representation" }, "geometry": { "type": "LineString", "coordinates": [ [ 82.51657, 22.225187 ], [ 82.521331577484162, 22.221233381295281 ] ] } },
{ "type": "Feature", "properties": { "Trace_ID": "GEVRA-BH-005-TRACE", "Borehole_ID": "GEVRA-BH-005", "Mine_ID": "M-GEVRA", "Mine_Code": "GEVRA", "Azimuth_deg": 56.0, "Inclination_deg": 75.6, "Total_Depth_m": 223.8, "Data_Type": "SYNTHETIC_DEMO", "Source_Provenance": "Synthetic borehole trace; 2D plan-view representation" }, "geometry": { "type": "LineString", "coordinates": [ [ 82.517911, 22.222258 ], [ 82.521402742345714, 22.227427175890906 ] ] } },
{ "type": "Feature", "properties": { "Trace_ID": "GEVRA-BH-006-TRACE", "Borehole_ID": "GEVRA-BH-006", "Mine_ID": "M-GEVRA", "Mine_Code": "GEVRA", "Azimuth_deg": 75.8, "Inclination_deg": 76.9, "Total_Depth_m": 91.7, "Data_Type": "SYNTHETIC_DEMO", "Source_Provenance": "Synthetic borehole trace; 2D plan-view representation" }, "geometry": { "type": "LineString", "coordinates": [ [ 82.542001, 22.185871 ], [ 82.543204956979508, 22.190638323839586 ] ] } },
{ "type": "Feature", "properties": { "Trace_ID": "GEVRA-BH-007-TRACE", "Borehole_ID": "GEVRA-BH-007", "Mine_ID": "M-GEVRA", "Mine_Code": "GEVRA", "Azimuth_deg": 247.5, "Inclination_deg": 87.1, "Total_Depth_m": 171.8, "Data_Type": "SYNTHETIC_DEMO", "Source_Provenance": "Synthetic borehole trace; 2D plan-view representation" }, "geometry": { "type": "LineString", "coordinates": [ [ 82.548137, 22.199874 ], [ 82.545948720831959, 22.194591296309397 ] ] } },
{ "type": "Feature", "properties": { "Trace_ID": "GEVRA-BH-008-TRACE", "Borehole_ID": "GEVRA-BH-008", "Mine_ID": "M-GEVRA", "Mine_Code": "GEVRA", "Azimuth_deg": 181.9, "Inclination_deg": 75.0, "Total_Depth_m": 123.3, "Data_Type": "SYNTHETIC_DEMO", "Source_Provenance": "Synthetic borehole trace; 2D plan-view representation" }, "geometry": { "type": "LineString", "coordinates": [ [ 82.519846, 22.20379 ], [ 82.514616021913056, 22.2036121848992 ] ] } },
{ "type": "Feature", "properties": { "Trace_ID": "GEVRA-BH-009-TRACE", "Borehole_ID": "GEVRA-BH-009", "Mine_ID": "M-GEVRA", "Mine_Code": "GEVRA", "Azimuth_deg": 326.9, "Inclination_deg": 71.0, "Total_Depth_m": 176.5, "Data_Type": "SYNTHETIC_DEMO", "Source_Provenance": "Synthetic borehole trace; 2D plan-view representation" }, "geometry": { "type": "LineString", "coordinates": [ [ 82.512199, 22.2236 ], [ 82.517030494550994, 22.220454863213835 ] ] } },
{ "type": "Feature", "properties": { "Trace_ID": "GEVRA-BH-010-TRACE", "Borehole_ID": "GEVRA-BH-010", "Mine_ID": "M-GEVRA", "Mine_Code": "GEVRA", "Azimuth_deg": 228.3, "Inclination_deg": 86.6, "Total_Depth_m": 91.1, "Data_Type": "SYNTHETIC_DEMO", "Source_Provenance": "Synthetic borehole trace; 2D plan-view representation" }, "geometry": { "type": "LineString", "coordinates": [ [ 82.505502, 22.193651 ], [ 82.502237768148191, 22.189981843227987 ] ] } },
{ "type": "Feature", "properties": { "Trace_ID": "GEVRA-BH-011-TRACE", "Borehole_ID": "GEVRA-BH-011", "Mine_ID": "M-GEVRA", "Mine_Code": "GEVRA", "Azimuth_deg": 15.9, "Inclination_deg": 76.7, "Total_Depth_m": 188.2, "Data_Type": "SYNTHETIC_DEMO", "Source_Provenance": "Synthetic borehole trace; 2D plan-view representation" }, "geometry": { "type": "LineString", "coordinates": [ [ 82.564841, 22.186619 ], [ 82.570498770698705, 22.188227587803308 ] ] } },
{ "type": "Feature", "properties": { "Trace_ID": "GEVRA-BH-012-TRACE", "Borehole_ID": "GEVRA-BH-012", "Mine_ID": "M-GEVRA", "Mine_Code": "GEVRA", "Azimuth_deg": 47.1, "Inclination_deg": 89.6, "Total_Depth_m": 145.9, "Data_Type": "SYNTHETIC_DEMO", "Source_Provenance": "Synthetic borehole trace; 2D plan-view representation" }, "geometry": { "type": "LineString", "coordinates": [ [ 82.537631, 22.184868 ], [ 82.541347398750588, 22.188866632432049 ] ] } },
{ "type": "Feature", "properties": { "Trace_ID": "KUSMUNDA-BH-001-TRACE", "Borehole_ID": "KUSMUNDA-BH-001", "Mine_ID": "M-KUSMUNDA", "Mine_Code": "KUSMUNDA", "Azimuth_deg": 167.4, "Inclination_deg": 86.5, "Total_Depth_m": 220.4, "Data_Type": "SYNTHETIC_DEMO", "Source_Provenance": "Synthetic borehole trace; 2D plan-view representation" }, "geometry": { "type": "LineString", "coordinates": [ [ 82.688577, 22.291377 ], [ 82.682523487685373, 22.29273516223504 ] ] } },
{ "type": "Feature", "properties": { "Trace_ID": "KUSMUNDA-BH-002-TRACE", "Borehole_ID": "KUSMUNDA-BH-002", "Mine_ID": "M-KUSMUNDA", "Mine_Code": "KUSMUNDA", "Azimuth_deg": 213.3, "Inclination_deg": 76.4, "Total_Depth_m": 229.4, "Data_Type": "SYNTHETIC_DEMO", "Source_Provenance": "Synthetic borehole trace; 2D plan-view representation" }, "geometry": { "type": "LineString", "coordinates": [ [ 82.691527, 22.315057 ], [ 82.686265877467136, 22.311602289347242 ] ] } },
{ "type": "Feature", "properties": { "Trace_ID": "KUSMUNDA-BH-003-TRACE", "Borehole_ID": "KUSMUNDA-BH-003", "Mine_ID": "M-KUSMUNDA", "Mine_Code": "KUSMUNDA", "Azimuth_deg": 88.4, "Inclination_deg": 88.7, "Total_Depth_m": 228.5, "Data_Type": "SYNTHETIC_DEMO", "Source_Provenance": "Synthetic borehole trace; 2D plan-view representation" }, "geometry": { "type": "LineString", "coordinates": [ [ 82.673884, 22.290465 ], [ 82.674061871207442, 22.296747482537466 ] ] } },
{ "type": "Feature", "properties": { "Trace_ID": "KUSMUNDA-BH-004-TRACE", "Borehole_ID": "KUSMUNDA-BH-004", "Mine_ID": "M-KUSMUNDA", "Mine_Code": "KUSMUNDA", "Azimuth_deg": 100.4, "Inclination_deg": 79.0, "Total_Depth_m": 223.1, "Data_Type": "SYNTHETIC_DEMO", "Source_Provenance": "Synthetic borehole trace; 2D plan-view representation" }, "geometry": { "type": "LineString", "coordinates": [ [ 82.680375, 22.311226 ], [ 82.679248669579678, 22.317354355471437 ] ] } },
{ "type": "Feature", "properties": { "Trace_ID": "KUSMUNDA-BH-005-TRACE", "Borehole_ID": "KUSMUNDA-BH-005", "Mine_ID": "M-KUSMUNDA", "Mine_Code": "KUSMUNDA", "Azimuth_deg": 270.2, "Inclination_deg": 81.4, "Total_Depth_m": 144.8, "Data_Type": "SYNTHETIC_DEMO", "Source_Provenance": "Synthetic borehole trace; 2D plan-view representation" }, "geometry": { "type": "LineString", "coordinates": [ [ 82.664971, 22.300834 ], [ 82.664987303480558, 22.295386024394645 ] ] } },
{ "type": "Feature", "properties": { "Trace_ID": "KUSMUNDA-BH-006-TRACE", "Borehole_ID": "KUSMUNDA-BH-006", "Mine_ID": "M-KUSMUNDA", "Mine_Code": "KUSMUNDA", "Azimuth_deg": 240.5, "Inclination_deg": 76.7, "Total_Depth_m": 215.9, "Data_Type": "SYNTHETIC_DEMO", "Source_Provenance": "Synthetic borehole trace; 2D plan-view representation" }, "geometry": { "type": "LineString", "coordinates": [ [ 82.705069, 22.307746 ], [ 82.702040641076096, 22.302382948328791 ] ] } },
{ "type": "Feature", "properties": { "Trace_ID": "KUSMUNDA-BH-007-TRACE", "Borehole_ID": "KUSMUNDA-BH-007", "Mine_ID": "M-KUSMUNDA", "Mine_Code": "KUSMUNDA", "Azimuth_deg": 178.0, "Inclination_deg": 76.5, "Total_Depth_m": 157.7, "Data_Type": "SYNTHETIC_DEMO", "Source_Provenance": "Synthetic borehole trace; 2D plan-view representation" }, "geometry": { "type": "LineString", "coordinates": [ [ 82.668951, 22.28426 ], [ 82.663377568142323, 22.284459465104213 ] ] } },
{ "type": "Feature", "properties": { "Trace_ID": "KUSMUNDA-BH-008-TRACE", "Borehole_ID": "KUSMUNDA-BH-008", "Mine_ID": "M-KUSMUNDA", "Mine_Code": "KUSMUNDA", "Azimuth_deg": 175.5, "Inclination_deg": 77.1, "Total_Depth_m": 108.2, "Data_Type": "SYNTHETIC_DEMO", "Source_Provenance": "Synthetic borehole trace; 2D plan-view representation" }, "geometry": { "type": "LineString", "coordinates": [ [ 82.669966, 22.291816 ], [ 82.664899541264248, 22.292213139621328 ] ] } },
{ "type": "Feature", "properties": { "Trace_ID": "KUSMUNDA-BH-009-TRACE", "Borehole_ID": "KUSMUNDA-BH-009", "Mine_ID": "M-KUSMUNDA", "Mine_Code": "KUSMUNDA", "Azimuth_deg": 93.0, "Inclination_deg": 75.6, "Total_Depth_m": 119.5, "Data_Type": "SYNTHETIC_DEMO", "Source_Provenance": "Synthetic borehole trace; 2D plan-view representation" }, "geometry": { "type": "LineString", "coordinates": [ [ 82.671011, 22.315098 ], [ 82.670738492915547, 22.320285847808957 ] ] } },
{ "type": "Feature", "properties": { "Trace_ID": "KUSMUNDA-BH-010-TRACE", "Borehole_ID": "KUSMUNDA-BH-010", "Mine_ID": "M-KUSMUNDA", "Mine_Code": "KUSMUNDA", "Azimuth_deg": 214.6, "Inclination_deg": 87.6, "Total_Depth_m": 175.7, "Data_Type": "SYNTHETIC_DEMO", "Source_Provenance": "Synthetic borehole trace; 2D plan-view representation" }, "geometry": { "type": "LineString", "coordinates": [ [ 82.649655, 22.283079 ], [ 82.644917105756747, 22.279808616667768 ] ] } },
{ "type": "Feature", "properties": { "Trace_ID": "KUSMUNDA-BH-011-TRACE", "Borehole_ID": "KUSMUNDA-BH-011", "Mine_ID": "M-KUSMUNDA", "Mine_Code": "KUSMUNDA", "Azimuth_deg": 200.1, "Inclination_deg": 80.3, "Total_Depth_m": 160.0, "Data_Type": "SYNTHETIC_DEMO", "Source_Provenance": "Synthetic borehole trace; 2D plan-view representation" }, "geometry": { "type": "LineString", "coordinates": [ [ 82.686485, 22.283073 ], [ 82.681225560818945, 22.281149903668378 ] ] } },
{ "type": "Feature", "properties": { "Trace_ID": "KUSMUNDA-BH-012-TRACE", "Borehole_ID": "KUSMUNDA-BH-012", "Mine_ID": "M-KUSMUNDA", "Mine_Code": "KUSMUNDA", "Azimuth_deg": 68.8, "Inclination_deg": 74.8, "Total_Depth_m": 194.1, "Data_Type": "SYNTHETIC_DEMO", "Source_Provenance": "Synthetic borehole trace; 2D plan-view representation" }, "geometry": { "type": "LineString", "coordinates": [ [ 82.703551, 22.324271 ], [ 82.705701314690018, 22.329809197155566 ] ] } },
{ "type": "Feature", "properties": { "Trace_ID": "DIPKA-BH-001-TRACE", "Borehole_ID": "DIPKA-BH-001", "Mine_ID": "M-DIPKA", "Mine_Code": "DIPKA", "Azimuth_deg": 28.4, "Inclination_deg": 87.4, "Total_Depth_m": 149.9, "Data_Type": "SYNTHETIC_DEMO", "Source_Provenance": "Synthetic borehole trace; 2D plan-view representation" }, "geometry": { "type": "LineString", "coordinates": [ [ 82.52091, 22.325916 ], [ 82.525745881071941, 22.328533872276868 ] ] } },
{ "type": "Feature", "properties": { "Trace_ID": "DIPKA-BH-002-TRACE", "Borehole_ID": "DIPKA-BH-002", "Mine_ID": "M-DIPKA", "Mine_Code": "DIPKA", "Azimuth_deg": 223.1, "Inclination_deg": 74.8, "Total_Depth_m": 160.3, "Data_Type": "SYNTHETIC_DEMO", "Source_Provenance": "Synthetic borehole trace; 2D plan-view representation" }, "geometry": { "type": "LineString", "coordinates": [ [ 82.542167, 22.316656 ], [ 82.538075615641702, 22.312827921757247 ] ] } },
{ "type": "Feature", "properties": { "Trace_ID": "DIPKA-BH-003-TRACE", "Borehole_ID": "DIPKA-BH-003", "Mine_ID": "M-DIPKA", "Mine_Code": "DIPKA", "Azimuth_deg": 328.6, "Inclination_deg": 72.9, "Total_Depth_m": 170.7, "Data_Type": "SYNTHETIC_DEMO", "Source_Provenance": "Synthetic borehole trace; 2D plan-view representation" }, "geometry": { "type": "LineString", "coordinates": [ [ 82.565798, 22.32222 ], [ 82.570670171402824, 22.319248166420955 ] ] } },
{ "type": "Feature", "properties": { "Trace_ID": "DIPKA-BH-004-TRACE", "Borehole_ID": "DIPKA-BH-004", "Mine_ID": "M-DIPKA", "Mine_Code": "DIPKA", "Azimuth_deg": 166.0, "Inclination_deg": 75.1, "Total_Depth_m": 230.1, "Data_Type": "SYNTHETIC_DEMO", "Source_Provenance": "Synthetic borehole trace; 2D plan-view representation" }, "geometry": { "type": "LineString", "coordinates": [ [ 82.562701, 22.325141 ], [ 82.55658679517137, 22.326663859255984 ] ] } },
{ "type": "Feature", "properties": { "Trace_ID": "DIPKA-BH-005-TRACE", "Borehole_ID": "DIPKA-BH-005", "Mine_ID": "M-DIPKA", "Mine_Code": "DIPKA", "Azimuth_deg": 91.9, "Inclination_deg": 70.2, "Total_Depth_m": 172.0, "Data_Type": "SYNTHETIC_DEMO", "Source_Provenance": "Synthetic borehole trace; 2D plan-view representation" }, "geometry": { "type": "LineString", "coordinates": [ [ 82.545298, 22.311344 ], [ 82.545106594806342, 22.317060796660002 ] ] } },
{ "type": "Feature", "properties": { "Trace_ID": "DIPKA-BH-006-TRACE", "Borehole_ID": "DIPKA-BH-006", "Mine_ID": "M-DIPKA", "Mine_Code": "DIPKA", "Azimuth_deg": 289.7, "Inclination_deg": 88.0, "Total_Depth_m": 93.6, "Data_Type": "SYNTHETIC_DEMO", "Source_Provenance": "Synthetic borehole trace; 2D plan-view representation" }, "geometry": { "type": "LineString", "coordinates": [ [ 82.549806, 22.326272 ], [ 82.551467299019933, 22.321623970141403 ] ] } },
{ "type": "Feature", "properties": { "Trace_ID": "DIPKA-BH-007-TRACE", "Borehole_ID": "DIPKA-BH-007", "Mine_ID": "M-DIPKA", "Mine_Code": "DIPKA", "Azimuth_deg": 243.9, "Inclination_deg": 73.2, "Total_Depth_m": 205.3, "Data_Type": "SYNTHETIC_DEMO", "Source_Provenance": "Synthetic borehole trace; 2D plan-view representation" }, "geometry": { "type": "LineString", "coordinates": [ [ 82.547744, 22.297021 ], [ 82.545084836029176, 22.291583385083854 ] ] } },
{ "type": "Feature", "properties": { "Trace_ID": "DIPKA-BH-008-TRACE", "Borehole_ID": "DIPKA-BH-008", "Mine_ID": "M-DIPKA", "Mine_Code": "DIPKA", "Azimuth_deg": 159.0, "Inclination_deg": 76.9, "Total_Depth_m": 150.1, "Data_Type": "SYNTHETIC_DEMO", "Source_Provenance": "Synthetic borehole trace; 2D plan-view representation" }, "geometry": { "type": "LineString", "coordinates": [ [ 82.51136, 22.330242 ], [ 82.506223592676037, 22.332211345272512 ] ] } },
{ "type": "Feature", "properties": { "Trace_ID": "DIPKA-BH-009-TRACE", "Borehole_ID": "DIPKA-BH-009", "Mine_ID": "M-DIPKA", "Mine_Code": "DIPKA", "Azimuth_deg": 211.5, "Inclination_deg": 82.8, "Total_Depth_m": 173.0, "Data_Type": "SYNTHETIC_DEMO", "Source_Provenance": "Synthetic borehole trace; 2D plan-view representation" }, "geometry": { "type": "LineString", "coordinates": [ [ 82.560431, 22.321697 ], [ 82.555546721223124, 22.318700882373832 ] ] } },
{ "type": "Feature", "properties": { "Trace_ID": "DIPKA-BH-010-TRACE", "Borehole_ID": "DIPKA-BH-010", "Mine_ID": "M-DIPKA", "Mine_Code": "DIPKA", "Azimuth_deg": 152.8, "Inclination_deg": 75.0, "Total_Depth_m": 140.1, "Data_Type": "SYNTHETIC_DEMO", "Source_Provenance": "Synthetic borehole trace; 2D plan-view representation" }, "geometry": { "type": "LineString", "coordinates": [ [ 82.554109, 22.314936 ], [ 82.549307365855753, 22.317408874955348 ] ] } },
{ "type": "Feature", "properties": { "Trace_ID": "DIPKA-BH-011-TRACE", "Borehole_ID": "DIPKA-BH-011", "Mine_ID": "M-DIPKA", "Mine_Code": "DIPKA", "Azimuth_deg": 304.3, "Inclination_deg": 74.0, "Total_Depth_m": 98.2, "Data_Type": "SYNTHETIC_DEMO", "Source_Provenance": "Synthetic borehole trace; 2D plan-view representation" }, "geometry": { "type": "LineString", "coordinates": [ [ 82.537869, 22.330122 ], [ 82.540677162888215, 22.326006839590821 ] ] } },
{ "type": "Feature", "properties": { "Trace_ID": "DIPKA-BH-012-TRACE", "Borehole_ID": "DIPKA-BH-012", "Mine_ID": "M-DIPKA", "Mine_Code": "DIPKA", "Azimuth_deg": 138.5, "Inclination_deg": 79.7, "Total_Depth_m": 214.8, "Data_Type": "SYNTHETIC_DEMO", "Source_Provenance": "Synthetic borehole trace; 2D plan-view representation" }, "geometry": { "type": "LineString", "coordinates": [ [ 82.554206, 22.29852 ], [ 82.549602161914891, 22.302594626226558 ] ] } },
{ "type": "Feature", "properties": { "Trace_ID": "NIGAHI-BH-001-TRACE", "Borehole_ID": "NIGAHI-BH-001", "Mine_ID": "M-NIGAHI", "Mine_Code": "NIGAHI", "Azimuth_deg": 142.9, "Inclination_deg": 84.8, "Total_Depth_m": 228.9, "Data_Type": "SYNTHETIC_DEMO", "Source_Provenance": "Synthetic borehole trace; 2D plan-view representation" }, "geometry": { "type": "LineString", "coordinates": [ [ 82.644026, 24.151783 ], [ 82.639006975564129, 24.155572579754022 ] ] } },
{ "type": "Feature", "properties": { "Trace_ID": "NIGAHI-BH-002-TRACE", "Borehole_ID": "NIGAHI-BH-002", "Mine_ID": "M-NIGAHI", "Mine_Code": "NIGAHI", "Azimuth_deg": 157.0, "Inclination_deg": 79.2, "Total_Depth_m": 207.2, "Data_Type": "SYNTHETIC_DEMO", "Source_Provenance": "Synthetic borehole trace; 2D plan-view representation" }, "geometry": { "type": "LineString", "coordinates": [ [ 82.655279, 24.132613 ], [ 82.649688078653696, 24.134981709036477 ] ] } },
{ "type": "Feature", "properties": { "Trace_ID": "NIGAHI-BH-003-TRACE", "Borehole_ID": "NIGAHI-BH-003", "Mine_ID": "M-NIGAHI", "Mine_Code": "NIGAHI", "Azimuth_deg": 28.0, "Inclination_deg": 76.3, "Total_Depth_m": 224.0, "Data_Type": "SYNTHETIC_DEMO", "Source_Provenance": "Synthetic borehole trace; 2D plan-view representation" }, "geometry": { "type": "LineString", "coordinates": [ [ 82.598516, 24.159717 ], [ 82.60402403068889, 24.162649438904779 ] ] } },
{ "type": "Feature", "properties": { "Trace_ID": "NIGAHI-BH-004-TRACE", "Borehole_ID": "NIGAHI-BH-004", "Mine_ID": "M-NIGAHI", "Mine_Code": "NIGAHI", "Azimuth_deg": 154.5, "Inclination_deg": 78.1, "Total_Depth_m": 117.9, "Data_Type": "SYNTHETIC_DEMO", "Source_Provenance": "Synthetic borehole trace; 2D plan-view representation" }, "geometry": { "type": "LineString", "coordinates": [ [ 82.620686, 24.167088 ], [ 82.616009864344207, 24.169314161792975 ] ] } },
{ "type": "Feature", "properties": { "Trace_ID": "NIGAHI-BH-005-TRACE", "Borehole_ID": "NIGAHI-BH-005", "Mine_ID": "M-NIGAHI", "Mine_Code": "NIGAHI", "Azimuth_deg": 230.5, "Inclination_deg": 75.8, "Total_Depth_m": 239.1, "Data_Type": "SYNTHETIC_DEMO", "Source_Provenance": "Synthetic borehole trace; 2D plan-view representation" }, "geometry": { "type": "LineString", "coordinates": [ [ 82.65233, 24.161193 ], [ 82.648260608220809, 24.156265025614175 ] ] } },
{ "type": "Feature", "properties": { "Trace_ID": "NIGAHI-BH-006-TRACE", "Borehole_ID": "NIGAHI-BH-006", "Mine_ID": "M-NIGAHI", "Mine_Code": "NIGAHI", "Azimuth_deg": 145.8, "Inclination_deg": 89.3, "Total_Depth_m": 93.4, "Data_Type": "SYNTHETIC_DEMO", "Source_Provenance": "Synthetic borehole trace; 2D plan-view representation" }, "geometry": { "type": "LineString", "coordinates": [ [ 82.643613, 24.149618 ], [ 82.639531621570967, 24.152390490959235 ] ] } },
{ "type": "Feature", "properties": { "Trace_ID": "NIGAHI-BH-007-TRACE", "Borehole_ID": "NIGAHI-BH-007", "Mine_ID": "M-NIGAHI", "Mine_Code": "NIGAHI", "Azimuth_deg": 61.9, "Inclination_deg": 89.0, "Total_Depth_m": 104.3, "Data_Type": "SYNTHETIC_DEMO", "Source_Provenance": "Synthetic borehole trace; 2D plan-view representation" }, "geometry": { "type": "LineString", "coordinates": [ [ 82.640863, 24.16252 ], [ 82.643240304586755, 24.166967501759611 ] ] } },
{ "type": "Feature", "properties": { "Trace_ID": "NIGAHI-BH-008-TRACE", "Borehole_ID": "NIGAHI-BH-008", "Mine_ID": "M-NIGAHI", "Mine_Code": "NIGAHI", "Azimuth_deg": 165.6, "Inclination_deg": 83.8, "Total_Depth_m": 113.4, "Data_Type": "SYNTHETIC_DEMO", "Source_Provenance": "Synthetic borehole trace; 2D plan-view representation" }, "geometry": { "type": "LineString", "coordinates": [ [ 82.61388, 24.147241 ], [ 82.608906517605462, 24.148514745999517 ] ] } },
{ "type": "Feature", "properties": { "Trace_ID": "NIGAHI-BH-009-TRACE", "Borehole_ID": "NIGAHI-BH-009", "Mine_ID": "M-NIGAHI", "Mine_Code": "NIGAHI", "Azimuth_deg": 130.3, "Inclination_deg": 78.7, "Total_Depth_m": 123.1, "Data_Type": "SYNTHETIC_DEMO", "Source_Provenance": "Synthetic borehole trace; 2D plan-view representation" }, "geometry": { "type": "LineString", "coordinates": [ [ 82.648174, 24.155379 ], [ 82.6447929431923, 24.159370467883264 ] ] } },
{ "type": "Feature", "properties": { "Trace_ID": "NIGAHI-BH-010-TRACE", "Borehole_ID": "NIGAHI-BH-010", "Mine_ID": "M-NIGAHI", "Mine_Code": "NIGAHI", "Azimuth_deg": 38.1, "Inclination_deg": 78.7, "Total_Depth_m": 136.8, "Data_Type": "SYNTHETIC_DEMO", "Source_Provenance": "Synthetic borehole trace; 2D plan-view representation" }, "geometry": { "type": "LineString", "coordinates": [ [ 82.648219, 24.136116 ], [ 82.652442646940699, 24.139429039468581 ] ] } },
{ "type": "Feature", "properties": { "Trace_ID": "NIGAHI-BH-011-TRACE", "Borehole_ID": "NIGAHI-BH-011", "Mine_ID": "M-NIGAHI", "Mine_Code": "NIGAHI", "Azimuth_deg": 144.2, "Inclination_deg": 71.6, "Total_Depth_m": 234.2, "Data_Type": "SYNTHETIC_DEMO", "Source_Provenance": "Synthetic borehole trace; 2D plan-view representation" }, "geometry": { "type": "LineString", "coordinates": [ [ 82.647939, 24.129781 ], [ 82.642797699110147, 24.133494218167581 ] ] } },
{ "type": "Feature", "properties": { "Trace_ID": "NIGAHI-BH-012-TRACE", "Borehole_ID": "NIGAHI-BH-012", "Mine_ID": "M-NIGAHI", "Mine_Code": "NIGAHI", "Azimuth_deg": 313.4, "Inclination_deg": 84.9, "Total_Depth_m": 212.6, "Data_Type": "SYNTHETIC_DEMO", "Source_Provenance": "Synthetic borehole trace; 2D plan-view representation" }, "geometry": { "type": "LineString", "coordinates": [ [ 82.60251, 24.145881 ], [ 82.606718227153721, 24.141429180122394 ] ] } },
{ "type": "Feature", "properties": { "Trace_ID": "DUDHICHUA-BH-001-TRACE", "Borehole_ID": "DUDHICHUA-BH-001", "Mine_ID": "M-DUDHICHUA", "Mine_Code": "DUDHICHUA", "Azimuth_deg": 15.2, "Inclination_deg": 87.4, "Total_Depth_m": 227.3, "Data_Type": "SYNTHETIC_DEMO", "Source_Provenance": "Synthetic borehole trace; 2D plan-view representation" }, "geometry": { "type": "LineString", "coordinates": [ [ 82.721906, 24.131593 ], [ 82.727958172545101, 24.133242768615393 ] ] } },
{ "type": "Feature", "properties": { "Trace_ID": "DUDHICHUA-BH-002-TRACE", "Borehole_ID": "DUDHICHUA-BH-002", "Mine_ID": "M-DUDHICHUA", "Mine_Code": "DUDHICHUA", "Azimuth_deg": 126.9, "Inclination_deg": 90.0, "Total_Depth_m": 186.7, "Data_Type": "SYNTHETIC_DEMO", "Source_Provenance": "Synthetic borehole trace; 2D plan-view representation" }, "geometry": { "type": "LineString", "coordinates": [ [ 82.736377, 24.130621 ], [ 82.732852586366135, 24.135311436817332 ] ] } },
{ "type": "Feature", "properties": { "Trace_ID": "DUDHICHUA-BH-003-TRACE", "Borehole_ID": "DUDHICHUA-BH-003", "Mine_ID": "M-DUDHICHUA", "Mine_Code": "DUDHICHUA", "Azimuth_deg": 98.8, "Inclination_deg": 89.6, "Total_Depth_m": 145.7, "Data_Type": "SYNTHETIC_DEMO", "Source_Provenance": "Synthetic borehole trace; 2D plan-view representation" }, "geometry": { "type": "LineString", "coordinates": [ [ 82.702493, 24.150131 ], [ 82.701654398259748, 24.155523179162568 ] ] } },
{ "type": "Feature", "properties": { "Trace_ID": "DUDHICHUA-BH-004-TRACE", "Borehole_ID": "DUDHICHUA-BH-004", "Mine_ID": "M-DUDHICHUA", "Mine_Code": "DUDHICHUA", "Azimuth_deg": 341.2, "Inclination_deg": 71.5, "Total_Depth_m": 104.5, "Data_Type": "SYNTHETIC_DEMO", "Source_Provenance": "Synthetic borehole trace; 2D plan-view representation" }, "geometry": { "type": "LineString", "coordinates": [ [ 82.723678, 24.141801 ], [ 82.72845513728349, 24.140178969058635 ] ] } },
{ "type": "Feature", "properties": { "Trace_ID": "DUDHICHUA-BH-005-TRACE", "Borehole_ID": "DUDHICHUA-BH-005", "Mine_ID": "M-DUDHICHUA", "Mine_Code": "DUDHICHUA", "Azimuth_deg": 229.5, "Inclination_deg": 77.3, "Total_Depth_m": 201.2, "Data_Type": "SYNTHETIC_DEMO", "Source_Provenance": "Synthetic borehole trace; 2D plan-view representation" }, "geometry": { "type": "LineString", "coordinates": [ [ 82.695302, 24.134154 ], [ 82.691397878483244, 24.129582131762348 ] ] } },
{ "type": "Feature", "properties": { "Trace_ID": "DUDHICHUA-BH-006-TRACE", "Borehole_ID": "DUDHICHUA-BH-006", "Mine_ID": "M-DUDHICHUA", "Mine_Code": "DUDHICHUA", "Azimuth_deg": 288.4, "Inclination_deg": 83.6, "Total_Depth_m": 227.2, "Data_Type": "SYNTHETIC_DEMO", "Source_Provenance": "Synthetic borehole trace; 2D plan-view representation" }, "geometry": { "type": "LineString", "coordinates": [ [ 82.736817, 24.134724 ], [ 82.738796184780583, 24.128772461408651 ] ] } },
{ "type": "Feature", "properties": { "Trace_ID": "DUDHICHUA-BH-007-TRACE", "Borehole_ID": "DUDHICHUA-BH-007", "Mine_ID": "M-DUDHICHUA", "Mine_Code": "DUDHICHUA", "Azimuth_deg": 343.0, "Inclination_deg": 72.9, "Total_Depth_m": 183.0, "Data_Type": "SYNTHETIC_DEMO", "Source_Provenance": "Synthetic borehole trace; 2D plan-view representation" }, "geometry": { "type": "LineString", "coordinates": [ [ 82.701816, 24.155007 ], [ 82.707391381144916, 24.153302879966439 ] ] } },
{ "type": "Feature", "properties": { "Trace_ID": "DUDHICHUA-BH-008-TRACE", "Borehole_ID": "DUDHICHUA-BH-008", "Mine_ID": "M-DUDHICHUA", "Mine_Code": "DUDHICHUA", "Azimuth_deg": 218.7, "Inclination_deg": 85.6, "Total_Depth_m": 93.7, "Data_Type": "SYNTHETIC_DEMO", "Source_Provenance": "Synthetic borehole trace; 2D plan-view representation" }, "geometry": { "type": "LineString", "coordinates": [ [ 82.684763, 24.124017 ], [ 82.680911429448955, 24.12092841241175 ] ] } },
{ "type": "Feature", "properties": { "Trace_ID": "DUDHICHUA-BH-009-TRACE", "Borehole_ID": "DUDHICHUA-BH-009", "Mine_ID": "M-DUDHICHUA", "Mine_Code": "DUDHICHUA", "Azimuth_deg": 12.5, "Inclination_deg": 71.3, "Total_Depth_m": 214.7, "Data_Type": "SYNTHETIC_DEMO", "Source_Provenance": "Synthetic borehole trace; 2D plan-view representation" }, "geometry": { "type": "LineString", "coordinates": [ [ 82.73848, 24.12518 ], [ 82.744480649320877, 24.126513347939539 ] ] } },
{ "type": "Feature", "properties": { "Trace_ID": "DUDHICHUA-BH-010-TRACE", "Borehole_ID": "DUDHICHUA-BH-010", "Mine_ID": "M-DUDHICHUA", "Mine_Code": "DUDHICHUA", "Azimuth_deg": 280.3, "Inclination_deg": 77.3, "Total_Depth_m": 145.2, "Data_Type": "SYNTHETIC_DEMO", "Source_Provenance": "Synthetic borehole trace; 2D plan-view representation" }, "geometry": { "type": "LineString", "coordinates": [ [ 82.689753, 24.159594 ], [ 82.690724602770629, 24.154229273347493 ] ] } },
{ "type": "Feature", "properties": { "Trace_ID": "DUDHICHUA-BH-011-TRACE", "Borehole_ID": "DUDHICHUA-BH-011", "Mine_ID": "M-DUDHICHUA", "Mine_Code": "DUDHICHUA", "Azimuth_deg": 137.8, "Inclination_deg": 81.3, "Total_Depth_m": 232.2, "Data_Type": "SYNTHETIC_DEMO", "Source_Provenance": "Synthetic borehole trace; 2D plan-view representation" }, "geometry": { "type": "LineString", "coordinates": [ [ 82.734214, 24.135543 ], [ 82.729528589384074, 24.139787362303135 ] ] } },
{ "type": "Feature", "properties": { "Trace_ID": "DUDHICHUA-BH-012-TRACE", "Borehole_ID": "DUDHICHUA-BH-012", "Mine_ID": "M-DUDHICHUA", "Mine_Code": "DUDHICHUA", "Azimuth_deg": 217.8, "Inclination_deg": 83.6, "Total_Depth_m": 186.7, "Data_Type": "SYNTHETIC_DEMO", "Source_Provenance": "Synthetic borehole trace; 2D plan-view representation" }, "geometry": { "type": "LineString", "coordinates": [ [ 82.724638, 24.160282 ], [ 82.720004303915715, 24.156683312795121 ] ] } }
]
}
