{
"type": "FeatureCollection",
"name": "coal_seam_belts",
"crs": { "type": "name", "properties": { "name": "urn:ogc:def:crs:OGC:1.3:CRS84" } },
"features": [
{ "type": "Feature", "properties": { "Seam_ID": "GV-GEV-S1", "Mine_ID": "M-GEVRA", "Mine_Code": "GEVRA", "Feature_Type": "SYNTHETIC_SEAM_BELT", "Width_m": 100, "Data_Type": "SYNTHETIC_DEMO", "Source_Provenance": "Buffered demonstration representation of seam trace" }, "geometry": { "type": "Polygon", "coordinates": [ [ [ 82.525048241681318, 22.195188750830159 ], [ 82.525153112441927, 22.195209814260107 ], [ 82.525259633089249, 22.195219555728443 ], [ 82.525366584862553, 22.195217863777732 ], [ 82.544635320828689, 22.193879884745865 ], [ 82.561966000502835, 22.197445528084188 ], [ 82.562062977125152, 22.19746056408696 ], [ 82.562160960564526, 22.197466022316071 ], [ 82.562259007186867, 22.197461850205791 ], [ 82.562356172749588, 22.197448087935818 ], [ 82.562451521495234, 22.197424868044344 ], [ 82.562544135163236, 22.197392414151611 ], [ 82.562633121833372, 22.197351038806346 ], [ 82.562717624515329, 22.197301140475748 ], [ 82.562796829402117, 22.197243199708012 ], [ 82.56286997370735, 22.197177774504407 ], [ 82.562936353011409, 22.197105494945408 ], [ 82.56299532804529, 22.197027057122682 ], [ 82.563046330847186, 22.19694321643534 ], [ 82.563088870232235, 22.196854780315032 ], [ 82.563122536522911, 22.196762600449944 ], [ 82.563147005494415, 22.196667564582562 ], [ 82.563162041497193, 22.196570587960245 ], [ 82.563167499726305, 22.196472604520874 ], [ 82.563163327616024, 22.19637455789854 ], [ 82.563149565346052, 22.196277392335809 ], [ 82.563126345454577, 22.196182043590166 ], [ 82.563093891561834, 22.196089429922157 ], [ 82.563052516216572, 22.196000443252032 ], [ 82.563002617885971, 22.195915940570071 ], [ 82.562944677118239, 22.19583673568329 ], [ 82.562879251914637, 22.19576359137805 ], [ 82.562806972355645, 22.195697212073995 ], [ 82.562728534532908, 22.195638237040111 ], [ 82.56264469384557, 22.195587234238211 ], [ 82.562556257725262, 22.195544694853162 ], [ 82.56246407786017, 22.195511028562489 ], [ 82.562369041992795, 22.195486559590982 ], [ 82.544904206904917, 22.191893314891015 ], [ 82.544814615785782, 22.191879083001663 ], [ 82.544724103584841, 22.191873028516969 ], [ 82.54463341513744, 22.191875201259993 ], [ 82.525389571355788, 22.193211451832816 ], [ 82.508081550910916, 22.188760225095098 ], [ 82.507985423437106, 22.188740475274013 ], [ 82.507887823022358, 22.188730242693808 ], [ 82.507789689612039, 22.188729625899821 ], [ 82.507691968284533, 22.188738630832116 ], [ 82.507595600149642, 22.18875717076827 ], [ 82.507501513285177, 22.18878506715857 ], [ 82.507410613799081, 22.188822051345518 ], [ 82.50732377710311, 22.188867767151184 ], [ 82.507241839482106, 22.188921774307364 ], [ 82.507165590040131, 22.188983552695621 ], [ 82.507095763101034, 22.189052507356308 ], [ 82.507033031136373, 22.189127974218344 ], [ 82.506977998289273, 22.189209226494597 ], [ 82.506931194556145, 22.189295481681228 ], [ 82.506893070682509, 22.189385909093637 ], [ 82.506863993822122, 22.189479637866409 ], [ 82.506844244001044, 22.18957576534023 ], [ 82.506834011420835, 22.18967336575497 ], [ 82.506833394626852, 22.189771499165289 ], [ 82.506842399559147, 22.189869220492799 ], [ 82.506860939495297, 22.189965588627693 ], [ 82.50688883588559, 22.190059675492151 ], [ 82.506925820072539, 22.19015057497824 ], [ 82.506971535878208, 22.190237411674218 ], [ 82.507025543034388, 22.19031934929523 ], [ 82.507087321422645, 22.190395598737194 ], [ 82.507156276083336, 22.190465425676301 ], [ 82.507231742945379, 22.190528157640959 ], [ 82.507312995221625, 22.190583190488056 ], [ 82.507399250408255, 22.190629994221187 ], [ 82.507489677820658, 22.190668118094816 ], [ 82.50758340659344, 22.190697194955202 ], [ 82.525048241681318, 22.195188750830159 ] ] ] } },
{ "type": "Feature", "properties": { "Seam_ID": "GV-GEV-S2", "Mine_ID": "M-GEVRA", "Mine_Code": "GEVRA", "Feature_Type": "SYNTHETIC_SEAM_BELT", "Width_m": 100, "Data_Type": "SYNTHETIC_DEMO", "Source_Provenance": "Buffered demonstration representation of seam trace" }, "geometry": { "type": "Polygon", "coordinates": [ [ [ 82.525048241681318, 22.201027773467601 ], [ 82.525153112441927, 22.201048836897549 ], [ 82.525259633089249, 22.201058578365885 ], [ 82.525366584862553, 22.201056886415174 ], [ 82.544635320828689, 22.199718907383307 ], [ 82.561966000502835, 22.203284550721627 ], [ 82.562062977125152, 22.203299586724398 ], [ 82.562160960564526, 22.20330504495351 ], [ 82.562259007186867, 22.203300872843229 ], [ 82.562356172749588, 22.203287110573257 ], [ 82.562451521495234, 22.203263890681782 ], [ 82.562544135163236, 22.20323143678905 ], [ 82.562633121833372, 22.203190061443784 ], [ 82.562717624515329, 22.203140163113186 ], [ 82.562796829402117, 22.203082222345451 ], [ 82.56286997370735, 22.203016797141846 ], [ 82.562936353011409, 22.202944517582846 ], [ 82.56299532804529, 22.20286607976012 ], [ 82.563046330847186, 22.202782239072778 ], [ 82.563088870232235, 22.202693802952471 ], [ 82.563122536522911, 22.202601623087382 ], [ 82.563147005494415, 22.20250658722 ], [ 82.563162041497193, 22.202409610597684 ], [ 82.563167499726305, 22.202311627158313 ], [ 82.563163327616024, 22.202213580535979 ], [ 82.563149565346052, 22.202116414973247 ], [ 82.563126345454577, 22.202021066227605 ], [ 82.563093891561834, 22.201928452559596 ], [ 82.563052516216572, 22.201839465889471 ], [ 82.563002617885971, 22.20175496320751 ], [ 82.562944677118239, 22.201675758320729 ], [ 82.562879251914637, 22.201602614015489 ], [ 82.562806972355645, 22.201536234711433 ], [ 82.562728534532908, 22.201477259677549 ], [ 82.56264469384557, 22.201426256875649 ], [ 82.562556257725262, 22.2013837174906 ], [ 82.56246407786017, 22.201350051199928 ], [ 82.562369041992795, 22.201325582228421 ], [ 82.544904206904917, 22.197732337528457 ], [ 82.544814615785782, 22.197718105639105 ], [ 82.544724103584841, 22.197712051154411 ], [ 82.54463341513744, 22.197714223897435 ], [ 82.525389571355788, 22.199050474470258 ], [ 82.508081550910916, 22.19459924773254 ], [ 82.507985423437106, 22.194579497911455 ], [ 82.507887823022358, 22.19456926533125 ], [ 82.507789689612039, 22.194568648537263 ], [ 82.507691968284533, 22.194577653469558 ], [ 82.507595600149642, 22.194596193405712 ], [ 82.507501513285177, 22.194624089796012 ], [ 82.507410613799081, 22.19466107398296 ], [ 82.50732377710311, 22.194706789788626 ], [ 82.507241839482106, 22.194760796944806 ], [ 82.507165590040131, 22.194822575333063 ], [ 82.507095763101034, 22.19489152999375 ], [ 82.507033031136373, 22.194966996855786 ], [ 82.506977998289273, 22.195048249132039 ], [ 82.506931194556145, 22.19513450431867 ], [ 82.506893070682509, 22.195224931731079 ], [ 82.506863993822122, 22.195318660503851 ], [ 82.506844244001044, 22.195414787977672 ], [ 82.506834011420835, 22.195512388392412 ], [ 82.506833394626852, 22.195610521802731 ], [ 82.506842399559147, 22.195708243130241 ], [ 82.506860939495297, 22.195804611265135 ], [ 82.50688883588559, 22.195898698129593 ], [ 82.506925820072539, 22.195989597615682 ], [ 82.506971535878208, 22.19607643431166 ], [ 82.507025543034388, 22.196158371932672 ], [ 82.507087321422645, 22.196234621374636 ], [ 82.507156276083336, 22.196304448313743 ], [ 82.507231742945379, 22.196367180278401 ], [ 82.507312995221625, 22.196422213125498 ], [ 82.507399250408255, 22.196469016858629 ], [ 82.507489677820658, 22.196507140732258 ], [ 82.50758340659344, 22.196536217592644 ], [ 82.525048241681318, 22.201027773467601 ] ] ] } },
{ "type": "Feature", "properties": { "Seam_ID": "GV-GEV-S3", "Mine_ID": "M-GEVRA", "Mine_Code": "GEVRA", "Feature_Type": "SYNTHETIC_SEAM_BELT", "Width_m": 100, "Data_Type": "SYNTHETIC_DEMO", "Source_Provenance": "Buffered demonstration representation of seam trace" }, "geometry": { "type": "Polygon", "coordinates": [ [ [ 82.525048241681318, 22.206866796105043 ], [ 82.525153112441927, 22.206887859534991 ], [ 82.525259633089249, 22.206897601003327 ], [ 82.525366584862553, 22.206895909052616 ], [ 82.544635320828689, 22.205557930020749 ], [ 82.561966000502835, 22.209123573359069 ], [ 82.562062977125152, 22.20913860936184 ], [ 82.562160960564526, 22.209144067590952 ], [ 82.562259007186867, 22.209139895480671 ], [ 82.562356172749588, 22.209126133210699 ], [ 82.562451521495234, 22.209102913319224 ], [ 82.562544135163236, 22.209070459426492 ], [ 82.562633121833372, 22.209029084081227 ], [ 82.562717624515329, 22.208979185750628 ], [ 82.562796829402117, 22.208921244982893 ], [ 82.56286997370735, 22.208855819779288 ], [ 82.562936353011409, 22.208783540220288 ], [ 82.56299532804529, 22.208705102397563 ], [ 82.563046330847186, 22.208621261710221 ], [ 82.563088870232235, 22.208532825589913 ], [ 82.563122536522911, 22.208440645724824 ], [ 82.563147005494415, 22.208345609857442 ], [ 82.563162041497193, 22.208248633235126 ], [ 82.563167499726305, 22.208150649795755 ], [ 82.563163327616024, 22.208052603173421 ], [ 82.563149565346052, 22.207955437610689 ], [ 82.563126345454577, 22.207860088865047 ], [ 82.563093891561834, 22.207767475197038 ], [ 82.563052516216572, 22.207678488526913 ], [ 82.563002617885971, 22.207593985844952 ], [ 82.562944677118239, 22.207514780958171 ], [ 82.562879251914637, 22.207441636652931 ], [ 82.562806972355645, 22.207375257348875 ], [ 82.562728534532908, 22.207316282314991 ], [ 82.56264469384557, 22.207265279513091 ], [ 82.562556257725262, 22.207222740128042 ], [ 82.56246407786017, 22.20718907383737 ], [ 82.562369041992795, 22.207164604865863 ], [ 82.544904206904917, 22.203571360165899 ], [ 82.544814615785782, 22.203557128276547 ], [ 82.544724103584841, 22.203551073791854 ], [ 82.54463341513744, 22.203553246534877 ], [ 82.525389571355788, 22.2048894971077 ], [ 82.508081550910916, 22.200438270369983 ], [ 82.507985423437106, 22.200418520548897 ], [ 82.507887823022358, 22.200408287968692 ], [ 82.507789689612039, 22.200407671174705 ], [ 82.507691968284533, 22.200416676107 ], [ 82.507595600149642, 22.200435216043154 ], [ 82.507501513285177, 22.200463112433454 ], [ 82.507410613799081, 22.200500096620402 ], [ 82.50732377710311, 22.200545812426068 ], [ 82.507241839482106, 22.200599819582248 ], [ 82.507165590040131, 22.200661597970505 ], [ 82.507095763101034, 22.200730552631192 ], [ 82.507033031136373, 22.200806019493228 ], [ 82.506977998289273, 22.200887271769481 ], [ 82.506931194556145, 22.200973526956112 ], [ 82.506893070682509, 22.201063954368522 ], [ 82.506863993822122, 22.201157683141293 ], [ 82.506844244001044, 22.201253810615114 ], [ 82.506834011420835, 22.201351411029854 ], [ 82.506833394626852, 22.201449544440173 ], [ 82.506842399559147, 22.201547265767683 ], [ 82.506860939495297, 22.201643633902577 ], [ 82.50688883588559, 22.201737720767035 ], [ 82.506925820072539, 22.201828620253124 ], [ 82.506971535878208, 22.201915456949102 ], [ 82.507025543034388, 22.201997394570114 ], [ 82.507087321422645, 22.202073644012078 ], [ 82.507156276083336, 22.202143470951185 ], [ 82.507231742945379, 22.202206202915843 ], [ 82.507312995221625, 22.20226123576294 ], [ 82.507399250408255, 22.202308039496071 ], [ 82.507489677820658, 22.2023461633697 ], [ 82.50758340659344, 22.202375240230086 ], [ 82.525048241681318, 22.206866796105043 ] ] ] } },
{ "type": "Feature", "properties": { "Seam_ID": "GV-GEV-S4", "Mine_ID": "M-GEVRA", "Mine_Code": "GEVRA", "Feature_Type": "SYNTHETIC_SEAM_BELT", "Width_m": 100, "Data_Type": "SYNTHETIC_DEMO", "Source_Provenance": "Buffered demonstration representation of seam trace" }, "geometry": { "type": "Polygon", "coordinates": [ [ [ 82.525048241681318, 22.212705818742482 ], [ 82.525153112441927, 22.212726882172429 ], [ 82.525259633089249, 22.212736623640765 ], [ 82.525366584862553, 22.212734931690054 ], [ 82.544635320828689, 22.211396952658191 ], [ 82.561966000502835, 22.214962595996511 ], [ 82.562062977125152, 22.214977631999282 ], [ 82.562160960564526, 22.214983090228394 ], [ 82.562259007186867, 22.214978918118113 ], [ 82.562356172749588, 22.214965155848141 ], [ 82.562451521495234, 22.214941935956666 ], [ 82.562544135163236, 22.214909482063934 ], [ 82.562633121833372, 22.214868106718669 ], [ 82.562717624515329, 22.214818208388071 ], [ 82.562796829402117, 22.214760267620335 ], [ 82.56286997370735, 22.21469484241673 ], [ 82.562936353011409, 22.214622562857731 ], [ 82.56299532804529, 22.214544125035005 ], [ 82.563046330847186, 22.214460284347663 ], [ 82.563088870232235, 22.214371848227355 ], [ 82.563122536522911, 22.214279668362266 ], [ 82.563147005494415, 22.214184632494884 ], [ 82.563162041497193, 22.214087655872568 ], [ 82.563167499726305, 22.213989672433197 ], [ 82.563163327616024, 22.213891625810863 ], [ 82.563149565346052, 22.213794460248131 ], [ 82.563126345454577, 22.213699111502489 ], [ 82.563093891561834, 22.21360649783448 ], [ 82.563052516216572, 22.213517511164355 ], [ 82.563002617885971, 22.213433008482394 ], [ 82.562944677118239, 22.213353803595613 ], [ 82.562879251914637, 22.213280659290373 ], [ 82.562806972355645, 22.213214279986317 ], [ 82.562728534532908, 22.213155304952434 ], [ 82.56264469384557, 22.213104302150533 ], [ 82.562556257725262, 22.213061762765484 ], [ 82.56246407786017, 22.213028096474812 ], [ 82.562369041992795, 22.213003627503305 ], [ 82.544904206904917, 22.209410382803341 ], [ 82.544814615785782, 22.209396150913989 ], [ 82.544724103584841, 22.209390096429296 ], [ 82.54463341513744, 22.209392269172319 ], [ 82.525389571355788, 22.210728519745139 ], [ 82.508081550910916, 22.206277293007425 ], [ 82.507985423437106, 22.206257543186339 ], [ 82.507887823022358, 22.206247310606134 ], [ 82.507789689612039, 22.206246693812147 ], [ 82.507691968284533, 22.206255698744442 ], [ 82.507595600149642, 22.206274238680596 ], [ 82.507501513285177, 22.206302135070896 ], [ 82.507410613799081, 22.206339119257844 ], [ 82.50732377710311, 22.20638483506351 ], [ 82.507241839482106, 22.20643884221969 ], [ 82.507165590040131, 22.206500620607947 ], [ 82.507095763101034, 22.206569575268635 ], [ 82.507033031136373, 22.20664504213067 ], [ 82.506977998289273, 22.206726294406923 ], [ 82.506931194556145, 22.206812549593554 ], [ 82.506893070682509, 22.206902977005964 ], [ 82.506863993822122, 22.206996705778735 ], [ 82.506844244001044, 22.207092833252556 ], [ 82.506834011420835, 22.207190433667297 ], [ 82.506833394626852, 22.207288567077615 ], [ 82.506842399559147, 22.207386288405125 ], [ 82.506860939495297, 22.207482656540019 ], [ 82.50688883588559, 22.207576743404481 ], [ 82.506925820072539, 22.207667642890566 ], [ 82.506971535878208, 22.207754479586544 ], [ 82.507025543034388, 22.207836417207556 ], [ 82.507087321422645, 22.20791266664952 ], [ 82.507156276083336, 22.207982493588627 ], [ 82.507231742945379, 22.208045225553285 ], [ 82.507312995221625, 22.208100258400382 ], [ 82.507399250408255, 22.208147062133513 ], [ 82.507489677820658, 22.208185186007142 ], [ 82.50758340659344, 22.208214262867529 ], [ 82.525048241681318, 22.212705818742482 ] ] ] } },
{ "type": "Feature", "properties": { "Seam_ID": "GV-GEV-S5", "Mine_ID": "M-GEVRA", "Mine_Code": "GEVRA", "Feature_Type": "SYNTHETIC_SEAM_BELT", "Width_m": 100, "Data_Type": "SYNTHETIC_DEMO", "Source_Provenance": "Buffered demonstration representation of seam trace" }, "geometry": { "type": "Polygon", "coordinates": [ [ [ 82.525048241681318, 22.218544841379924 ], [ 82.525153112441927, 22.218565904809871 ], [ 82.525259633089249, 22.218575646278207 ], [ 82.525366584862553, 22.218573954327496 ], [ 82.544635320828689, 22.217235975295633 ], [ 82.561966000502835, 22.220801618633953 ], [ 82.562062977125152, 22.220816654636725 ], [ 82.562160960564526, 22.220822112865836 ], [ 82.562259007186867, 22.220817940755555 ], [ 82.562356172749588, 22.220804178485583 ], [ 82.562451521495234, 22.220780958594109 ], [ 82.562544135163236, 22.220748504701376 ], [ 82.562633121833372, 22.220707129356111 ], [ 82.562717624515329, 22.220657231025513 ], [ 82.562796829402117, 22.220599290257777 ], [ 82.56286997370735, 22.220533865054172 ], [ 82.562936353011409, 22.220461585495173 ], [ 82.56299532804529, 22.220383147672447 ], [ 82.563046330847186, 22.220299306985105 ], [ 82.563088870232235, 22.220210870864797 ], [ 82.563122536522911, 22.220118690999708 ], [ 82.563147005494415, 22.220023655132326 ], [ 82.563162041497193, 22.21992667851001 ], [ 82.563167499726305, 22.219828695070639 ], [ 82.563163327616024, 22.219730648448305 ], [ 82.563149565346052, 22.219633482885573 ], [ 82.563126345454577, 22.219538134139931 ], [ 82.563093891561834, 22.219445520471922 ], [ 82.563052516216572, 22.219356533801797 ], [ 82.563002617885971, 22.219272031119836 ], [ 82.562944677118239, 22.219192826233055 ], [ 82.562879251914637, 22.219119681927815 ], [ 82.562806972355645, 22.21905330262376 ], [ 82.562728534532908, 22.218994327589876 ], [ 82.56264469384557, 22.218943324787976 ], [ 82.562556257725262, 22.218900785402926 ], [ 82.56246407786017, 22.218867119112254 ], [ 82.562369041992795, 22.218842650140747 ], [ 82.544904206904917, 22.215249405440783 ], [ 82.544814615785782, 22.215235173551431 ], [ 82.544724103584841, 22.215229119066738 ], [ 82.54463341513744, 22.215231291809761 ], [ 82.525389571355788, 22.216567542382581 ], [ 82.508081550910916, 22.212116315644867 ], [ 82.507985423437106, 22.212096565823781 ], [ 82.507887823022358, 22.212086333243576 ], [ 82.507789689612039, 22.21208571644959 ], [ 82.507691968284533, 22.212094721381884 ], [ 82.507595600149642, 22.212113261318038 ], [ 82.507501513285177, 22.212141157708338 ], [ 82.507410613799081, 22.212178141895286 ], [ 82.50732377710311, 22.212223857700952 ], [ 82.507241839482106, 22.212277864857132 ], [ 82.507165590040131, 22.212339643245389 ], [ 82.507095763101034, 22.212408597906077 ], [ 82.507033031136373, 22.212484064768113 ], [ 82.506977998289273, 22.212565317044366 ], [ 82.506931194556145, 22.212651572230996 ], [ 82.506893070682509, 22.212741999643406 ], [ 82.506863993822122, 22.212835728416177 ], [ 82.506844244001044, 22.212931855889998 ], [ 82.506834011420835, 22.213029456304739 ], [ 82.506833394626852, 22.213127589715057 ], [ 82.506842399559147, 22.213225311042567 ], [ 82.506860939495297, 22.213321679177461 ], [ 82.50688883588559, 22.213415766041923 ], [ 82.506925820072539, 22.213506665528008 ], [ 82.506971535878208, 22.213593502223986 ], [ 82.507025543034388, 22.213675439844998 ], [ 82.507087321422645, 22.213751689286962 ], [ 82.507156276083336, 22.213821516226069 ], [ 82.507231742945379, 22.213884248190727 ], [ 82.507312995221625, 22.213939281037824 ], [ 82.507399250408255, 22.213986084770955 ], [ 82.507489677820658, 22.214024208644584 ], [ 82.50758340659344, 22.214053285504971 ], [ 82.525048241681318, 22.218544841379924 ] ] ] } },
{ "type": "Feature", "properties": { "Seam_ID": "GV-KUS-S1", "Mine_ID": "M-KUSMUNDA", "Mine_Code": "KUSMUNDA", "Feature_Type": "SYNTHETIC_SEAM_BELT", "Width_m": 100, "Data_Type": "SYNTHETIC_DEMO", "Source_Provenance": "Buffered demonstration representation of seam trace" }, "geometry": { "type": "Polygon", "coordinates": [ [ [ 82.665041476246074, 22.298108305032212 ], [ 82.665146277547407, 22.298129339759715 ], [ 82.66525272534885, 22.298139067970727 ], [ 82.665359603402052, 22.298137378512923 ], [ 82.684642300066926, 22.296799386030941 ], [ 82.70198554881793, 22.300365067793361 ], [ 82.702082527558304, 22.300380090129135 ], [ 82.702180511765917, 22.300385534549452 ], [ 82.702278557799303, 22.300381348621571 ], [ 82.702375721421561, 22.300367572658264 ], [ 82.702471066893892, 22.300344339329587 ], [ 82.702563675987278, 22.300311872385194 ], [ 82.702652656825521, 22.300270484499514 ], [ 82.702737152474512, 22.300220574260504 ], [ 82.702816349194961, 22.300162622331055 ], [ 82.70288948427914, 22.300097186819926 ], [ 82.702955853396233, 22.300024897906855 ], [ 82.703014817375333, 22.2999464517736 ], [ 82.703065808361117, 22.2998626038993 ], [ 82.703108335282508, 22.299774161784825 ], [ 82.703141988582004, 22.299681977176082 ], [ 82.703166444159933, 22.29958693786125 ], [ 82.703181466495707, 22.299489959120883 ], [ 82.703186910916017, 22.299391974913263 ], [ 82.703182724988139, 22.299293928879873 ], [ 82.703168949024828, 22.299196765257612 ], [ 82.703145715696152, 22.299101419785281 ], [ 82.703113248751762, 22.299008810691898 ], [ 82.703071860866075, 22.298919829853652 ], [ 82.703021950627075, 22.298835334204668 ], [ 82.702963998697626, 22.298756137484226 ], [ 82.702898563186494, 22.29868300240004 ], [ 82.70282627427342, 22.298616633282954 ], [ 82.702747828140161, 22.298557669303843 ], [ 82.702663980265868, 22.298506678318059 ], [ 82.702575538151393, 22.298464151396669 ], [ 82.702483353542647, 22.298430498097176 ], [ 82.702388314227818, 22.29840604251925 ], [ 82.684911001105974, 22.294812797819286 ], [ 82.684821471006657, 22.294798585648049 ], [ 82.684731021744611, 22.294792539534139 ], [ 82.684640396597942, 22.294794709162247 ], [ 82.665382575473657, 22.296130975574123 ], [ 82.648061973830011, 22.29167969353049 ], [ 82.647965842956111, 22.291659960265733 ], [ 82.647868240780454, 22.291649744495398 ], [ 82.647770107265359, 22.291649144602935 ], [ 82.647672387490232, 22.291658166365639 ], [ 82.647576022549899, 22.291676722899005 ], [ 82.647481940491431, 22.291704635493467 ], [ 82.647391047376473, 22.291741635335487 ], [ 82.647304218555419, 22.291787366096358 ], [ 82.647222290237266, 22.291841387363853 ], [ 82.647146051436536, 22.291903178883633 ], [ 82.647076236374517, 22.291972145569591 ], [ 82.647013517408453, 22.292047623234833 ], [ 82.646958498556245, 22.292128884988188 ], [ 82.646911709679543, 22.292215148234547 ], [ 82.64687360138079, 22.292305582211689 ], [ 82.646844540663736, 22.292399315990977 ], [ 82.646824807398986, 22.292495446864883 ], [ 82.64681459162864, 22.292593049040537 ], [ 82.646813991736181, 22.292691182555629 ], [ 82.646823013498889, 22.29278890233077 ], [ 82.646841570032251, 22.2928852672711 ], [ 82.646869482626713, 22.29297934932957 ], [ 82.646906482468736, 22.293070242444525 ], [ 82.646952213229596, 22.293157071265579 ], [ 82.647006234497098, 22.293238999583725 ], [ 82.647068026016882, 22.293315238384466 ], [ 82.647136992702841, 22.293385053446478 ], [ 82.647212470368075, 22.293447772412549 ], [ 82.64729373212144, 22.29350279126475 ], [ 82.647379995367785, 22.293549580141455 ], [ 82.647470429344935, 22.293587688440208 ], [ 82.64756416312423, 22.293616749157259 ], [ 82.665041476246074, 22.298108305032212 ] ] ] } },
{ "type": "Feature", "properties": { "Seam_ID": "GV-KUS-S2", "Mine_ID": "M-KUSMUNDA", "Mine_Code": "KUSMUNDA", "Feature_Type": "SYNTHETIC_SEAM_BELT", "Width_m": 100, "Data_Type": "SYNTHETIC_DEMO", "Source_Provenance": "Buffered demonstration representation of seam trace" }, "geometry": { "type": "Polygon", "coordinates": [ [ [ 82.665041476246074, 22.303947327669654 ], [ 82.665146277547407, 22.303968362397157 ], [ 82.66525272534885, 22.303978090608169 ], [ 82.665359603402052, 22.303976401150365 ], [ 82.684642300066926, 22.302638408668383 ], [ 82.70198554881793, 22.306204090430803 ], [ 82.702082527558304, 22.306219112766577 ], [ 82.702180511765917, 22.306224557186894 ], [ 82.702278557799303, 22.306220371259013 ], [ 82.702375721421561, 22.306206595295706 ], [ 82.702471066893892, 22.30618336196703 ], [ 82.702563675987278, 22.306150895022636 ], [ 82.702652656825521, 22.306109507136956 ], [ 82.702737152474512, 22.306059596897946 ], [ 82.702816349194961, 22.306001644968497 ], [ 82.70288948427914, 22.305936209457368 ], [ 82.702955853396233, 22.305863920544297 ], [ 82.703014817375333, 22.305785474411042 ], [ 82.703065808361117, 22.305701626536742 ], [ 82.703108335282508, 22.305613184422267 ], [ 82.703141988582004, 22.305520999813524 ], [ 82.703166444159933, 22.305425960498692 ], [ 82.703181466495707, 22.305328981758326 ], [ 82.703186910916017, 22.305230997550705 ], [ 82.703182724988139, 22.305132951517315 ], [ 82.703168949024828, 22.305035787895054 ], [ 82.703145715696152, 22.304940442422723 ], [ 82.703113248751762, 22.30484783332934 ], [ 82.703071860866075, 22.304758852491094 ], [ 82.703021950627075, 22.30467435684211 ], [ 82.702963998697626, 22.304595160121668 ], [ 82.702898563186494, 22.304522025037482 ], [ 82.70282627427342, 22.304455655920396 ], [ 82.702747828140161, 22.304396691941285 ], [ 82.702663980265868, 22.304345700955501 ], [ 82.702575538151393, 22.304303174034111 ], [ 82.702483353542647, 22.304269520734618 ], [ 82.702388314227818, 22.304245065156692 ], [ 82.684911001105974, 22.300651820456729 ], [ 82.684821471006657, 22.300637608285491 ], [ 82.684731021744611, 22.300631562171581 ], [ 82.684640396597942, 22.300633731799689 ], [ 82.665382575473657, 22.301969998211565 ], [ 82.648061973830011, 22.297518716167929 ], [ 82.647965842956111, 22.297498982903171 ], [ 82.647868240780454, 22.297488767132837 ], [ 82.647770107265359, 22.297488167240374 ], [ 82.647672387490232, 22.297497189003078 ], [ 82.647576022549899, 22.297515745536444 ], [ 82.647481940491431, 22.297543658130905 ], [ 82.647391047376473, 22.297580657972926 ], [ 82.647304218555419, 22.297626388733793 ], [ 82.647222290237266, 22.297680410001291 ], [ 82.647146051436536, 22.297742201521071 ], [ 82.647076236374517, 22.29781116820703 ], [ 82.647013517408453, 22.297886645872271 ], [ 82.646958498556245, 22.297967907625626 ], [ 82.646911709679543, 22.298054170871985 ], [ 82.64687360138079, 22.298144604849128 ], [ 82.646844540663736, 22.298238338628416 ], [ 82.646824807398986, 22.298334469502322 ], [ 82.64681459162864, 22.298432071677976 ], [ 82.646813991736181, 22.298530205193067 ], [ 82.646823013498889, 22.298627924968208 ], [ 82.646841570032251, 22.298724289908538 ], [ 82.646869482626713, 22.298818371967009 ], [ 82.646906482468736, 22.298909265081964 ], [ 82.646952213229596, 22.298996093903018 ], [ 82.647006234497098, 22.299078022221163 ], [ 82.647068026016882, 22.299154261021904 ], [ 82.647136992702841, 22.299224076083917 ], [ 82.647212470368075, 22.299286795049987 ], [ 82.64729373212144, 22.299341813902188 ], [ 82.647379995367785, 22.299388602778894 ], [ 82.647470429344935, 22.299426711077647 ], [ 82.64756416312423, 22.299455771794698 ], [ 82.665041476246074, 22.303947327669654 ] ] ] } },
{ "type": "Feature", "properties": { "Seam_ID": "GV-KUS-S3", "Mine_ID": "M-KUSMUNDA", "Mine_Code": "KUSMUNDA", "Feature_Type": "SYNTHETIC_SEAM_BELT", "Width_m": 100, "Data_Type": "SYNTHETIC_DEMO", "Source_Provenance": "Buffered demonstration representation of seam trace" }, "geometry": { "type": "Polygon", "coordinates": [ [ [ 82.665041476246074, 22.309786350307096 ], [ 82.665146277547407, 22.309807385034599 ], [ 82.66525272534885, 22.309817113245611 ], [ 82.665359603402052, 22.309815423787807 ], [ 82.684642300066926, 22.308477431305825 ], [ 82.70198554881793, 22.312043113068246 ], [ 82.702082527558304, 22.312058135404019 ], [ 82.702180511765917, 22.312063579824336 ], [ 82.702278557799303, 22.312059393896455 ], [ 82.702375721421561, 22.312045617933148 ], [ 82.702471066893892, 22.312022384604472 ], [ 82.702563675987278, 22.311989917660078 ], [ 82.702652656825521, 22.311948529774398 ], [ 82.702737152474512, 22.311898619535388 ], [ 82.702816349194961, 22.311840667605939 ], [ 82.70288948427914, 22.31177523209481 ], [ 82.702955853396233, 22.311702943181739 ], [ 82.703014817375333, 22.311624497048484 ], [ 82.703065808361117, 22.311540649174184 ], [ 82.703108335282508, 22.311452207059709 ], [ 82.703141988582004, 22.311360022450966 ], [ 82.703166444159933, 22.311264983136134 ], [ 82.703181466495707, 22.311168004395768 ], [ 82.703186910916017, 22.311070020188147 ], [ 82.703182724988139, 22.310971974154757 ], [ 82.703168949024828, 22.310874810532496 ], [ 82.703145715696152, 22.310779465060165 ], [ 82.703113248751762, 22.310686855966782 ], [ 82.703071860866075, 22.310597875128536 ], [ 82.703021950627075, 22.310513379479552 ], [ 82.702963998697626, 22.31043418275911 ], [ 82.702898563186494, 22.310361047674924 ], [ 82.70282627427342, 22.310294678557838 ], [ 82.702747828140161, 22.310235714578727 ], [ 82.702663980265868, 22.310184723592943 ], [ 82.702575538151393, 22.310142196671553 ], [ 82.702483353542647, 22.31010854337206 ], [ 82.702388314227818, 22.310084087794134 ], [ 82.684911001105974, 22.306490843094171 ], [ 82.684821471006657, 22.306476630922933 ], [ 82.684731021744611, 22.306470584809023 ], [ 82.684640396597942, 22.306472754437131 ], [ 82.665382575473657, 22.307809020849007 ], [ 82.648061973830011, 22.303357738805371 ], [ 82.647965842956111, 22.303338005540613 ], [ 82.647868240780454, 22.303327789770279 ], [ 82.647770107265359, 22.303327189877816 ], [ 82.647672387490232, 22.30333621164052 ], [ 82.647576022549899, 22.303354768173886 ], [ 82.647481940491431, 22.303382680768348 ], [ 82.647391047376473, 22.303419680610368 ], [ 82.647304218555419, 22.303465411371235 ], [ 82.647222290237266, 22.303519432638733 ], [ 82.647146051436536, 22.303581224158513 ], [ 82.647076236374517, 22.303650190844472 ], [ 82.647013517408453, 22.303725668509713 ], [ 82.646958498556245, 22.303806930263068 ], [ 82.646911709679543, 22.303893193509428 ], [ 82.64687360138079, 22.30398362748657 ], [ 82.646844540663736, 22.304077361265858 ], [ 82.646824807398986, 22.304173492139764 ], [ 82.64681459162864, 22.304271094315418 ], [ 82.646813991736181, 22.304369227830509 ], [ 82.646823013498889, 22.304466947605651 ], [ 82.646841570032251, 22.30456331254598 ], [ 82.646869482626713, 22.304657394604451 ], [ 82.646906482468736, 22.304748287719406 ], [ 82.646952213229596, 22.30483511654046 ], [ 82.647006234497098, 22.304917044858605 ], [ 82.647068026016882, 22.304993283659346 ], [ 82.647136992702841, 22.305063098721359 ], [ 82.647212470368075, 22.305125817687429 ], [ 82.64729373212144, 22.30518083653963 ], [ 82.647379995367785, 22.305227625416336 ], [ 82.647470429344935, 22.305265733715089 ], [ 82.64756416312423, 22.30529479443214 ], [ 82.665041476246074, 22.309786350307096 ] ] ] } },
{ "type": "Feature", "properties": { "Seam_ID": "GV-KUS-S4", "Mine_ID": "M-KUSMUNDA", "Mine_Code": "KUSMUNDA", "Feature_Type": "SYNTHETIC_SEAM_BELT", "Width_m": 100, "Data_Type": "SYNTHETIC_DEMO", "Source_Provenance": "Buffered demonstration representation of seam trace" }, "geometry": { "type": "Polygon", "coordinates": [ [ [ 82.665041476246074, 22.315625372944538 ], [ 82.665146277547407, 22.315646407672041 ], [ 82.66525272534885, 22.315656135883053 ], [ 82.665359603402052, 22.315654446425249 ], [ 82.684642300066926, 22.314316453943267 ], [ 82.70198554881793, 22.317882135705688 ], [ 82.702082527558304, 22.317897158041461 ], [ 82.702180511765917, 22.317902602461778 ], [ 82.702278557799303, 22.317898416533897 ], [ 82.702375721421561, 22.31788464057059 ], [ 82.702471066893892, 22.317861407241914 ], [ 82.702563675987278, 22.31782894029752 ], [ 82.702652656825521, 22.31778755241184 ], [ 82.702737152474512, 22.31773764217283 ], [ 82.702816349194961, 22.317679690243381 ], [ 82.70288948427914, 22.317614254732252 ], [ 82.702955853396233, 22.317541965819181 ], [ 82.703014817375333, 22.317463519685926 ], [ 82.703065808361117, 22.317379671811626 ], [ 82.703108335282508, 22.317291229697151 ], [ 82.703141988582004, 22.317199045088408 ], [ 82.703166444159933, 22.317104005773576 ], [ 82.703181466495707, 22.31700702703321 ], [ 82.703186910916017, 22.316909042825589 ], [ 82.703182724988139, 22.316810996792199 ], [ 82.703168949024828, 22.316713833169938 ], [ 82.703145715696152, 22.316618487697607 ], [ 82.703113248751762, 22.316525878604224 ], [ 82.703071860866075, 22.316436897765978 ], [ 82.703021950627075, 22.316352402116994 ], [ 82.702963998697626, 22.316273205396552 ], [ 82.702898563186494, 22.316200070312366 ], [ 82.70282627427342, 22.31613370119528 ], [ 82.702747828140161, 22.316074737216169 ], [ 82.702663980265868, 22.316023746230385 ], [ 82.702575538151393, 22.315981219308995 ], [ 82.702483353542647, 22.315947566009502 ], [ 82.702388314227818, 22.315923110431577 ], [ 82.684911001105974, 22.312329865731613 ], [ 82.684821471006657, 22.312315653560375 ], [ 82.684731021744611, 22.312309607446466 ], [ 82.684640396597942, 22.312311777074573 ], [ 82.665382575473657, 22.313648043486449 ], [ 82.648061973830011, 22.309196761442813 ], [ 82.647965842956111, 22.309177028178055 ], [ 82.647868240780454, 22.309166812407721 ], [ 82.647770107265359, 22.309166212515258 ], [ 82.647672387490232, 22.309175234277962 ], [ 82.647576022549899, 22.309193790811328 ], [ 82.647481940491431, 22.30922170340579 ], [ 82.647391047376473, 22.30925870324781 ], [ 82.647304218555419, 22.309304434008677 ], [ 82.647222290237266, 22.309358455276175 ], [ 82.647146051436536, 22.309420246795955 ], [ 82.647076236374517, 22.309489213481914 ], [ 82.647013517408453, 22.309564691147155 ], [ 82.646958498556245, 22.30964595290051 ], [ 82.646911709679543, 22.30973221614687 ], [ 82.64687360138079, 22.309822650124012 ], [ 82.646844540663736, 22.3099163839033 ], [ 82.646824807398986, 22.310012514777206 ], [ 82.64681459162864, 22.31011011695286 ], [ 82.646813991736181, 22.310208250467952 ], [ 82.646823013498889, 22.310305970243093 ], [ 82.646841570032251, 22.310402335183422 ], [ 82.646869482626713, 22.310496417241893 ], [ 82.646906482468736, 22.310587310356848 ], [ 82.646952213229596, 22.310674139177902 ], [ 82.647006234497098, 22.310756067496047 ], [ 82.647068026016882, 22.310832306296788 ], [ 82.647136992702841, 22.310902121358801 ], [ 82.647212470368075, 22.310964840324871 ], [ 82.64729373212144, 22.311019859177073 ], [ 82.647379995367785, 22.311066648053778 ], [ 82.647470429344935, 22.311104756352531 ], [ 82.64756416312423, 22.311133817069582 ], [ 82.665041476246074, 22.315625372944538 ] ] ] } },
{ "type": "Feature", "properties": { "Seam_ID": "GV-DIP-S1", "Mine_ID": "M-DIPKA", "Mine_Code": "DIPKA", "Feature_Type": "SYNTHETIC_SEAM_BELT", "Width_m": 100, "Data_Type": "SYNTHETIC_DEMO", "Source_Provenance": "Buffered demonstration representation of seam trace" }, "geometry": { "type": "Polygon", "coordinates": [ [ [ 82.525040593892427, 22.311108310618643 ], [ 82.525145386141503, 22.311129341607074 ], [ 82.525251824449697, 22.311139068091048 ], [ 82.525358692895793, 22.311137378957955 ], [ 82.544643210283709, 22.309799384723931 ], [ 82.561988098265644, 22.313365071491702 ], [ 82.562085077281893, 22.313380092046405 ], [ 82.562183061589479, 22.313385534667191 ], [ 82.562281107545985, 22.313381346938638 ], [ 82.562378270915218, 22.31336756919087 ], [ 82.56247361596084, 22.313344334111122 ], [ 82.562566224457939, 22.31331186546592 ], [ 82.562655204536057, 22.313270475946062 ], [ 82.562739699268406, 22.313220564155255 ], [ 82.562818894924504, 22.313162610771322 ], [ 82.562892028806928, 22.313097173917036 ], [ 82.562958396596372, 22.313024883785072 ], [ 82.563017359134761, 22.312946436568925 ], [ 82.563068348580629, 22.312862587758161 ], [ 82.563110873877719, 22.312774144862672 ], [ 82.563144525484191, 22.312681959635885 ], [ 82.563168979316657, 22.312586919871926 ], [ 82.56318399987137, 22.312489940855681 ], [ 82.563189442492146, 22.312391956548087 ], [ 82.563185254763596, 22.312293910591592 ], [ 82.563171477015828, 22.312196747222352 ], [ 82.563148241936076, 22.312101402176729 ], [ 82.563115773290875, 22.312008793679635 ], [ 82.563074383771024, 22.311919813601516 ], [ 82.563024471980214, 22.311835318869175 ], [ 82.562966518596284, 22.311756123213065 ], [ 82.562901081741998, 22.311682989330652 ], [ 82.562828791610031, 22.311616621541202 ], [ 82.562750344393876, 22.311557659002808 ], [ 82.562666495583116, 22.311506669556945 ], [ 82.562578052687627, 22.311464144259851 ], [ 82.562485867460836, 22.311430492653386 ], [ 82.562390827696888, 22.311406038820913 ], [ 82.544911887208926, 22.307812794120949 ], [ 82.544822365061734, 22.307798584518327 ], [ 82.544731924001738, 22.307792539494855 ], [ 82.5446413071042, 22.307794708717218 ], [ 82.525381663087785, 22.309130977192332 ], [ 82.508059420632989, 22.304679687944063 ], [ 82.507963289316194, 22.304659956836964 ], [ 82.507865686911273, 22.304649743257311 ], [ 82.507767553382735, 22.304649145567453 ], [ 82.507669833810112, 22.304658169523471 ], [ 82.507573469286314, 22.304676728219739 ], [ 82.50747938785436, 22.304704642925863 ], [ 82.507388495569884, 22.304741644807965 ], [ 82.50730166777528, 22.304787377517695 ], [ 82.507219740669669, 22.304841400624056 ], [ 82.507143503255847, 22.304903193855001 ], [ 82.507073689741816, 22.304972162107937 ], [ 82.507010972469843, 22.305047641180884 ], [ 82.506955955441583, 22.305128904169116 ], [ 82.506909168501068, 22.305215168465626 ], [ 82.506871062232108, 22.305305603298084 ], [ 82.506842003618914, 22.305399337729618 ], [ 82.506822272511812, 22.305495469046413 ], [ 82.506812058932155, 22.305593071451334 ], [ 82.506811461242307, 22.305691204979865 ], [ 82.506820485198318, 22.305788924552488 ], [ 82.506839043894587, 22.305885289076294 ], [ 82.50686695860071, 22.305979370508243 ], [ 82.506903960482816, 22.306070262792716 ], [ 82.506949693192553, 22.306157090587323 ], [ 82.507003716298911, 22.306239017692942 ], [ 82.507065509529852, 22.306315255106753 ], [ 82.507134477782785, 22.306385068620795 ], [ 82.507209956855732, 22.306447785892754 ], [ 82.507291219843964, 22.306502802921024 ], [ 82.507377484140477, 22.306549589861543 ], [ 82.507467918972935, 22.306587696130499 ], [ 82.507561653404466, 22.30661675474369 ], [ 82.525040593892427, 22.311108310618643 ] ] ] } },
{ "type": "Feature", "properties": { "Seam_ID": "GV-DIP-S2", "Mine_ID": "M-DIPKA", "Mine_Code": "DIPKA", "Feature_Type": "SYNTHETIC_SEAM_BELT", "Width_m": 100, "Data_Type": "SYNTHETIC_DEMO", "Source_Provenance": "Buffered demonstration representation of seam trace" }, "geometry": { "type": "Polygon", "coordinates": [ [ [ 82.525040593892427, 22.316947333256085 ], [ 82.525145386141503, 22.316968364244516 ], [ 82.525251824449697, 22.31697809072849 ], [ 82.525358692895793, 22.316976401595397 ], [ 82.544643210283709, 22.315638407361373 ], [ 82.561988098265644, 22.319204094129145 ], [ 82.562085077281893, 22.319219114683847 ], [ 82.562183061589479, 22.319224557304633 ], [ 82.562281107545985, 22.31922036957608 ], [ 82.562378270915218, 22.319206591828312 ], [ 82.56247361596084, 22.319183356748564 ], [ 82.562566224457939, 22.319150888103362 ], [ 82.562655204536057, 22.319109498583504 ], [ 82.562739699268406, 22.319059586792697 ], [ 82.562818894924504, 22.319001633408764 ], [ 82.562892028806928, 22.318936196554478 ], [ 82.562958396596372, 22.318863906422514 ], [ 82.563017359134761, 22.318785459206367 ], [ 82.563068348580629, 22.318701610395603 ], [ 82.563110873877719, 22.318613167500114 ], [ 82.563144525484191, 22.318520982273327 ], [ 82.563168979316657, 22.318425942509368 ], [ 82.56318399987137, 22.318328963493123 ], [ 82.563189442492146, 22.318230979185529 ], [ 82.563185254763596, 22.318132933229034 ], [ 82.563171477015828, 22.318035769859794 ], [ 82.563148241936076, 22.317940424814172 ], [ 82.563115773290875, 22.317847816317077 ], [ 82.563074383771024, 22.317758836238959 ], [ 82.563024471980214, 22.317674341506617 ], [ 82.562966518596284, 22.317595145850508 ], [ 82.562901081741998, 22.317522011968094 ], [ 82.562828791610031, 22.317455644178644 ], [ 82.562750344393876, 22.31739668164025 ], [ 82.562666495583116, 22.317345692194387 ], [ 82.562578052687627, 22.317303166897293 ], [ 82.562485867460836, 22.317269515290828 ], [ 82.562390827696888, 22.317245061458355 ], [ 82.544911887208926, 22.313651816758391 ], [ 82.544822365061734, 22.313637607155769 ], [ 82.544731924001738, 22.313631562132297 ], [ 82.5446413071042, 22.31363373135466 ], [ 82.525381663087785, 22.314969999829774 ], [ 82.508059420632989, 22.310518710581501 ], [ 82.507963289316194, 22.310498979474403 ], [ 82.507865686911273, 22.31048876589475 ], [ 82.507767553382735, 22.310488168204891 ], [ 82.507669833810112, 22.310497192160909 ], [ 82.507573469286314, 22.310515750857178 ], [ 82.50747938785436, 22.310543665563301 ], [ 82.507388495569884, 22.310580667445404 ], [ 82.50730166777528, 22.310626400155133 ], [ 82.507219740669669, 22.310680423261495 ], [ 82.507143503255847, 22.310742216492439 ], [ 82.507073689741816, 22.310811184745376 ], [ 82.507010972469843, 22.310886663818323 ], [ 82.506955955441583, 22.310967926806555 ], [ 82.506909168501068, 22.311054191103064 ], [ 82.506871062232108, 22.311144625935523 ], [ 82.506842003618914, 22.311238360367057 ], [ 82.506822272511812, 22.311334491683851 ], [ 82.506812058932155, 22.311432094088772 ], [ 82.506811461242307, 22.311530227617304 ], [ 82.506820485198318, 22.311627947189926 ], [ 82.506839043894587, 22.311724311713732 ], [ 82.50686695860071, 22.311818393145682 ], [ 82.506903960482816, 22.311909285430154 ], [ 82.506949693192553, 22.311996113224762 ], [ 82.507003716298911, 22.31207804033038 ], [ 82.507065509529852, 22.312154277744192 ], [ 82.507134477782785, 22.312224091258233 ], [ 82.507209956855732, 22.312286808530192 ], [ 82.507291219843964, 22.312341825558462 ], [ 82.507377484140477, 22.312388612498982 ], [ 82.507467918972935, 22.312426718767938 ], [ 82.507561653404466, 22.312455777381128 ], [ 82.525040593892427, 22.316947333256085 ] ] ] } },
{ "type": "Feature", "properties": { "Seam_ID": "GV-DIP-S3", "Mine_ID": "M-DIPKA", "Mine_Code": "DIPKA", "Feature_Type": "SYNTHETIC_SEAM_BELT", "Width_m": 100, "Data_Type": "SYNTHETIC_DEMO", "Source_Provenance": "Buffered demonstration representation of seam trace" }, "geometry": { "type": "Polygon", "coordinates": [ [ [ 82.525040593892427, 22.322786355893527 ], [ 82.525145386141503, 22.322807386881959 ], [ 82.525251824449697, 22.322817113365932 ], [ 82.525358692895793, 22.322815424232839 ], [ 82.544643210283709, 22.321477429998815 ], [ 82.561988098265644, 22.325043116766587 ], [ 82.562085077281893, 22.325058137321289 ], [ 82.562183061589479, 22.325063579942075 ], [ 82.562281107545985, 22.325059392213522 ], [ 82.562378270915218, 22.325045614465754 ], [ 82.56247361596084, 22.325022379386006 ], [ 82.562566224457939, 22.324989910740804 ], [ 82.562655204536057, 22.324948521220946 ], [ 82.562739699268406, 22.324898609430139 ], [ 82.562818894924504, 22.324840656046206 ], [ 82.562892028806928, 22.32477521919192 ], [ 82.562958396596372, 22.324702929059956 ], [ 82.563017359134761, 22.324624481843809 ], [ 82.563068348580629, 22.324540633033045 ], [ 82.563110873877719, 22.324452190137556 ], [ 82.563144525484191, 22.324360004910769 ], [ 82.563168979316657, 22.32426496514681 ], [ 82.56318399987137, 22.324167986130565 ], [ 82.563189442492146, 22.324070001822971 ], [ 82.563185254763596, 22.323971955866476 ], [ 82.563171477015828, 22.323874792497236 ], [ 82.563148241936076, 22.323779447451614 ], [ 82.563115773290875, 22.323686838954519 ], [ 82.563074383771024, 22.323597858876401 ], [ 82.563024471980214, 22.323513364144059 ], [ 82.562966518596284, 22.32343416848795 ], [ 82.562901081741998, 22.323361034605536 ], [ 82.562828791610031, 22.323294666816086 ], [ 82.562750344393876, 22.323235704277693 ], [ 82.562666495583116, 22.323184714831829 ], [ 82.562578052687627, 22.323142189534735 ], [ 82.562485867460836, 22.32310853792827 ], [ 82.562390827696888, 22.323084084095797 ], [ 82.544911887208926, 22.319490839395833 ], [ 82.544822365061734, 22.319476629793211 ], [ 82.544731924001738, 22.319470584769739 ], [ 82.5446413071042, 22.319472753992102 ], [ 82.525381663087785, 22.320809022467216 ], [ 82.508059420632989, 22.316357733218943 ], [ 82.507963289316194, 22.316338002111845 ], [ 82.507865686911273, 22.316327788532192 ], [ 82.507767553382735, 22.316327190842333 ], [ 82.507669833810112, 22.316336214798351 ], [ 82.507573469286314, 22.31635477349462 ], [ 82.50747938785436, 22.316382688200743 ], [ 82.507388495569884, 22.316419690082846 ], [ 82.50730166777528, 22.316465422792575 ], [ 82.507219740669669, 22.316519445898937 ], [ 82.507143503255847, 22.316581239129881 ], [ 82.507073689741816, 22.316650207382818 ], [ 82.507010972469843, 22.316725686455765 ], [ 82.506955955441583, 22.316806949443997 ], [ 82.506909168501068, 22.316893213740506 ], [ 82.506871062232108, 22.316983648572965 ], [ 82.506842003618914, 22.317077383004499 ], [ 82.506822272511812, 22.317173514321293 ], [ 82.506812058932155, 22.317271116726214 ], [ 82.506811461242307, 22.317369250254746 ], [ 82.506820485198318, 22.317466969827368 ], [ 82.506839043894587, 22.317563334351174 ], [ 82.50686695860071, 22.317657415783124 ], [ 82.506903960482816, 22.317748308067596 ], [ 82.506949693192553, 22.317835135862204 ], [ 82.507003716298911, 22.317917062967823 ], [ 82.507065509529852, 22.317993300381634 ], [ 82.507134477782785, 22.318063113895676 ], [ 82.507209956855732, 22.318125831167634 ], [ 82.507291219843964, 22.318180848195905 ], [ 82.507377484140477, 22.318227635136424 ], [ 82.507467918972935, 22.31826574140538 ], [ 82.507561653404466, 22.31829480001857 ], [ 82.525040593892427, 22.322786355893527 ] ] ] } },
{ "type": "Feature", "properties": { "Seam_ID": "GV-DIP-S4", "Mine_ID": "M-DIPKA", "Mine_Code": "DIPKA", "Feature_Type": "SYNTHETIC_SEAM_BELT", "Width_m": 100, "Data_Type": "SYNTHETIC_DEMO", "Source_Provenance": "Buffered demonstration representation of seam trace" }, "geometry": { "type": "Polygon", "coordinates": [ [ [ 82.525040593892427, 22.328625378530969 ], [ 82.525145386141503, 22.328646409519401 ], [ 82.525251824449697, 22.328656136003374 ], [ 82.525358692895793, 22.328654446870281 ], [ 82.544643210283709, 22.327316452636257 ], [ 82.561988098265644, 22.330882139404029 ], [ 82.562085077281893, 22.330897159958731 ], [ 82.562183061589479, 22.330902602579517 ], [ 82.562281107545985, 22.330898414850964 ], [ 82.562378270915218, 22.330884637103196 ], [ 82.56247361596084, 22.330861402023448 ], [ 82.562566224457939, 22.330828933378246 ], [ 82.562655204536057, 22.330787543858388 ], [ 82.562739699268406, 22.330737632067581 ], [ 82.562818894924504, 22.330679678683648 ], [ 82.562892028806928, 22.330614241829362 ], [ 82.562958396596372, 22.330541951697398 ], [ 82.563017359134761, 22.330463504481251 ], [ 82.563068348580629, 22.330379655670487 ], [ 82.563110873877719, 22.330291212774998 ], [ 82.563144525484191, 22.330199027548211 ], [ 82.563168979316657, 22.330103987784252 ], [ 82.56318399987137, 22.330007008768007 ], [ 82.563189442492146, 22.329909024460413 ], [ 82.563185254763596, 22.329810978503918 ], [ 82.563171477015828, 22.329713815134678 ], [ 82.563148241936076, 22.329618470089056 ], [ 82.563115773290875, 22.329525861591961 ], [ 82.563074383771024, 22.329436881513843 ], [ 82.563024471980214, 22.329352386781501 ], [ 82.562966518596284, 22.329273191125392 ], [ 82.562901081741998, 22.329200057242979 ], [ 82.562828791610031, 22.329133689453528 ], [ 82.562750344393876, 22.329074726915135 ], [ 82.562666495583116, 22.329023737469271 ], [ 82.562578052687627, 22.328981212172177 ], [ 82.562485867460836, 22.328947560565712 ], [ 82.562390827696888, 22.328923106733239 ], [ 82.544911887208926, 22.325329862033275 ], [ 82.544822365061734, 22.325315652430653 ], [ 82.544731924001738, 22.325309607407181 ], [ 82.5446413071042, 22.325311776629544 ], [ 82.525381663087785, 22.326648045104658 ], [ 82.508059420632989, 22.322196755856385 ], [ 82.507963289316194, 22.322177024749287 ], [ 82.507865686911273, 22.322166811169634 ], [ 82.507767553382735, 22.322166213479775 ], [ 82.507669833810112, 22.322175237435793 ], [ 82.507573469286314, 22.322193796132062 ], [ 82.50747938785436, 22.322221710838186 ], [ 82.507388495569884, 22.322258712720288 ], [ 82.50730166777528, 22.322304445430017 ], [ 82.507219740669669, 22.322358468536379 ], [ 82.507143503255847, 22.322420261767324 ], [ 82.507073689741816, 22.32248923002026 ], [ 82.507010972469843, 22.322564709093207 ], [ 82.506955955441583, 22.322645972081439 ], [ 82.506909168501068, 22.322732236377949 ], [ 82.506871062232108, 22.322822671210407 ], [ 82.506842003618914, 22.322916405641941 ], [ 82.506822272511812, 22.323012536958736 ], [ 82.506812058932155, 22.323110139363656 ], [ 82.506811461242307, 22.323208272892188 ], [ 82.506820485198318, 22.32330599246481 ], [ 82.506839043894587, 22.323402356988616 ], [ 82.50686695860071, 22.323496438420566 ], [ 82.506903960482816, 22.323587330705038 ], [ 82.506949693192553, 22.323674158499646 ], [ 82.507003716298911, 22.323756085605265 ], [ 82.507065509529852, 22.323832323019076 ], [ 82.507134477782785, 22.323902136533118 ], [ 82.507209956855732, 22.323964853805077 ], [ 82.507291219843964, 22.324019870833347 ], [ 82.507377484140477, 22.324066657773866 ], [ 82.507467918972935, 22.324104764042822 ], [ 82.507561653404466, 22.324133822656012 ], [ 82.525040593892427, 22.328625378530969 ] ] ] } },
{ "type": "Feature", "properties": { "Seam_ID": "Purewa Top", "Mine_ID": "M-NIGAHI", "Mine_Code": "NIGAHI", "Feature_Type": "SYNTHETIC_SEAM_BELT", "Width_m": 100, "Data_Type": "SYNTHETIC_DEMO", "Source_Provenance": "Buffered demonstration representation of seam trace" }, "geometry": { "type": "Polygon", "coordinates": [ [ [ 82.614909554729067, 24.14310912404153 ], [ 82.615013019503834, 24.143129610616587 ], [ 82.615118066557343, 24.143139085632257 ], [ 82.615223527276925, 24.143137443682217 ], [ 82.634778333843727, 24.141799194615121 ], [ 82.652366568352406, 24.145365609759782 ], [ 82.65246358743353, 24.145380369317778 ], [ 82.652561586030941, 24.14538554827158 ], [ 82.652659620364545, 24.14538109674503 ], [ 82.652756746310146, 24.145367057608759 ], [ 82.652852028491779, 24.145343566067332 ], [ 82.652944549289955, 24.145310848357127 ], [ 82.653033417678799, 24.145269219567581 ], [ 82.653117777807168, 24.145219080606694 ], [ 82.653196817240882, 24.145160914340071 ], [ 82.653269774787006, 24.145095280940652 ], [ 82.653335947824488, 24.145022812493952 ], [ 82.653394699070788, 24.144944206910733 ], [ 82.653445462719304, 24.144860221205729 ], [ 82.653487749888342, 24.144771664207187 ], [ 82.653521153329351, 24.144679388767422 ], [ 82.653545351348924, 24.144584283549353 ], [ 82.653560110906923, 24.144487264468221 ], [ 82.653565289860722, 24.144389265870817 ], [ 82.653560838334172, 24.144291231537203 ], [ 82.653546799197912, 24.144194105591605 ], [ 82.653523307656471, 24.144098823409973 ], [ 82.653490589946273, 24.1440063026118 ], [ 82.653448961156727, 24.143917434222949 ], [ 82.65339882219584, 24.143833074094591 ], [ 82.653340655929213, 24.143754034660873 ], [ 82.653275022529797, 24.143681077114749 ], [ 82.653202554083094, 24.143614904077271 ], [ 82.653123948499882, 24.143556152830968 ], [ 82.653039962794878, 24.143505389182454 ], [ 82.65295140579633, 24.143463102013417 ], [ 82.652859130356561, 24.143429698572408 ], [ 82.652764025138495, 24.143405500552827 ], [ 82.63504347723071, 24.139812255852863 ], [ 82.634955120595265, 24.139798420082546 ], [ 82.634865881170782, 24.139792533769025 ], [ 82.634776472723075, 24.13979464399295 ], [ 82.615246221497003, 24.141131212595361 ], [ 82.597680399687817, 24.13667887452117 ], [ 82.597584203988774, 24.136659459729294 ], [ 82.597486568515947, 24.136649567252277 ], [ 82.597388433552311, 24.136649292360083 ], [ 82.597290744191184, 24.136658637700073 ], [ 82.597194441234549, 24.136677513271515 ], [ 82.597100452132494, 24.136705737292335 ], [ 82.597009682051464, 24.136743037949788 ], [ 82.596923005156967, 24.136789056018149 ], [ 82.596841256194864, 24.136843348318262 ], [ 82.596765222452376, 24.1369053919856 ], [ 82.596695636175966, 24.13697458950573 ], [ 82.596633167519556, 24.137050274468709 ], [ 82.596578418090431, 24.137131717986964 ], [ 82.596531915155524, 24.137218135714896 ], [ 82.596494106563526, 24.137308695402545 ], [ 82.59646535643185, 24.137402524910613 ], [ 82.596445941639971, 24.137498720609642 ], [ 82.596436049162961, 24.137596356082469 ], [ 82.596435774270759, 24.137694491046116 ], [ 82.596445119610749, 24.137792180407235 ], [ 82.596463995182191, 24.137888483363881 ], [ 82.596492219203014, 24.137982472465932 ], [ 82.596529519860468, 24.138073242546955 ], [ 82.596575537928828, 24.138159919441456 ], [ 82.596629830228935, 24.138241668403552 ], [ 82.596691873896276, 24.138317702146054 ], [ 82.59676107141641, 24.138387288422454 ], [ 82.596836756379389, 24.138449757078874 ], [ 82.596918199897644, 24.138504506507999 ], [ 82.597004617625572, 24.138551009442903 ], [ 82.597095177313221, 24.138588818034897 ], [ 82.597189006821282, 24.138617568166577 ], [ 82.614909554729067, 24.14310912404153 ] ] ] } },
{ "type": "Feature", "properties": { "Seam_ID": "Purewa Bottom", "Mine_ID": "M-NIGAHI", "Mine_Code": "NIGAHI", "Feature_Type": "SYNTHETIC_SEAM_BELT", "Width_m": 100, "Data_Type": "SYNTHETIC_DEMO", "Source_Provenance": "Buffered demonstration representation of seam trace" }, "geometry": { "type": "Polygon", "coordinates": [ [ [ 82.614909554729067, 24.148948146678972 ], [ 82.615013019503834, 24.148968633254029 ], [ 82.615118066557343, 24.148978108269699 ], [ 82.615223527276925, 24.14897646631966 ], [ 82.634778333843727, 24.147638217252563 ], [ 82.652366568352406, 24.151204632397224 ], [ 82.65246358743353, 24.15121939195522 ], [ 82.652561586030941, 24.151224570909022 ], [ 82.652659620364545, 24.151220119382472 ], [ 82.652756746310146, 24.151206080246201 ], [ 82.652852028491779, 24.151182588704774 ], [ 82.652944549289955, 24.151149870994569 ], [ 82.653033417678799, 24.151108242205023 ], [ 82.653117777807168, 24.151058103244136 ], [ 82.653196817240882, 24.150999936977513 ], [ 82.653269774787006, 24.150934303578094 ], [ 82.653335947824488, 24.150861835131394 ], [ 82.653394699070788, 24.150783229548175 ], [ 82.653445462719304, 24.150699243843171 ], [ 82.653487749888342, 24.15061068684463 ], [ 82.653521153329351, 24.150518411404864 ], [ 82.653545351348924, 24.150423306186795 ], [ 82.653560110906923, 24.150326287105663 ], [ 82.653565289860722, 24.150228288508259 ], [ 82.653560838334172, 24.150130254174645 ], [ 82.653546799197912, 24.150033128229047 ], [ 82.653523307656471, 24.149937846047415 ], [ 82.653490589946273, 24.149845325249242 ], [ 82.653448961156727, 24.149756456860391 ], [ 82.65339882219584, 24.149672096732033 ], [ 82.653340655929213, 24.149593057298315 ], [ 82.653275022529797, 24.149520099752191 ], [ 82.653202554083094, 24.149453926714713 ], [ 82.653123948499882, 24.14939517546841 ], [ 82.653039962794878, 24.149344411819897 ], [ 82.65295140579633, 24.149302124650859 ], [ 82.652859130356561, 24.14926872120985 ], [ 82.652764025138495, 24.149244523190269 ], [ 82.63504347723071, 24.145651278490305 ], [ 82.634955120595265, 24.145637442719988 ], [ 82.634865881170782, 24.145631556406467 ], [ 82.634776472723075, 24.145633666630392 ], [ 82.615246221497003, 24.146970235232804 ], [ 82.597680399687817, 24.142517897158609 ], [ 82.597584203988774, 24.142498482366733 ], [ 82.597486568515947, 24.142488589889716 ], [ 82.597388433552311, 24.142488314997522 ], [ 82.597290744191184, 24.142497660337511 ], [ 82.597194441234549, 24.142516535908953 ], [ 82.597100452132494, 24.142544759929773 ], [ 82.597009682051464, 24.142582060587227 ], [ 82.596923005156967, 24.142628078655584 ], [ 82.596841256194864, 24.142682370955701 ], [ 82.596765222452376, 24.142744414623039 ], [ 82.596695636175966, 24.142813612143168 ], [ 82.596633167519556, 24.142889297106148 ], [ 82.596578418090431, 24.142970740624403 ], [ 82.596531915155524, 24.143057158352335 ], [ 82.596494106563526, 24.143147718039984 ], [ 82.59646535643185, 24.143241547548051 ], [ 82.596445941639971, 24.143337743247081 ], [ 82.596436049162961, 24.143435378719907 ], [ 82.596435774270759, 24.143533513683554 ], [ 82.596445119610749, 24.143631203044674 ], [ 82.596463995182191, 24.143727506001319 ], [ 82.596492219203014, 24.143821495103371 ], [ 82.596529519860468, 24.143912265184394 ], [ 82.596575537928828, 24.143998942078895 ], [ 82.596629830228935, 24.14408069104099 ], [ 82.596691873896276, 24.144156724783493 ], [ 82.59676107141641, 24.144226311059892 ], [ 82.596836756379389, 24.144288779716312 ], [ 82.596918199897644, 24.144343529145438 ], [ 82.597004617625572, 24.144390032080342 ], [ 82.597095177313221, 24.144427840672336 ], [ 82.597189006821282, 24.144456590804015 ], [ 82.614909554729067, 24.148948146678972 ] ] ] } },
{ "type": "Feature", "properties": { "Seam_ID": "Purewa Merged", "Mine_ID": "M-NIGAHI", "Mine_Code": "NIGAHI", "Feature_Type": "SYNTHETIC_SEAM_BELT", "Width_m": 100, "Data_Type": "SYNTHETIC_DEMO", "Source_Provenance": "Buffered demonstration representation of seam trace" }, "geometry": { "type": "Polygon", "coordinates": [ [ [ 82.614909554729067, 24.154787169316414 ], [ 82.615013019503834, 24.154807655891471 ], [ 82.615118066557343, 24.154817130907141 ], [ 82.615223527276925, 24.154815488957102 ], [ 82.634778333843727, 24.153477239890005 ], [ 82.652366568352406, 24.157043655034666 ], [ 82.65246358743353, 24.157058414592662 ], [ 82.652561586030941, 24.157063593546464 ], [ 82.652659620364545, 24.157059142019914 ], [ 82.652756746310146, 24.157045102883643 ], [ 82.652852028491779, 24.157021611342216 ], [ 82.652944549289955, 24.156988893632011 ], [ 82.653033417678799, 24.156947264842465 ], [ 82.653117777807168, 24.156897125881578 ], [ 82.653196817240882, 24.156838959614955 ], [ 82.653269774787006, 24.156773326215536 ], [ 82.653335947824488, 24.156700857768836 ], [ 82.653394699070788, 24.156622252185617 ], [ 82.653445462719304, 24.156538266480613 ], [ 82.653487749888342, 24.156449709482072 ], [ 82.653521153329351, 24.156357434042306 ], [ 82.653545351348924, 24.156262328824237 ], [ 82.653560110906923, 24.156165309743105 ], [ 82.653565289860722, 24.156067311145701 ], [ 82.653560838334172, 24.155969276812087 ], [ 82.653546799197912, 24.15587215086649 ], [ 82.653523307656471, 24.155776868684857 ], [ 82.653490589946273, 24.155684347886684 ], [ 82.653448961156727, 24.155595479497833 ], [ 82.65339882219584, 24.155511119369475 ], [ 82.653340655929213, 24.155432079935757 ], [ 82.653275022529797, 24.155359122389633 ], [ 82.653202554083094, 24.155292949352155 ], [ 82.653123948499882, 24.155234198105852 ], [ 82.653039962794878, 24.155183434457339 ], [ 82.65295140579633, 24.155141147288301 ], [ 82.652859130356561, 24.155107743847292 ], [ 82.652764025138495, 24.155083545827711 ], [ 82.63504347723071, 24.151490301127748 ], [ 82.634955120595265, 24.15147646535743 ], [ 82.634865881170782, 24.151470579043909 ], [ 82.634776472723075, 24.151472689267834 ], [ 82.615246221497003, 24.152809257870246 ], [ 82.597680399687817, 24.148356919796051 ], [ 82.597584203988774, 24.148337505004175 ], [ 82.597486568515947, 24.148327612527158 ], [ 82.597388433552311, 24.148327337634964 ], [ 82.597290744191184, 24.148336682974954 ], [ 82.597194441234549, 24.148355558546395 ], [ 82.597100452132494, 24.148383782567215 ], [ 82.597009682051464, 24.148421083224669 ], [ 82.596923005156967, 24.148467101293026 ], [ 82.596841256194864, 24.148521393593143 ], [ 82.596765222452376, 24.148583437260481 ], [ 82.596695636175966, 24.148652634780611 ], [ 82.596633167519556, 24.14872831974359 ], [ 82.596578418090431, 24.148809763261845 ], [ 82.596531915155524, 24.148896180989777 ], [ 82.596494106563526, 24.148986740677426 ], [ 82.59646535643185, 24.149080570185493 ], [ 82.596445941639971, 24.149176765884523 ], [ 82.596436049162961, 24.149274401357349 ], [ 82.596435774270759, 24.149372536320996 ], [ 82.596445119610749, 24.149470225682116 ], [ 82.596463995182191, 24.149566528638761 ], [ 82.596492219203014, 24.149660517740813 ], [ 82.596529519860468, 24.149751287821836 ], [ 82.596575537928828, 24.149837964716337 ], [ 82.596629830228935, 24.149919713678432 ], [ 82.596691873896276, 24.149995747420935 ], [ 82.59676107141641, 24.150065333697334 ], [ 82.596836756379389, 24.150127802353754 ], [ 82.596918199897644, 24.15018255178288 ], [ 82.597004617625572, 24.150229054717784 ], [ 82.597095177313221, 24.150266863309778 ], [ 82.597189006821282, 24.150295613441457 ], [ 82.614909554729067, 24.154787169316414 ] ] ] } },
{ "type": "Feature", "properties": { "Seam_ID": "Turra", "Mine_ID": "M-NIGAHI", "Mine_Code": "NIGAHI", "Feature_Type": "SYNTHETIC_SEAM_BELT", "Width_m": 100, "Data_Type": "SYNTHETIC_DEMO", "Source_Provenance": "Buffered demonstration representation of seam trace" }, "geometry": { "type": "Polygon", "coordinates": [ [ [ 82.614909554729067, 24.160626191953856 ], [ 82.615013019503834, 24.160646678528913 ], [ 82.615118066557343, 24.160656153544583 ], [ 82.615223527276925, 24.160654511594544 ], [ 82.634778333843727, 24.159316262527447 ], [ 82.652366568352406, 24.162882677672108 ], [ 82.65246358743353, 24.162897437230104 ], [ 82.652561586030941, 24.162902616183906 ], [ 82.652659620364545, 24.162898164657356 ], [ 82.652756746310146, 24.162884125521085 ], [ 82.652852028491779, 24.162860633979658 ], [ 82.652944549289955, 24.162827916269453 ], [ 82.653033417678799, 24.162786287479907 ], [ 82.653117777807168, 24.16273614851902 ], [ 82.653196817240882, 24.162677982252397 ], [ 82.653269774787006, 24.162612348852978 ], [ 82.653335947824488, 24.162539880406278 ], [ 82.653394699070788, 24.162461274823059 ], [ 82.653445462719304, 24.162377289118055 ], [ 82.653487749888342, 24.162288732119514 ], [ 82.653521153329351, 24.162196456679748 ], [ 82.653545351348924, 24.162101351461679 ], [ 82.653560110906923, 24.162004332380548 ], [ 82.653565289860722, 24.161906333783143 ], [ 82.653560838334172, 24.161808299449529 ], [ 82.653546799197912, 24.161711173503932 ], [ 82.653523307656471, 24.161615891322299 ], [ 82.653490589946273, 24.161523370524126 ], [ 82.653448961156727, 24.161434502135275 ], [ 82.65339882219584, 24.161350142006917 ], [ 82.653340655929213, 24.161271102573199 ], [ 82.653275022529797, 24.161198145027075 ], [ 82.653202554083094, 24.161131971989597 ], [ 82.653123948499882, 24.161073220743294 ], [ 82.653039962794878, 24.161022457094781 ], [ 82.65295140579633, 24.160980169925743 ], [ 82.652859130356561, 24.160946766484734 ], [ 82.652764025138495, 24.160922568465153 ], [ 82.63504347723071, 24.15732932376519 ], [ 82.634955120595265, 24.157315487994872 ], [ 82.634865881170782, 24.157309601681352 ], [ 82.634776472723075, 24.157311711905276 ], [ 82.615246221497003, 24.158648280507688 ], [ 82.597680399687817, 24.154195942433493 ], [ 82.597584203988774, 24.154176527641617 ], [ 82.597486568515947, 24.1541666351646 ], [ 82.597388433552311, 24.154166360272406 ], [ 82.597290744191184, 24.154175705612396 ], [ 82.597194441234549, 24.154194581183837 ], [ 82.597100452132494, 24.154222805204657 ], [ 82.597009682051464, 24.154260105862111 ], [ 82.596923005156967, 24.154306123930468 ], [ 82.596841256194864, 24.154360416230585 ], [ 82.596765222452376, 24.154422459897923 ], [ 82.596695636175966, 24.154491657418053 ], [ 82.596633167519556, 24.154567342381032 ], [ 82.596578418090431, 24.154648785899287 ], [ 82.596531915155524, 24.154735203627219 ], [ 82.596494106563526, 24.154825763314868 ], [ 82.59646535643185, 24.154919592822935 ], [ 82.596445941639971, 24.155015788521965 ], [ 82.596436049162961, 24.155113423994791 ], [ 82.596435774270759, 24.155211558958438 ], [ 82.596445119610749, 24.155309248319558 ], [ 82.596463995182191, 24.155405551276203 ], [ 82.596492219203014, 24.155499540378255 ], [ 82.596529519860468, 24.155590310459278 ], [ 82.596575537928828, 24.155676987353779 ], [ 82.596629830228935, 24.155758736315875 ], [ 82.596691873896276, 24.155834770058377 ], [ 82.59676107141641, 24.155904356334776 ], [ 82.596836756379389, 24.155966824991197 ], [ 82.596918199897644, 24.156021574420322 ], [ 82.597004617625572, 24.156068077355226 ], [ 82.597095177313221, 24.15610588594722 ], [ 82.597189006821282, 24.1561346360789 ], [ 82.614909554729067, 24.160626191953856 ] ] ] } },
{ "type": "Feature", "properties": { "Seam_ID": "GV-DUD-S1", "Mine_ID": "M-DUDHICHUA", "Mine_Code": "DUDHICHUA", "Feature_Type": "SYNTHETIC_SEAM_BELT", "Width_m": 100, "Data_Type": "SYNTHETIC_DEMO", "Source_Provenance": "Buffered demonstration representation of seam trace" }, "geometry": { "type": "Polygon", "coordinates": [ [ [ 82.699909930845678, 24.138109121752112 ], [ 82.700013399383224, 24.138129609859387 ], [ 82.700118450377829, 24.138139085582825 ], [ 82.700223915084564, 24.138137443500259 ], [ 82.71977794615421, 24.136799195149635 ], [ 82.737365482467624, 24.14036560824546 ], [ 82.737462501436283, 24.140380368542733 ], [ 82.737560499994217, 24.140385548243277 ], [ 82.737658534361756, 24.140381097463738 ], [ 82.737755660414322, 24.140367059067565 ], [ 82.737850942774955, 24.140343568252177 ], [ 82.737943463822432, 24.140310851246973 ], [ 82.738032332528491, 24.140269223134599 ], [ 82.738116693038904, 24.140219084816533 ], [ 82.738195732915841, 24.140160919152184 ], [ 82.738268690962087, 24.1400952863087 ], [ 82.73833486455176, 24.140022818366237 ], [ 82.738393616397033, 24.139944213230699 ], [ 82.738444380685507, 24.139860227912511 ], [ 82.738486668529347, 24.1397716712362 ], [ 82.738520072673481, 24.139679396050965 ], [ 82.738544271417751, 24.139584291017286 ], [ 82.738559031715027, 24.139487272048626 ], [ 82.738564211415564, 24.139389273490686 ], [ 82.738559760636036, 24.139291239123157 ], [ 82.738545722239863, 24.139194113070584 ], [ 82.738522231424469, 24.139098830709948 ], [ 82.738489514419271, 24.139006309662474 ], [ 82.738447886306901, 24.138917440956419 ], [ 82.738397747988827, 24.138833080446005 ], [ 82.738339582324485, 24.138754040569069 ], [ 82.738273949480998, 24.138681082522826 ], [ 82.738201481538525, 24.138614908933146 ], [ 82.738122876402997, 24.138556157087876 ], [ 82.738038891084813, 24.138505392799399 ], [ 82.737950334408495, 24.138463104955566 ], [ 82.737858059223257, 24.138429700811425 ], [ 82.737762954189577, 24.138405502067151 ], [ 82.720043099549756, 24.134812257367187 ], [ 82.71995473961239, 24.134798420545192 ], [ 82.719865496785047, 24.134792533785159 ], [ 82.719776084915424, 24.13479464417491 ], [ 82.700246610087817, 24.136131211933421 ], [ 82.682681487136918, 24.131678876810589 ], [ 82.682585291618793, 24.131659461122371 ], [ 82.682487656238152, 24.131649567735597 ], [ 82.682389521277059, 24.131649291928991 ], [ 82.682291831828877, 24.131658636358722 ], [ 82.682195528696354, 24.131677511032819 ], [ 82.682101539331313, 24.13170573417786 ], [ 82.682010768902728, 24.131743033989522 ], [ 82.681924091579447, 24.131789051250234 ], [ 82.681842342111466, 24.131843342788617 ], [ 82.681766307790852, 24.13190538574748 ], [ 82.681696720869667, 24.131974582619211 ], [ 82.681634251508029, 24.132050267000107 ], [ 82.68157950132003, 24.13213171000821 ], [ 82.681532997579893, 24.132218127302828 ], [ 82.681495188144069, 24.132308686638176 ], [ 82.681466437138099, 24.132402515878347 ], [ 82.681447021449884, 24.132498711396469 ], [ 82.681437128063109, 24.132596346777117 ], [ 82.68143685225651, 24.132694481738195 ], [ 82.681446196686238, 24.132792171186392 ], [ 82.681465071360336, 24.132888474318911 ], [ 82.681493294505373, 24.132982463683948 ], [ 82.681530594317039, 24.13307323411253 ], [ 82.681576611577754, 24.133159911435818 ], [ 82.68163090311613, 24.133241660903803 ], [ 82.681692946074989, 24.133317695224417 ], [ 82.681762142946724, 24.133387282145591 ], [ 82.681837827327612, 24.133449751507229 ], [ 82.681919270335726, 24.133504501695239 ], [ 82.682005687630337, 24.133551005435368 ], [ 82.682096246965685, 24.133588814871189 ], [ 82.682190076205856, 24.133617565877159 ], [ 82.699909930845678, 24.138109121752112 ] ] ] } },
{ "type": "Feature", "properties": { "Seam_ID": "GV-DUD-S2", "Mine_ID": "M-DUDHICHUA", "Mine_Code": "DUDHICHUA", "Feature_Type": "SYNTHETIC_SEAM_BELT", "Width_m": 100, "Data_Type": "SYNTHETIC_DEMO", "Source_Provenance": "Buffered demonstration representation of seam trace" }, "geometry": { "type": "Polygon", "coordinates": [ [ [ 82.699909930845678, 24.143948144389554 ], [ 82.700013399383224, 24.143968632496829 ], [ 82.700118450377829, 24.143978108220267 ], [ 82.700223915084564, 24.143976466137701 ], [ 82.71977794615421, 24.142638217787077 ], [ 82.737365482467624, 24.146204630882902 ], [ 82.737462501436283, 24.146219391180175 ], [ 82.737560499994217, 24.146224570880719 ], [ 82.737658534361756, 24.14622012010118 ], [ 82.737755660414322, 24.146206081705007 ], [ 82.737850942774955, 24.146182590889619 ], [ 82.737943463822432, 24.146149873884415 ], [ 82.738032332528491, 24.146108245772041 ], [ 82.738116693038904, 24.146058107453975 ], [ 82.738195732915841, 24.145999941789626 ], [ 82.738268690962087, 24.145934308946142 ], [ 82.73833486455176, 24.145861841003679 ], [ 82.738393616397033, 24.145783235868141 ], [ 82.738444380685507, 24.145699250549953 ], [ 82.738486668529347, 24.145610693873643 ], [ 82.738520072673481, 24.145518418688408 ], [ 82.738544271417751, 24.145423313654728 ], [ 82.738559031715027, 24.145326294686068 ], [ 82.738564211415564, 24.145228296128128 ], [ 82.738559760636036, 24.145130261760599 ], [ 82.738545722239863, 24.145033135708026 ], [ 82.738522231424469, 24.14493785334739 ], [ 82.738489514419271, 24.144845332299916 ], [ 82.738447886306901, 24.144756463593861 ], [ 82.738397747988827, 24.144672103083447 ], [ 82.738339582324485, 24.144593063206511 ], [ 82.738273949480998, 24.144520105160268 ], [ 82.738201481538525, 24.144453931570588 ], [ 82.738122876402997, 24.144395179725318 ], [ 82.738038891084813, 24.144344415436841 ], [ 82.737950334408495, 24.144302127593008 ], [ 82.737858059223257, 24.144268723448867 ], [ 82.737762954189577, 24.144244524704593 ], [ 82.720043099549756, 24.140651280004629 ], [ 82.71995473961239, 24.140637443182634 ], [ 82.719865496785047, 24.140631556422601 ], [ 82.719776084915424, 24.140633666812352 ], [ 82.700246610087817, 24.141970234570863 ], [ 82.682681487136918, 24.137517899448028 ], [ 82.682585291618793, 24.13749848375981 ], [ 82.682487656238152, 24.137488590373035 ], [ 82.682389521277059, 24.137488314566429 ], [ 82.682291831828877, 24.137497658996161 ], [ 82.682195528696354, 24.137516533670258 ], [ 82.682101539331313, 24.137544756815299 ], [ 82.682010768902728, 24.137582056626961 ], [ 82.681924091579447, 24.137628073887672 ], [ 82.681842342111466, 24.137682365426055 ], [ 82.681766307790852, 24.137744408384918 ], [ 82.681696720869667, 24.137813605256646 ], [ 82.681634251508029, 24.137889289637545 ], [ 82.68157950132003, 24.137970732645648 ], [ 82.681532997579893, 24.138057149940266 ], [ 82.681495188144069, 24.138147709275614 ], [ 82.681466437138099, 24.138241538515786 ], [ 82.681447021449884, 24.138337734033907 ], [ 82.681437128063109, 24.138435369414552 ], [ 82.68143685225651, 24.138533504375633 ], [ 82.681446196686238, 24.13863119382383 ], [ 82.681465071360336, 24.138727496956349 ], [ 82.681493294505373, 24.138821486321383 ], [ 82.681530594317039, 24.138912256749968 ], [ 82.681576611577754, 24.138998934073257 ], [ 82.68163090311613, 24.139080683541241 ], [ 82.681692946074989, 24.139156717861855 ], [ 82.681762142946724, 24.139226304783026 ], [ 82.681837827327612, 24.139288774144667 ], [ 82.681919270335726, 24.139343524332677 ], [ 82.682005687630337, 24.139390028072807 ], [ 82.682096246965685, 24.139427837508627 ], [ 82.682190076205856, 24.139456588514598 ], [ 82.699909930845678, 24.143948144389554 ] ] ] } },
{ "type": "Feature", "properties": { "Seam_ID": "GV-DUD-S3", "Mine_ID": "M-DUDHICHUA", "Mine_Code": "DUDHICHUA", "Feature_Type": "SYNTHETIC_SEAM_BELT", "Width_m": 100, "Data_Type": "SYNTHETIC_DEMO", "Source_Provenance": "Buffered demonstration representation of seam trace" }, "geometry": { "type": "Polygon", "coordinates": [ [ [ 82.699909930845678, 24.149787167026997 ], [ 82.700013399383224, 24.149807655134271 ], [ 82.700118450377829, 24.149817130857709 ], [ 82.700223915084564, 24.149815488775143 ], [ 82.71977794615421, 24.148477240424519 ], [ 82.737365482467624, 24.152043653520344 ], [ 82.737462501436283, 24.152058413817617 ], [ 82.737560499994217, 24.152063593518161 ], [ 82.737658534361756, 24.152059142738622 ], [ 82.737755660414322, 24.152045104342449 ], [ 82.737850942774955, 24.152021613527062 ], [ 82.737943463822432, 24.151988896521857 ], [ 82.738032332528491, 24.151947268409483 ], [ 82.738116693038904, 24.151897130091417 ], [ 82.738195732915841, 24.151838964427068 ], [ 82.738268690962087, 24.151773331583584 ], [ 82.73833486455176, 24.151700863641121 ], [ 82.738393616397033, 24.151622258505583 ], [ 82.738444380685507, 24.151538273187395 ], [ 82.738486668529347, 24.151449716511085 ], [ 82.738520072673481, 24.15135744132585 ], [ 82.738544271417751, 24.15126233629217 ], [ 82.738559031715027, 24.15116531732351 ], [ 82.738564211415564, 24.15106731876557 ], [ 82.738559760636036, 24.150969284398041 ], [ 82.738545722239863, 24.150872158345468 ], [ 82.738522231424469, 24.150776875984832 ], [ 82.738489514419271, 24.150684354937358 ], [ 82.738447886306901, 24.150595486231303 ], [ 82.738397747988827, 24.15051112572089 ], [ 82.738339582324485, 24.150432085843953 ], [ 82.738273949480998, 24.15035912779771 ], [ 82.738201481538525, 24.15029295420803 ], [ 82.738122876402997, 24.150234202362761 ], [ 82.738038891084813, 24.150183438074283 ], [ 82.737950334408495, 24.15014115023045 ], [ 82.737858059223257, 24.150107746086309 ], [ 82.737762954189577, 24.150083547342035 ], [ 82.720043099549756, 24.146490302642071 ], [ 82.71995473961239, 24.146476465820076 ], [ 82.719865496785047, 24.146470579060043 ], [ 82.719776084915424, 24.146472689449794 ], [ 82.700246610087817, 24.147809257208305 ], [ 82.682681487136918, 24.14335692208547 ], [ 82.682585291618793, 24.143337506397252 ], [ 82.682487656238152, 24.143327613010477 ], [ 82.682389521277059, 24.143327337203871 ], [ 82.682291831828877, 24.143336681633603 ], [ 82.682195528696354, 24.1433555563077 ], [ 82.682101539331313, 24.143383779452741 ], [ 82.682010768902728, 24.143421079264403 ], [ 82.681924091579447, 24.143467096525114 ], [ 82.681842342111466, 24.143521388063498 ], [ 82.681766307790852, 24.14358343102236 ], [ 82.681696720869667, 24.143652627894088 ], [ 82.681634251508029, 24.143728312274988 ], [ 82.68157950132003, 24.14380975528309 ], [ 82.681532997579893, 24.143896172577708 ], [ 82.681495188144069, 24.143986731913056 ], [ 82.681466437138099, 24.144080561153228 ], [ 82.681447021449884, 24.144176756671349 ], [ 82.681437128063109, 24.144274392051994 ], [ 82.68143685225651, 24.144372527013076 ], [ 82.681446196686238, 24.144470216461272 ], [ 82.681465071360336, 24.144566519593791 ], [ 82.681493294505373, 24.144660508958825 ], [ 82.681530594317039, 24.14475127938741 ], [ 82.681576611577754, 24.144837956710699 ], [ 82.68163090311613, 24.144919706178683 ], [ 82.681692946074989, 24.144995740499297 ], [ 82.681762142946724, 24.145065327420468 ], [ 82.681837827327612, 24.145127796782109 ], [ 82.681919270335726, 24.145182546970119 ], [ 82.682005687630337, 24.145229050710249 ], [ 82.682096246965685, 24.145266860146069 ], [ 82.682190076205856, 24.14529561115204 ], [ 82.699909930845678, 24.149787167026997 ] ] ] } },
{ "type": "Feature", "properties": { "Seam_ID": "GV-DUD-S4", "Mine_ID": "M-DUDHICHUA", "Mine_Code": "DUDHICHUA", "Feature_Type": "SYNTHETIC_SEAM_BELT", "Width_m": 100, "Data_Type": "SYNTHETIC_DEMO", "Source_Provenance": "Buffered demonstration representation of seam trace" }, "geometry": { "type": "Polygon", "coordinates": [ [ [ 82.699909930845678, 24.155626189664439 ], [ 82.700013399383224, 24.155646677771713 ], [ 82.700118450377829, 24.155656153495151 ], [ 82.700223915084564, 24.155654511412585 ], [ 82.71977794615421, 24.154316263061961 ], [ 82.737365482467624, 24.157882676157787 ], [ 82.737462501436283, 24.157897436455059 ], [ 82.737560499994217, 24.157902616155603 ], [ 82.737658534361756, 24.157898165376064 ], [ 82.737755660414322, 24.157884126979891 ], [ 82.737850942774955, 24.157860636164504 ], [ 82.737943463822432, 24.157827919159299 ], [ 82.738032332528491, 24.157786291046925 ], [ 82.738116693038904, 24.157736152728859 ], [ 82.738195732915841, 24.15767798706451 ], [ 82.738268690962087, 24.157612354221026 ], [ 82.73833486455176, 24.157539886278563 ], [ 82.738393616397033, 24.157461281143025 ], [ 82.738444380685507, 24.157377295824837 ], [ 82.738486668529347, 24.157288739148527 ], [ 82.738520072673481, 24.157196463963292 ], [ 82.738544271417751, 24.157101358929612 ], [ 82.738559031715027, 24.157004339960952 ], [ 82.738564211415564, 24.156906341403012 ], [ 82.738559760636036, 24.156808307035483 ], [ 82.738545722239863, 24.15671118098291 ], [ 82.738522231424469, 24.156615898622274 ], [ 82.738489514419271, 24.1565233775748 ], [ 82.738447886306901, 24.156434508868745 ], [ 82.738397747988827, 24.156350148358332 ], [ 82.738339582324485, 24.156271108481395 ], [ 82.738273949480998, 24.156198150435152 ], [ 82.738201481538525, 24.156131976845472 ], [ 82.738122876402997, 24.156073225000203 ], [ 82.738038891084813, 24.156022460711725 ], [ 82.737950334408495, 24.155980172867892 ], [ 82.737858059223257, 24.155946768723751 ], [ 82.737762954189577, 24.155922569979477 ], [ 82.720043099549756, 24.152329325279513 ], [ 82.71995473961239, 24.152315488457518 ], [ 82.719865496785047, 24.152309601697485 ], [ 82.719776084915424, 24.152311712087236 ], [ 82.700246610087817, 24.153648279845747 ], [ 82.682681487136918, 24.149195944722912 ], [ 82.682585291618793, 24.149176529034694 ], [ 82.682487656238152, 24.149166635647919 ], [ 82.682389521277059, 24.149166359841313 ], [ 82.682291831828877, 24.149175704271045 ], [ 82.682195528696354, 24.149194578945142 ], [ 82.682101539331313, 24.149222802090183 ], [ 82.682010768902728, 24.149260101901845 ], [ 82.681924091579447, 24.149306119162556 ], [ 82.681842342111466, 24.14936041070094 ], [ 82.681766307790852, 24.149422453659803 ], [ 82.681696720869667, 24.14949165053153 ], [ 82.681634251508029, 24.14956733491243 ], [ 82.68157950132003, 24.149648777920532 ], [ 82.681532997579893, 24.14973519521515 ], [ 82.681495188144069, 24.149825754550498 ], [ 82.681466437138099, 24.14991958379067 ], [ 82.681447021449884, 24.150015779308792 ], [ 82.681437128063109, 24.150113414689436 ], [ 82.68143685225651, 24.150211549650518 ], [ 82.681446196686238, 24.150309239098714 ], [ 82.681465071360336, 24.150405542231233 ], [ 82.681493294505373, 24.150499531596267 ], [ 82.681530594317039, 24.150590302024852 ], [ 82.681576611577754, 24.150676979348141 ], [ 82.68163090311613, 24.150758728816125 ], [ 82.681692946074989, 24.150834763136739 ], [ 82.681762142946724, 24.15090435005791 ], [ 82.681837827327612, 24.150966819419551 ], [ 82.681919270335726, 24.151021569607561 ], [ 82.682005687630337, 24.151068073347691 ], [ 82.682096246965685, 24.151105882783511 ], [ 82.682190076205856, 24.151134633789482 ], [ 82.699909930845678, 24.155626189664439 ] ] ] } }
]
}
