{
"type": "FeatureCollection",
"name": "geological_events_spatial",
"crs": { "type": "name", "properties": { "name": "urn:ogc:def:crs:OGC:1.3:CRS84" } },
"features": [
{ "type": "Feature", "properties": { "Event_ID": "EV-GEVRA-GEO-01", "Mine_ID": "M-GEVRA", "Mine_Code": "GEVRA", "Financial_Year": "FY 2023-24", "Event_Type": "Geotechnical", "Severity": "Moderate", "Area": "Central working block", "Description": "Localized synthetic bench movement triggered additional inspection and monitoring.", "Action": "Increase inspection frequency; review haulage alignment.", "Data_Type": "SYNTHETIC_DEMO", "Source_Provenance": "Synthetic event location linked to geological event record" }, "geometry": { "type": "Point", "coordinates": [ 82.534268588048519, 22.222540875891806 ] } },
{ "type": "Feature", "properties": { "Event_ID": "EV-GEVRA-WAT-01", "Mine_ID": "M-GEVRA", "Mine_Code": "GEVRA", "Financial_Year": "FY 2021-22", "Event_Type": "Hydrology", "Severity": "Moderate", "Area": "Pit floor / drainage", "Description": "Synthetic monsoon water accumulation affected selected working areas.", "Action": "Temporary pumping and drainage-channel maintenance.", "Data_Type": "SYNTHETIC_DEMO", "Source_Provenance": "Synthetic event location linked to geological event record" }, "geometry": { "type": "Point", "coordinates": [ 82.510273257472406, 22.220293244337057 ] } },
{ "type": "Feature", "properties": { "Event_ID": "EV-KUSMUNDA-GEO-01", "Mine_ID": "M-KUSMUNDA", "Mine_Code": "KUSMUNDA", "Financial_Year": "FY 2023-24", "Event_Type": "Geotechnical", "Severity": "Moderate", "Area": "Central working block", "Description": "Localized synthetic bench movement triggered additional inspection and monitoring.", "Action": "Increase inspection frequency; review haulage alignment.", "Data_Type": "SYNTHETIC_DEMO", "Source_Provenance": "Synthetic event location linked to geological event record" }, "geometry": { "type": "Point", "coordinates": [ 82.64833920936141, 22.322115701764908 ] } },
{ "type": "Feature", "properties": { "Event_ID": "EV-KUSMUNDA-WAT-01", "Mine_ID": "M-KUSMUNDA", "Mine_Code": "KUSMUNDA", "Financial_Year": "FY 2021-22", "Event_Type": "Hydrology", "Severity": "Moderate", "Area": "Pit floor / drainage", "Description": "Synthetic monsoon water accumulation affected selected working areas.", "Action": "Temporary pumping and drainage-channel maintenance.", "Data_Type": "SYNTHETIC_DEMO", "Source_Provenance": "Synthetic event location linked to geological event record" }, "geometry": { "type": "Point", "coordinates": [ 82.648098128672473, 22.280912124071417 ] } },
{ "type": "Feature", "properties": { "Event_ID": "EV-DIPKA-GEO-01", "Mine_ID": "M-DIPKA", "Mine_Code": "DIPKA", "Financial_Year": "FY 2023-24", "Event_Type": "Geotechnical", "Severity": "Moderate", "Area": "Central working block", "Description": "Localized synthetic bench movement triggered additional inspection and monitoring.", "Action": "Increase inspection frequency; review haulage alignment.", "Data_Type": "SYNTHETIC_DEMO", "Source_Provenance": "Synthetic event location linked to geological event record" }, "geometry": { "type": "Point", "coordinates": [ 82.546817687741978, 22.342862776738421 ] } },
{ "type": "Feature", "properties": { "Event_ID": "EV-DIPKA-WAT-01", "Mine_ID": "M-DIPKA", "Mine_Code": "DIPKA", "Financial_Year": "FY 2021-22", "Event_Type": "Hydrology", "Severity": "Moderate", "Area": "Pit floor / drainage", "Description": "Synthetic monsoon water accumulation affected selected working areas.", "Action": "Temporary pumping and drainage-channel maintenance.", "Data_Type": "SYNTHETIC_DEMO", "Source_Provenance": "Synthetic event location linked to geological event record" }, "geometry": { "type": "Point", "coordinates": [ 82.558796615778434, 22.321799920890285 ] } },
{ "type": "Feature", "properties": { "Event_ID": "EV-NIGAHI-GEO-01", "Mine_ID": "M-NIGAHI", "Mine_Code": "NIGAHI", "Financial_Year": "FY 2023-24", "Event_Type": "Geotechnical", "Severity": "Moderate", "Area": "Central working block", "Description": "Localized synthetic bench movement triggered additional inspection and monitoring.", "Action": "Increase inspection frequency; review haulage alignment.", "Data_Type": "SYNTHETIC_DEMO", "Source_Provenance": "Synthetic event location linked to geological event record" }, "geometry": { "type": "Point", "coordinates": [ 82.650043736785136, 24.125265000319878 ] } },
{ "type": "Feature", "properties": { "Event_ID": "EV-NIGAHI-WAT-01", "Mine_ID": "M-NIGAHI", "Mine_Code": "NIGAHI", "Financial_Year": "FY 2021-22", "Event_Type": "Hydrology", "Severity": "Moderate", "Area": "Pit floor / drainage", "Description": "Synthetic monsoon water accumulation affected selected working areas.", "Action": "Temporary pumping and drainage-channel maintenance.", "Data_Type": "SYNTHETIC_DEMO", "Source_Provenance": "Synthetic event location linked to geological event record" }, "geometry": { "type": "Point", "coordinates": [ 82.653504029776713, 24.149537438962938 ] } },
{ "type": "Feature", "properties": { "Event_ID": "EV-DUDHICHUA-GEO-01", "Mine_ID": "M-DUDHICHUA", "Mine_Code": "DUDHICHUA", "Financial_Year": "FY 2023-24", "Event_Type": "Geotechnical", "Severity": "Moderate", "Area": "Central working block", "Description": "Localized synthetic bench movement triggered additional inspection and monitoring.", "Action": "Increase inspection frequency; review haulage alignment.", "Data_Type": "SYNTHETIC_DEMO", "Source_Provenance": "Synthetic event location linked to geological event record" }, "geometry": { "type": "Point", "coordinates": [ 82.723373765797305, 24.161043073657666 ] } },
{ "type": "Feature", "properties": { "Event_ID": "EV-DUDHICHUA-WAT-01", "Mine_ID": "M-DUDHICHUA", "Mine_Code": "DUDHICHUA", "Financial_Year": "FY 2021-22", "Event_Type": "Hydrology", "Severity": "Moderate", "Area": "Pit floor / drainage", "Description": "Synthetic monsoon water accumulation affected selected working areas.", "Action": "Temporary pumping and drainage-channel maintenance.", "Data_Type": "SYNTHETIC_DEMO", "Source_Provenance": "Synthetic event location linked to geological event record" }, "geometry": { "type": "Point", "coordinates": [ 82.723107436250189, 24.146751836602245 ] } }
]
}
