{
"type": "FeatureCollection",
"name": "geological_units",
"crs": { "type": "name", "properties": { "name": "urn:ogc:def:crs:OGC:1.3:CRS84" } },
"features": [
{ "type": "Feature", "properties": { "Geology_Unit_ID": "GEVRA-GU-01", "Mine_ID": "M-GEVRA", "Mine_Code": "GEVRA", "Unit_Name": "Sandstone", "Unit_Type": "LITHOLOGY", "Age": "SYNTHETIC", "Description": "Synthetic sandstone unit for demonstration spatial queries", "Relative_Order": 1, "Data_Type": "SYNTHETIC_DEMO", "Source_Provenance": "Synthetic geometry; not an official geological map" }, "geometry": { "type": "Polygon", "coordinates": [ [ [ 82.47, 22.18 ], [ 82.5, 22.175 ], [ 82.53, 22.23 ], [ 82.5, 22.235 ], [ 82.47, 22.18 ] ] ] } },
{ "type": "Feature", "properties": { "Geology_Unit_ID": "GEVRA-GU-02", "Mine_ID": "M-GEVRA", "Mine_Code": "GEVRA", "Unit_Name": "Shale", "Unit_Type": "LITHOLOGY", "Age": "SYNTHETIC", "Description": "Synthetic shale unit for demonstration spatial queries", "Relative_Order": 2, "Data_Type": "SYNTHETIC_DEMO", "Source_Provenance": "Synthetic geometry; not an official geological map" }, "geometry": { "type": "Polygon", "coordinates": [ [ [ 82.482, 22.18 ], [ 82.512, 22.175 ], [ 82.542, 22.23 ], [ 82.512, 22.235 ], [ 82.482, 22.18 ] ] ] } },
{ "type": "Feature", "properties": { "Geology_Unit_ID": "GEVRA-GU-03", "Mine_ID": "M-GEVRA", "Mine_Code": "GEVRA", "Unit_Name": "Coal-bearing sequence", "Unit_Type": "LITHOLOGY", "Age": "SYNTHETIC", "Description": "Synthetic coal-bearing sequence unit for demonstration spatial queries", "Relative_Order": 3, "Data_Type": "SYNTHETIC_DEMO", "Source_Provenance": "Synthetic geometry; not an official geological map" }, "geometry": { "type": "Polygon", "coordinates": [ [ [ 82.494, 22.18 ], [ 82.524, 22.175 ], [ 82.554, 22.23 ], [ 82.524, 22.235 ], [ 82.494, 22.18 ] ] ] } },
{ "type": "Feature", "properties": { "Geology_Unit_ID": "GEVRA-GU-04", "Mine_ID": "M-GEVRA", "Mine_Code": "GEVRA", "Unit_Name": "Siltstone", "Unit_Type": "LITHOLOGY", "Age": "SYNTHETIC", "Description": "Synthetic siltstone unit for demonstration spatial queries", "Relative_Order": 4, "Data_Type": "SYNTHETIC_DEMO", "Source_Provenance": "Synthetic geometry; not an official geological map" }, "geometry": { "type": "Polygon", "coordinates": [ [ [ 82.506, 22.18 ], [ 82.536, 22.175 ], [ 82.566, 22.23 ], [ 82.536, 22.235 ], [ 82.506, 22.18 ] ] ] } },
{ "type": "Feature", "properties": { "Geology_Unit_ID": "GEVRA-GU-05", "Mine_ID": "M-GEVRA", "Mine_Code": "GEVRA", "Unit_Name": "Mudstone", "Unit_Type": "LITHOLOGY", "Age": "SYNTHETIC", "Description": "Synthetic mudstone unit for demonstration spatial queries", "Relative_Order": 5, "Data_Type": "SYNTHETIC_DEMO", "Source_Provenance": "Synthetic geometry; not an official geological map" }, "geometry": { "type": "Polygon", "coordinates": [ [ [ 82.518, 22.18 ], [ 82.548, 22.175 ], [ 82.578, 22.23 ], [ 82.548, 22.235 ], [ 82.518, 22.18 ] ] ] } },
{ "type": "Feature", "properties": { "Geology_Unit_ID": "GEVRA-GU-06", "Mine_ID": "M-GEVRA", "Mine_Code": "GEVRA", "Unit_Name": "Weathered zone", "Unit_Type": "LITHOLOGY", "Age": "SYNTHETIC", "Description": "Synthetic weathered zone unit for demonstration spatial queries", "Relative_Order": 6, "Data_Type": "SYNTHETIC_DEMO", "Source_Provenance": "Synthetic geometry; not an official geological map" }, "geometry": { "type": "Polygon", "coordinates": [ [ [ 82.53, 22.18 ], [ 82.56, 22.175 ], [ 82.59, 22.23 ], [ 82.56, 22.235 ], [ 82.53, 22.18 ] ] ] } },
{ "type": "Feature", "properties": { "Geology_Unit_ID": "KUSMUNDA-GU-01", "Mine_ID": "M-KUSMUNDA", "Mine_Code": "KUSMUNDA", "Unit_Name": "Sandstone", "Unit_Type": "LITHOLOGY", "Age": "SYNTHETIC", "Description": "Synthetic sandstone unit for demonstration spatial queries", "Relative_Order": 1, "Data_Type": "SYNTHETIC_DEMO", "Source_Provenance": "Synthetic geometry; not an official geological map" }, "geometry": { "type": "Polygon", "coordinates": [ [ [ 82.61, 22.28 ], [ 82.64, 22.275 ], [ 82.67, 22.33 ], [ 82.64, 22.335 ], [ 82.61, 22.28 ] ] ] } },
{ "type": "Feature", "properties": { "Geology_Unit_ID": "KUSMUNDA-GU-02", "Mine_ID": "M-KUSMUNDA", "Mine_Code": "KUSMUNDA", "Unit_Name": "Shale", "Unit_Type": "LITHOLOGY", "Age": "SYNTHETIC", "Description": "Synthetic shale unit for demonstration spatial queries", "Relative_Order": 2, "Data_Type": "SYNTHETIC_DEMO", "Source_Provenance": "Synthetic geometry; not an official geological map" }, "geometry": { "type": "Polygon", "coordinates": [ [ [ 82.622, 22.28 ], [ 82.652, 22.275 ], [ 82.682, 22.33 ], [ 82.652, 22.335 ], [ 82.622, 22.28 ] ] ] } },
{ "type": "Feature", "properties": { "Geology_Unit_ID": "KUSMUNDA-GU-03", "Mine_ID": "M-KUSMUNDA", "Mine_Code": "KUSMUNDA", "Unit_Name": "Coal-bearing sequence", "Unit_Type": "LITHOLOGY", "Age": "SYNTHETIC", "Description": "Synthetic coal-bearing sequence unit for demonstration spatial queries", "Relative_Order": 3, "Data_Type": "SYNTHETIC_DEMO", "Source_Provenance": "Synthetic geometry; not an official geological map" }, "geometry": { "type": "Polygon", "coordinates": [ [ [ 82.634, 22.28 ], [ 82.664, 22.275 ], [ 82.694, 22.33 ], [ 82.664, 22.335 ], [ 82.634, 22.28 ] ] ] } },
{ "type": "Feature", "properties": { "Geology_Unit_ID": "KUSMUNDA-GU-04", "Mine_ID": "M-KUSMUNDA", "Mine_Code": "KUSMUNDA", "Unit_Name": "Siltstone", "Unit_Type": "LITHOLOGY", "Age": "SYNTHETIC", "Description": "Synthetic siltstone unit for demonstration spatial queries", "Relative_Order": 4, "Data_Type": "SYNTHETIC_DEMO", "Source_Provenance": "Synthetic geometry; not an official geological map" }, "geometry": { "type": "Polygon", "coordinates": [ [ [ 82.646, 22.28 ], [ 82.676, 22.275 ], [ 82.706, 22.33 ], [ 82.676, 22.335 ], [ 82.646, 22.28 ] ] ] } },
{ "type": "Feature", "properties": { "Geology_Unit_ID": "KUSMUNDA-GU-05", "Mine_ID": "M-KUSMUNDA", "Mine_Code": "KUSMUNDA", "Unit_Name": "Mudstone", "Unit_Type": "LITHOLOGY", "Age": "SYNTHETIC", "Description": "Synthetic mudstone unit for demonstration spatial queries", "Relative_Order": 5, "Data_Type": "SYNTHETIC_DEMO", "Source_Provenance": "Synthetic geometry; not an official geological map" }, "geometry": { "type": "Polygon", "coordinates": [ [ [ 82.658, 22.28 ], [ 82.688, 22.275 ], [ 82.718, 22.33 ], [ 82.688, 22.335 ], [ 82.658, 22.28 ] ] ] } },
{ "type": "Feature", "properties": { "Geology_Unit_ID": "KUSMUNDA-GU-06", "Mine_ID": "M-KUSMUNDA", "Mine_Code": "KUSMUNDA", "Unit_Name": "Weathered zone", "Unit_Type": "LITHOLOGY", "Age": "SYNTHETIC", "Description": "Synthetic weathered zone unit for demonstration spatial queries", "Relative_Order": 6, "Data_Type": "SYNTHETIC_DEMO", "Source_Provenance": "Synthetic geometry; not an official geological map" }, "geometry": { "type": "Polygon", "coordinates": [ [ [ 82.67, 22.28 ], [ 82.7, 22.275 ], [ 82.73, 22.33 ], [ 82.7, 22.335 ], [ 82.67, 22.28 ] ] ] } },
{ "type": "Feature", "properties": { "Geology_Unit_ID": "DIPKA-GU-01", "Mine_ID": "M-DIPKA", "Mine_Code": "DIPKA", "Unit_Name": "Sandstone", "Unit_Type": "LITHOLOGY", "Age": "SYNTHETIC", "Description": "Synthetic sandstone unit for demonstration spatial queries", "Relative_Order": 1, "Data_Type": "SYNTHETIC_DEMO", "Source_Provenance": "Synthetic geometry; not an official geological map" }, "geometry": { "type": "Polygon", "coordinates": [ [ [ 82.47, 22.293 ], [ 82.5, 22.288 ], [ 82.53, 22.343 ], [ 82.5, 22.348 ], [ 82.47, 22.293 ] ] ] } },
{ "type": "Feature", "properties": { "Geology_Unit_ID": "DIPKA-GU-02", "Mine_ID": "M-DIPKA", "Mine_Code": "DIPKA", "Unit_Name": "Shale", "Unit_Type": "LITHOLOGY", "Age": "SYNTHETIC", "Description": "Synthetic shale unit for demonstration spatial queries", "Relative_Order": 2, "Data_Type": "SYNTHETIC_DEMO", "Source_Provenance": "Synthetic geometry; not an official geological map" }, "geometry": { "type": "Polygon", "coordinates": [ [ [ 82.482, 22.293 ], [ 82.512, 22.288 ], [ 82.542, 22.343 ], [ 82.512, 22.348 ], [ 82.482, 22.293 ] ] ] } },
{ "type": "Feature", "properties": { "Geology_Unit_ID": "DIPKA-GU-03", "Mine_ID": "M-DIPKA", "Mine_Code": "DIPKA", "Unit_Name": "Coal-bearing sequence", "Unit_Type": "LITHOLOGY", "Age": "SYNTHETIC", "Description": "Synthetic coal-bearing sequence unit for demonstration spatial queries", "Relative_Order": 3, "Data_Type": "SYNTHETIC_DEMO", "Source_Provenance": "Synthetic geometry; not an official geological map" }, "geometry": { "type": "Polygon", "coordinates": [ [ [ 82.494, 22.293 ], [ 82.524, 22.288 ], [ 82.554, 22.343 ], [ 82.524, 22.348 ], [ 82.494, 22.293 ] ] ] } },
{ "type": "Feature", "properties": { "Geology_Unit_ID": "DIPKA-GU-04", "Mine_ID": "M-DIPKA", "Mine_Code": "DIPKA", "Unit_Name": "Siltstone", "Unit_Type": "LITHOLOGY", "Age": "SYNTHETIC", "Description": "Synthetic siltstone unit for demonstration spatial queries", "Relative_Order": 4, "Data_Type": "SYNTHETIC_DEMO", "Source_Provenance": "Synthetic geometry; not an official geological map" }, "geometry": { "type": "Polygon", "coordinates": [ [ [ 82.506, 22.293 ], [ 82.536, 22.288 ], [ 82.566, 22.343 ], [ 82.536, 22.348 ], [ 82.506, 22.293 ] ] ] } },
{ "type": "Feature", "properties": { "Geology_Unit_ID": "DIPKA-GU-05", "Mine_ID": "M-DIPKA", "Mine_Code": "DIPKA", "Unit_Name": "Mudstone", "Unit_Type": "LITHOLOGY", "Age": "SYNTHETIC", "Description": "Synthetic mudstone unit for demonstration spatial queries", "Relative_Order": 5, "Data_Type": "SYNTHETIC_DEMO", "Source_Provenance": "Synthetic geometry; not an official geological map" }, "geometry": { "type": "Polygon", "coordinates": [ [ [ 82.518, 22.293 ], [ 82.548, 22.288 ], [ 82.578, 22.343 ], [ 82.548, 22.348 ], [ 82.518, 22.293 ] ] ] } },
{ "type": "Feature", "properties": { "Geology_Unit_ID": "DIPKA-GU-06", "Mine_ID": "M-DIPKA", "Mine_Code": "DIPKA", "Unit_Name": "Weathered zone", "Unit_Type": "LITHOLOGY", "Age": "SYNTHETIC", "Description": "Synthetic weathered zone unit for demonstration spatial queries", "Relative_Order": 6, "Data_Type": "SYNTHETIC_DEMO", "Source_Provenance": "Synthetic geometry; not an official geological map" }, "geometry": { "type": "Polygon", "coordinates": [ [ [ 82.53, 22.293 ], [ 82.56, 22.288 ], [ 82.59, 22.343 ], [ 82.56, 22.348 ], [ 82.53, 22.293 ] ] ] } },
{ "type": "Feature", "properties": { "Geology_Unit_ID": "NIGAHI-GU-01", "Mine_ID": "M-NIGAHI", "Mine_Code": "NIGAHI", "Unit_Name": "Sandstone", "Unit_Type": "LITHOLOGY", "Age": "SYNTHETIC", "Description": "Synthetic sandstone unit for demonstration spatial queries", "Relative_Order": 1, "Data_Type": "SYNTHETIC_DEMO", "Source_Provenance": "Synthetic geometry; not an official geological map" }, "geometry": { "type": "Polygon", "coordinates": [ [ [ 82.56, 24.125 ], [ 82.59, 24.12 ], [ 82.62, 24.175 ], [ 82.59, 24.18 ], [ 82.56, 24.125 ] ] ] } },
{ "type": "Feature", "properties": { "Geology_Unit_ID": "NIGAHI-GU-02", "Mine_ID": "M-NIGAHI", "Mine_Code": "NIGAHI", "Unit_Name": "Shale", "Unit_Type": "LITHOLOGY", "Age": "SYNTHETIC", "Description": "Synthetic shale unit for demonstration spatial queries", "Relative_Order": 2, "Data_Type": "SYNTHETIC_DEMO", "Source_Provenance": "Synthetic geometry; not an official geological map" }, "geometry": { "type": "Polygon", "coordinates": [ [ [ 82.572, 24.125 ], [ 82.602, 24.12 ], [ 82.632, 24.175 ], [ 82.602, 24.18 ], [ 82.572, 24.125 ] ] ] } },
{ "type": "Feature", "properties": { "Geology_Unit_ID": "NIGAHI-GU-03", "Mine_ID": "M-NIGAHI", "Mine_Code": "NIGAHI", "Unit_Name": "Coal-bearing sequence", "Unit_Type": "LITHOLOGY", "Age": "SYNTHETIC", "Description": "Synthetic coal-bearing sequence unit for demonstration spatial queries", "Relative_Order": 3, "Data_Type": "SYNTHETIC_DEMO", "Source_Provenance": "Synthetic geometry; not an official geological map" }, "geometry": { "type": "Polygon", "coordinates": [ [ [ 82.584, 24.125 ], [ 82.614, 24.12 ], [ 82.644, 24.175 ], [ 82.614, 24.18 ], [ 82.584, 24.125 ] ] ] } },
{ "type": "Feature", "properties": { "Geology_Unit_ID": "NIGAHI-GU-04", "Mine_ID": "M-NIGAHI", "Mine_Code": "NIGAHI", "Unit_Name": "Siltstone", "Unit_Type": "LITHOLOGY", "Age": "SYNTHETIC", "Description": "Synthetic siltstone unit for demonstration spatial queries", "Relative_Order": 4, "Data_Type": "SYNTHETIC_DEMO", "Source_Provenance": "Synthetic geometry; not an official geological map" }, "geometry": { "type": "Polygon", "coordinates": [ [ [ 82.596, 24.125 ], [ 82.626, 24.12 ], [ 82.656, 24.175 ], [ 82.626, 24.18 ], [ 82.596, 24.125 ] ] ] } },
{ "type": "Feature", "properties": { "Geology_Unit_ID": "NIGAHI-GU-05", "Mine_ID": "M-NIGAHI", "Mine_Code": "NIGAHI", "Unit_Name": "Mudstone", "Unit_Type": "LITHOLOGY", "Age": "SYNTHETIC", "Description": "Synthetic mudstone unit for demonstration spatial queries", "Relative_Order": 5, "Data_Type": "SYNTHETIC_DEMO", "Source_Provenance": "Synthetic geometry; not an official geological map" }, "geometry": { "type": "Polygon", "coordinates": [ [ [ 82.608, 24.125 ], [ 82.638, 24.12 ], [ 82.668, 24.175 ], [ 82.638, 24.18 ], [ 82.608, 24.125 ] ] ] } },
{ "type": "Feature", "properties": { "Geology_Unit_ID": "NIGAHI-GU-06", "Mine_ID": "M-NIGAHI", "Mine_Code": "NIGAHI", "Unit_Name": "Weathered zone", "Unit_Type": "LITHOLOGY", "Age": "SYNTHETIC", "Description": "Synthetic weathered zone unit for demonstration spatial queries", "Relative_Order": 6, "Data_Type": "SYNTHETIC_DEMO", "Source_Provenance": "Synthetic geometry; not an official geological map" }, "geometry": { "type": "Polygon", "coordinates": [ [ [ 82.62, 24.125 ], [ 82.65, 24.12 ], [ 82.68, 24.175 ], [ 82.65, 24.18 ], [ 82.62, 24.125 ] ] ] } },
{ "type": "Feature", "properties": { "Geology_Unit_ID": "DUDHICHUA-GU-01", "Mine_ID": "M-DUDHICHUA", "Mine_Code": "DUDHICHUA", "Unit_Name": "Sandstone", "Unit_Type": "LITHOLOGY", "Age": "SYNTHETIC", "Description": "Synthetic sandstone unit for demonstration spatial queries", "Relative_Order": 1, "Data_Type": "SYNTHETIC_DEMO", "Source_Provenance": "Synthetic geometry; not an official geological map" }, "geometry": { "type": "Polygon", "coordinates": [ [ [ 82.645, 24.12 ], [ 82.675, 24.115 ], [ 82.705, 24.17 ], [ 82.675, 24.175 ], [ 82.645, 24.12 ] ] ] } },
{ "type": "Feature", "properties": { "Geology_Unit_ID": "DUDHICHUA-GU-02", "Mine_ID": "M-DUDHICHUA", "Mine_Code": "DUDHICHUA", "Unit_Name": "Shale", "Unit_Type": "LITHOLOGY", "Age": "SYNTHETIC", "Description": "Synthetic shale unit for demonstration spatial queries", "Relative_Order": 2, "Data_Type": "SYNTHETIC_DEMO", "Source_Provenance": "Synthetic geometry; not an official geological map" }, "geometry": { "type": "Polygon", "coordinates": [ [ [ 82.657, 24.12 ], [ 82.687, 24.115 ], [ 82.717, 24.17 ], [ 82.687, 24.175 ], [ 82.657, 24.12 ] ] ] } },
{ "type": "Feature", "properties": { "Geology_Unit_ID": "DUDHICHUA-GU-03", "Mine_ID": "M-DUDHICHUA", "Mine_Code": "DUDHICHUA", "Unit_Name": "Coal-bearing sequence", "Unit_Type": "LITHOLOGY", "Age": "SYNTHETIC", "Description": "Synthetic coal-bearing sequence unit for demonstration spatial queries", "Relative_Order": 3, "Data_Type": "SYNTHETIC_DEMO", "Source_Provenance": "Synthetic geometry; not an official geological map" }, "geometry": { "type": "Polygon", "coordinates": [ [ [ 82.669, 24.12 ], [ 82.699, 24.115 ], [ 82.729, 24.17 ], [ 82.699, 24.175 ], [ 82.669, 24.12 ] ] ] } },
{ "type": "Feature", "properties": { "Geology_Unit_ID": "DUDHICHUA-GU-04", "Mine_ID": "M-DUDHICHUA", "Mine_Code": "DUDHICHUA", "Unit_Name": "Siltstone", "Unit_Type": "LITHOLOGY", "Age": "SYNTHETIC", "Description": "Synthetic siltstone unit for demonstration spatial queries", "Relative_Order": 4, "Data_Type": "SYNTHETIC_DEMO", "Source_Provenance": "Synthetic geometry; not an official geological map" }, "geometry": { "type": "Polygon", "coordinates": [ [ [ 82.681, 24.12 ], [ 82.711, 24.115 ], [ 82.741, 24.17 ], [ 82.711, 24.175 ], [ 82.681, 24.12 ] ] ] } },
{ "type": "Feature", "properties": { "Geology_Unit_ID": "DUDHICHUA-GU-05", "Mine_ID": "M-DUDHICHUA", "Mine_Code": "DUDHICHUA", "Unit_Name": "Mudstone", "Unit_Type": "LITHOLOGY", "Age": "SYNTHETIC", "Description": "Synthetic mudstone unit for demonstration spatial queries", "Relative_Order": 5, "Data_Type": "SYNTHETIC_DEMO", "Source_Provenance": "Synthetic geometry; not an official geological map" }, "geometry": { "type": "Polygon", "coordinates": [ [ [ 82.693, 24.12 ], [ 82.723, 24.115 ], [ 82.753, 24.17 ], [ 82.723, 24.175 ], [ 82.693, 24.12 ] ] ] } },
{ "type": "Feature", "properties": { "Geology_Unit_ID": "DUDHICHUA-GU-06", "Mine_ID": "M-DUDHICHUA", "Mine_Code": "DUDHICHUA", "Unit_Name": "Weathered zone", "Unit_Type": "LITHOLOGY", "Age": "SYNTHETIC", "Description": "Synthetic weathered zone unit for demonstration spatial queries", "Relative_Order": 6, "Data_Type": "SYNTHETIC_DEMO", "Source_Provenance": "Synthetic geometry; not an official geological map" }, "geometry": { "type": "Polygon", "coordinates": [ [ [ 82.705, 24.12 ], [ 82.735, 24.115 ], [ 82.765, 24.17 ], [ 82.735, 24.175 ], [ 82.705, 24.12 ] ] ] } }
]
}
