{
"type": "FeatureCollection",
"name": "geological_contacts",
"crs": { "type": "name", "properties": { "name": "urn:ogc:def:crs:OGC:1.3:CRS84" } },
"features": [
{ "type": "Feature", "properties": { "Contact_ID": "GEVRA-GC-01", "Mine_ID": "M-GEVRA", "Mine_Code": "GEVRA", "Contact_Type": "GEOLOGICAL_BOUNDARY", "Unit_A": "Sandstone", "Unit_B": "Shale", "Confidence": "DEMO", "Data_Type": "SYNTHETIC_DEMO", "Source_Provenance": "Synthetic geological contact" }, "geometry": { "type": "LineString", "coordinates": [ [ 82.495, 22.175 ], [ 82.515, 22.235 ] ] } },
{ "type": "Feature", "properties": { "Contact_ID": "GEVRA-GC-02", "Mine_ID": "M-GEVRA", "Mine_Code": "GEVRA", "Contact_Type": "GEOLOGICAL_BOUNDARY", "Unit_A": "Sandstone", "Unit_B": "Shale", "Confidence": "DEMO", "Data_Type": "SYNTHETIC_DEMO", "Source_Provenance": "Synthetic geological contact" }, "geometry": { "type": "LineString", "coordinates": [ [ 82.525, 22.175 ], [ 82.545, 22.235 ] ] } },
{ "type": "Feature", "properties": { "Contact_ID": "GEVRA-GC-03", "Mine_ID": "M-GEVRA", "Mine_Code": "GEVRA", "Contact_Type": "STRATIGRAPHIC_CONTACT", "Unit_A": "Sandstone", "Unit_B": "Shale", "Confidence": "DEMO", "Data_Type": "SYNTHETIC_DEMO", "Source_Provenance": "Synthetic geological contact" }, "geometry": { "type": "LineString", "coordinates": [ [ 82.555, 22.175 ], [ 82.575, 22.235 ] ] } },
{ "type": "Feature", "properties": { "Contact_ID": "KUSMUNDA-GC-01", "Mine_ID": "M-KUSMUNDA", "Mine_Code": "KUSMUNDA", "Contact_Type": "GEOLOGICAL_BOUNDARY", "Unit_A": "Sandstone", "Unit_B": "Shale", "Confidence": "DEMO", "Data_Type": "SYNTHETIC_DEMO", "Source_Provenance": "Synthetic geological contact" }, "geometry": { "type": "LineString", "coordinates": [ [ 82.635, 22.275 ], [ 82.655, 22.335 ] ] } },
{ "type": "Feature", "properties": { "Contact_ID": "KUSMUNDA-GC-02", "Mine_ID": "M-KUSMUNDA", "Mine_Code": "KUSMUNDA", "Contact_Type": "GEOLOGICAL_BOUNDARY", "Unit_A": "Sandstone", "Unit_B": "Shale", "Confidence": "DEMO", "Data_Type": "SYNTHETIC_DEMO", "Source_Provenance": "Synthetic geological contact" }, "geometry": { "type": "LineString", "coordinates": [ [ 82.665, 22.275 ], [ 82.685, 22.335 ] ] } },
{ "type": "Feature", "properties": { "Contact_ID": "KUSMUNDA-GC-03", "Mine_ID": "M-KUSMUNDA", "Mine_Code": "KUSMUNDA", "Contact_Type": "SEAM_CONTACT", "Unit_A": "Sandstone", "Unit_B": "Shale", "Confidence": "DEMO", "Data_Type": "SYNTHETIC_DEMO", "Source_Provenance": "Synthetic geological contact" }, "geometry": { "type": "LineString", "coordinates": [ [ 82.695, 22.275 ], [ 82.715, 22.335 ] ] } },
{ "type": "Feature", "properties": { "Contact_ID": "DIPKA-GC-01", "Mine_ID": "M-DIPKA", "Mine_Code": "DIPKA", "Contact_Type": "STRATIGRAPHIC_CONTACT", "Unit_A": "Sandstone", "Unit_B": "Shale", "Confidence": "DEMO", "Data_Type": "SYNTHETIC_DEMO", "Source_Provenance": "Synthetic geological contact" }, "geometry": { "type": "LineString", "coordinates": [ [ 82.495, 22.288 ], [ 82.515, 22.348 ] ] } },
{ "type": "Feature", "properties": { "Contact_ID": "DIPKA-GC-02", "Mine_ID": "M-DIPKA", "Mine_Code": "DIPKA", "Contact_Type": "STRATIGRAPHIC_CONTACT", "Unit_A": "Sandstone", "Unit_B": "Shale", "Confidence": "DEMO", "Data_Type": "SYNTHETIC_DEMO", "Source_Provenance": "Synthetic geological contact" }, "geometry": { "type": "LineString", "coordinates": [ [ 82.525, 22.288 ], [ 82.545, 22.348 ] ] } },
{ "type": "Feature", "properties": { "Contact_ID": "DIPKA-GC-03", "Mine_ID": "M-DIPKA", "Mine_Code": "DIPKA", "Contact_Type": "STRATIGRAPHIC_CONTACT", "Unit_A": "Sandstone", "Unit_B": "Shale", "Confidence": "DEMO", "Data_Type": "SYNTHETIC_DEMO", "Source_Provenance": "Synthetic geological contact" }, "geometry": { "type": "LineString", "coordinates": [ [ 82.555, 22.288 ], [ 82.575, 22.348 ] ] } },
{ "type": "Feature", "properties": { "Contact_ID": "NIGAHI-GC-01", "Mine_ID": "M-NIGAHI", "Mine_Code": "NIGAHI", "Contact_Type": "GEOLOGICAL_BOUNDARY", "Unit_A": "Sandstone", "Unit_B": "Shale", "Confidence": "DEMO", "Data_Type": "SYNTHETIC_DEMO", "Source_Provenance": "Synthetic geological contact" }, "geometry": { "type": "LineString", "coordinates": [ [ 82.585, 24.12 ], [ 82.605, 24.18 ] ] } },
{ "type": "Feature", "properties": { "Contact_ID": "NIGAHI-GC-02", "Mine_ID": "M-NIGAHI", "Mine_Code": "NIGAHI", "Contact_Type": "SEAM_CONTACT", "Unit_A": "Sandstone", "Unit_B": "Shale", "Confidence": "DEMO", "Data_Type": "SYNTHETIC_DEMO", "Source_Provenance": "Synthetic geological contact" }, "geometry": { "type": "LineString", "coordinates": [ [ 82.615, 24.12 ], [ 82.635, 24.18 ] ] } },
{ "type": "Feature", "properties": { "Contact_ID": "NIGAHI-GC-03", "Mine_ID": "M-NIGAHI", "Mine_Code": "NIGAHI", "Contact_Type": "STRATIGRAPHIC_CONTACT", "Unit_A": "Sandstone", "Unit_B": "Shale", "Confidence": "DEMO", "Data_Type": "SYNTHETIC_DEMO", "Source_Provenance": "Synthetic geological contact" }, "geometry": { "type": "LineString", "coordinates": [ [ 82.645, 24.12 ], [ 82.665, 24.18 ] ] } },
{ "type": "Feature", "properties": { "Contact_ID": "DUDHICHUA-GC-01", "Mine_ID": "M-DUDHICHUA", "Mine_Code": "DUDHICHUA", "Contact_Type": "SEAM_CONTACT", "Unit_A": "Sandstone", "Unit_B": "Shale", "Confidence": "DEMO", "Data_Type": "SYNTHETIC_DEMO", "Source_Provenance": "Synthetic geological contact" }, "geometry": { "type": "LineString", "coordinates": [ [ 82.67, 24.115 ], [ 82.69, 24.175 ] ] } },
{ "type": "Feature", "properties": { "Contact_ID": "DUDHICHUA-GC-02", "Mine_ID": "M-DUDHICHUA", "Mine_Code": "DUDHICHUA", "Contact_Type": "SEAM_CONTACT", "Unit_A": "Sandstone", "Unit_B": "Shale", "Confidence": "DEMO", "Data_Type": "SYNTHETIC_DEMO", "Source_Provenance": "Synthetic geological contact" }, "geometry": { "type": "LineString", "coordinates": [ [ 82.7, 24.115 ], [ 82.72, 24.175 ] ] } },
{ "type": "Feature", "properties": { "Contact_ID": "DUDHICHUA-GC-03", "Mine_ID": "M-DUDHICHUA", "Mine_Code": "DUDHICHUA", "Contact_Type": "SEAM_CONTACT", "Unit_A": "Sandstone", "Unit_B": "Shale", "Confidence": "DEMO", "Data_Type": "SYNTHETIC_DEMO", "Source_Provenance": "Synthetic geological contact" }, "geometry": { "type": "LineString", "coordinates": [ [ 82.73, 24.115 ], [ 82.75, 24.175 ] ] } }
]
}
