{
"type": "FeatureCollection",
"name": "geotechnical_zones",
"crs": { "type": "name", "properties": { "name": "urn:ogc:def:crs:OGC:1.3:CRS84" } },
"features": [
{ "type": "Feature", "properties": { "Zone_ID": "GEVRA-GZ-01", "Mine_ID": "M-GEVRA", "Mine_Code": "GEVRA", "Zone_Type": "Stable Bench Zone", "Risk_Class": "MODERATE", "Basis": "Synthetic demonstration interpretation", "Data_Type": "SYNTHETIC_DEMO", "Source_Provenance": "Synthetic geotechnical zone; not an engineering design input" }, "geometry": { "type": "Polygon", "coordinates": [ [ [ 82.4925, 22.185 ], [ 82.5175, 22.185 ], [ 82.5225, 22.225 ], [ 82.4875, 22.225 ], [ 82.4925, 22.185 ] ] ] } },
{ "type": "Feature", "properties": { "Zone_ID": "GEVRA-GZ-02", "Mine_ID": "M-GEVRA", "Mine_Code": "GEVRA", "Zone_Type": "Weathered Highwall Zone", "Risk_Class": "MODERATE", "Basis": "Synthetic demonstration interpretation", "Data_Type": "SYNTHETIC_DEMO", "Source_Provenance": "Synthetic geotechnical zone; not an engineering design input" }, "geometry": { "type": "Polygon", "coordinates": [ [ [ 82.5075, 22.185 ], [ 82.5325, 22.185 ], [ 82.5375, 22.225 ], [ 82.5025, 22.225 ], [ 82.5075, 22.185 ] ] ] } },
{ "type": "Feature", "properties": { "Zone_ID": "GEVRA-GZ-03", "Mine_ID": "M-GEVRA", "Mine_Code": "GEVRA", "Zone_Type": "Fault Influence Zone", "Risk_Class": "MODERATE", "Basis": "Synthetic demonstration interpretation", "Data_Type": "SYNTHETIC_DEMO", "Source_Provenance": "Synthetic geotechnical zone; not an engineering design input" }, "geometry": { "type": "Polygon", "coordinates": [ [ [ 82.5225, 22.185 ], [ 82.5475, 22.185 ], [ 82.5525, 22.225 ], [ 82.5175, 22.225 ], [ 82.5225, 22.185 ] ] ] } },
{ "type": "Feature", "properties": { "Zone_ID": "GEVRA-GZ-04", "Mine_ID": "M-GEVRA", "Mine_Code": "GEVRA", "Zone_Type": "Water-Influenced Zone", "Risk_Class": "LOW", "Basis": "Synthetic demonstration interpretation", "Data_Type": "SYNTHETIC_DEMO", "Source_Provenance": "Synthetic geotechnical zone; not an engineering design input" }, "geometry": { "type": "Polygon", "coordinates": [ [ [ 82.5375, 22.185 ], [ 82.5625, 22.185 ], [ 82.5675, 22.225 ], [ 82.5325, 22.225 ], [ 82.5375, 22.185 ] ] ] } },
{ "type": "Feature", "properties": { "Zone_ID": "KUSMUNDA-GZ-01", "Mine_ID": "M-KUSMUNDA", "Mine_Code": "KUSMUNDA", "Zone_Type": "Stable Bench Zone", "Risk_Class": "HIGH", "Basis": "Synthetic demonstration interpretation", "Data_Type": "SYNTHETIC_DEMO", "Source_Provenance": "Synthetic geotechnical zone; not an engineering design input" }, "geometry": { "type": "Polygon", "coordinates": [ [ [ 82.6325, 22.285 ], [ 82.6575, 22.285 ], [ 82.6625, 22.325 ], [ 82.6275, 22.325 ], [ 82.6325, 22.285 ] ] ] } },
{ "type": "Feature", "properties": { "Zone_ID": "KUSMUNDA-GZ-02", "Mine_ID": "M-KUSMUNDA", "Mine_Code": "KUSMUNDA", "Zone_Type": "Weathered Highwall Zone", "Risk_Class": "LOW", "Basis": "Synthetic demonstration interpretation", "Data_Type": "SYNTHETIC_DEMO", "Source_Provenance": "Synthetic geotechnical zone; not an engineering design input" }, "geometry": { "type": "Polygon", "coordinates": [ [ [ 82.6475, 22.285 ], [ 82.6725, 22.285 ], [ 82.6775, 22.325 ], [ 82.6425, 22.325 ], [ 82.6475, 22.285 ] ] ] } },
{ "type": "Feature", "properties": { "Zone_ID": "KUSMUNDA-GZ-03", "Mine_ID": "M-KUSMUNDA", "Mine_Code": "KUSMUNDA", "Zone_Type": "Fault Influence Zone", "Risk_Class": "HIGH", "Basis": "Synthetic demonstration interpretation", "Data_Type": "SYNTHETIC_DEMO", "Source_Provenance": "Synthetic geotechnical zone; not an engineering design input" }, "geometry": { "type": "Polygon", "coordinates": [ [ [ 82.6625, 22.285 ], [ 82.6875, 22.285 ], [ 82.6925, 22.325 ], [ 82.6575, 22.325 ], [ 82.6625, 22.285 ] ] ] } },
{ "type": "Feature", "properties": { "Zone_ID": "KUSMUNDA-GZ-04", "Mine_ID": "M-KUSMUNDA", "Mine_Code": "KUSMUNDA", "Zone_Type": "Water-Influenced Zone", "Risk_Class": "MODERATE", "Basis": "Synthetic demonstration interpretation", "Data_Type": "SYNTHETIC_DEMO", "Source_Provenance": "Synthetic geotechnical zone; not an engineering design input" }, "geometry": { "type": "Polygon", "coordinates": [ [ [ 82.6775, 22.285 ], [ 82.7025, 22.285 ], [ 82.7075, 22.325 ], [ 82.6725, 22.325 ], [ 82.6775, 22.285 ] ] ] } },
{ "type": "Feature", "properties": { "Zone_ID": "DIPKA-GZ-01", "Mine_ID": "M-DIPKA", "Mine_Code": "DIPKA", "Zone_Type": "Stable Bench Zone", "Risk_Class": "MODERATE", "Basis": "Synthetic demonstration interpretation", "Data_Type": "SYNTHETIC_DEMO", "Source_Provenance": "Synthetic geotechnical zone; not an engineering design input" }, "geometry": { "type": "Polygon", "coordinates": [ [ [ 82.4925, 22.298 ], [ 82.5175, 22.298 ], [ 82.5225, 22.338 ], [ 82.4875, 22.338 ], [ 82.4925, 22.298 ] ] ] } },
{ "type": "Feature", "properties": { "Zone_ID": "DIPKA-GZ-02", "Mine_ID": "M-DIPKA", "Mine_Code": "DIPKA", "Zone_Type": "Weathered Highwall Zone", "Risk_Class": "MODERATE", "Basis": "Synthetic demonstration interpretation", "Data_Type": "SYNTHETIC_DEMO", "Source_Provenance": "Synthetic geotechnical zone; not an engineering design input" }, "geometry": { "type": "Polygon", "coordinates": [ [ [ 82.5075, 22.298 ], [ 82.5325, 22.298 ], [ 82.5375, 22.338 ], [ 82.5025, 22.338 ], [ 82.5075, 22.298 ] ] ] } },
{ "type": "Feature", "properties": { "Zone_ID": "DIPKA-GZ-03", "Mine_ID": "M-DIPKA", "Mine_Code": "DIPKA", "Zone_Type": "Fault Influence Zone", "Risk_Class": "HIGH", "Basis": "Synthetic demonstration interpretation", "Data_Type": "SYNTHETIC_DEMO", "Source_Provenance": "Synthetic geotechnical zone; not an engineering design input" }, "geometry": { "type": "Polygon", "coordinates": [ [ [ 82.5225, 22.298 ], [ 82.5475, 22.298 ], [ 82.5525, 22.338 ], [ 82.5175, 22.338 ], [ 82.5225, 22.298 ] ] ] } },
{ "type": "Feature", "properties": { "Zone_ID": "DIPKA-GZ-04", "Mine_ID": "M-DIPKA", "Mine_Code": "DIPKA", "Zone_Type": "Water-Influenced Zone", "Risk_Class": "MODERATE", "Basis": "Synthetic demonstration interpretation", "Data_Type": "SYNTHETIC_DEMO", "Source_Provenance": "Synthetic geotechnical zone; not an engineering design input" }, "geometry": { "type": "Polygon", "coordinates": [ [ [ 82.5375, 22.298 ], [ 82.5625, 22.298 ], [ 82.5675, 22.338 ], [ 82.5325, 22.338 ], [ 82.5375, 22.298 ] ] ] } },
{ "type": "Feature", "properties": { "Zone_ID": "NIGAHI-GZ-01", "Mine_ID": "M-NIGAHI", "Mine_Code": "NIGAHI", "Zone_Type": "Stable Bench Zone", "Risk_Class": "LOW", "Basis": "Synthetic demonstration interpretation", "Data_Type": "SYNTHETIC_DEMO", "Source_Provenance": "Synthetic geotechnical zone; not an engineering design input" }, "geometry": { "type": "Polygon", "coordinates": [ [ [ 82.5825, 24.13 ], [ 82.6075, 24.13 ], [ 82.6125, 24.17 ], [ 82.5775, 24.17 ], [ 82.5825, 24.13 ] ] ] } },
{ "type": "Feature", "properties": { "Zone_ID": "NIGAHI-GZ-02", "Mine_ID": "M-NIGAHI", "Mine_Code": "NIGAHI", "Zone_Type": "Weathered Highwall Zone", "Risk_Class": "LOW", "Basis": "Synthetic demonstration interpretation", "Data_Type": "SYNTHETIC_DEMO", "Source_Provenance": "Synthetic geotechnical zone; not an engineering design input" }, "geometry": { "type": "Polygon", "coordinates": [ [ [ 82.5975, 24.13 ], [ 82.6225, 24.13 ], [ 82.6275, 24.17 ], [ 82.5925, 24.17 ], [ 82.5975, 24.13 ] ] ] } },
{ "type": "Feature", "properties": { "Zone_ID": "NIGAHI-GZ-03", "Mine_ID": "M-NIGAHI", "Mine_Code": "NIGAHI", "Zone_Type": "Fault Influence Zone", "Risk_Class": "LOW", "Basis": "Synthetic demonstration interpretation", "Data_Type": "SYNTHETIC_DEMO", "Source_Provenance": "Synthetic geotechnical zone; not an engineering design input" }, "geometry": { "type": "Polygon", "coordinates": [ [ [ 82.6125, 24.13 ], [ 82.6375, 24.13 ], [ 82.6425, 24.17 ], [ 82.6075, 24.17 ], [ 82.6125, 24.13 ] ] ] } },
{ "type": "Feature", "properties": { "Zone_ID": "NIGAHI-GZ-04", "Mine_ID": "M-NIGAHI", "Mine_Code": "NIGAHI", "Zone_Type": "Water-Influenced Zone", "Risk_Class": "HIGH", "Basis": "Synthetic demonstration interpretation", "Data_Type": "SYNTHETIC_DEMO", "Source_Provenance": "Synthetic geotechnical zone; not an engineering design input" }, "geometry": { "type": "Polygon", "coordinates": [ [ [ 82.6275, 24.13 ], [ 82.6525, 24.13 ], [ 82.6575, 24.17 ], [ 82.6225, 24.17 ], [ 82.6275, 24.13 ] ] ] } },
{ "type": "Feature", "properties": { "Zone_ID": "DUDHICHUA-GZ-01", "Mine_ID": "M-DUDHICHUA", "Mine_Code": "DUDHICHUA", "Zone_Type": "Stable Bench Zone", "Risk_Class": "LOW", "Basis": "Synthetic demonstration interpretation", "Data_Type": "SYNTHETIC_DEMO", "Source_Provenance": "Synthetic geotechnical zone; not an engineering design input" }, "geometry": { "type": "Polygon", "coordinates": [ [ [ 82.6675, 24.125 ], [ 82.6925, 24.125 ], [ 82.6975, 24.165 ], [ 82.6625, 24.165 ], [ 82.6675, 24.125 ] ] ] } },
{ "type": "Feature", "properties": { "Zone_ID": "DUDHICHUA-GZ-02", "Mine_ID": "M-DUDHICHUA", "Mine_Code": "DUDHICHUA", "Zone_Type": "Weathered Highwall Zone", "Risk_Class": "MODERATE", "Basis": "Synthetic demonstration interpretation", "Data_Type": "SYNTHETIC_DEMO", "Source_Provenance": "Synthetic geotechnical zone; not an engineering design input" }, "geometry": { "type": "Polygon", "coordinates": [ [ [ 82.6825, 24.125 ], [ 82.7075, 24.125 ], [ 82.7125, 24.165 ], [ 82.6775, 24.165 ], [ 82.6825, 24.125 ] ] ] } },
{ "type": "Feature", "properties": { "Zone_ID": "DUDHICHUA-GZ-03", "Mine_ID": "M-DUDHICHUA", "Mine_Code": "DUDHICHUA", "Zone_Type": "Fault Influence Zone", "Risk_Class": "HIGH", "Basis": "Synthetic demonstration interpretation", "Data_Type": "SYNTHETIC_DEMO", "Source_Provenance": "Synthetic geotechnical zone; not an engineering design input" }, "geometry": { "type": "Polygon", "coordinates": [ [ [ 82.6975, 24.125 ], [ 82.7225, 24.125 ], [ 82.7275, 24.165 ], [ 82.6925, 24.165 ], [ 82.6975, 24.125 ] ] ] } },
{ "type": "Feature", "properties": { "Zone_ID": "DUDHICHUA-GZ-04", "Mine_ID": "M-DUDHICHUA", "Mine_Code": "DUDHICHUA", "Zone_Type": "Water-Influenced Zone", "Risk_Class": "MODERATE", "Basis": "Synthetic demonstration interpretation", "Data_Type": "SYNTHETIC_DEMO", "Source_Provenance": "Synthetic geotechnical zone; not an engineering design input" }, "geometry": { "type": "Polygon", "coordinates": [ [ [ 82.7125, 24.125 ], [ 82.7375, 24.125 ], [ 82.7425, 24.165 ], [ 82.7075, 24.165 ], [ 82.7125, 24.125 ] ] ] } }
]
}
