{
"type": "FeatureCollection",
"name": "landuse",
"crs": { "type": "name", "properties": { "name": "urn:ogc:def:crs:OGC:1.3:CRS84" } },
"features": [
{ "type": "Feature", "properties": { "Landuse_ID": "GEVRA-LU-01", "Mine_ID": "M-GEVRA", "Mine_Code": "GEVRA", "Landuse_Class": "Active Mine Working", "Status": "SYNTHETIC", "Data_Type": "SYNTHETIC_DEMO", "Source_Provenance": "Synthetic land-use classification" }, "geometry": { "type": "Polygon", "coordinates": [ [ [ 82.475, 22.193 ], [ 82.495, 22.187 ], [ 82.515, 22.217 ], [ 82.495, 22.223 ], [ 82.475, 22.193 ] ] ] } },
{ "type": "Feature", "properties": { "Landuse_ID": "GEVRA-LU-02", "Mine_ID": "M-GEVRA", "Mine_Code": "GEVRA", "Landuse_Class": "Overburden Dump", "Status": "SYNTHETIC", "Data_Type": "SYNTHETIC_DEMO", "Source_Provenance": "Synthetic land-use classification" }, "geometry": { "type": "Polygon", "coordinates": [ [ [ 82.485, 22.193 ], [ 82.505, 22.187 ], [ 82.525, 22.217 ], [ 82.505, 22.223 ], [ 82.485, 22.193 ] ] ] } },
{ "type": "Feature", "properties": { "Landuse_ID": "GEVRA-LU-03", "Mine_ID": "M-GEVRA", "Mine_Code": "GEVRA", "Landuse_Class": "Infrastructure", "Status": "SYNTHETIC", "Data_Type": "SYNTHETIC_DEMO", "Source_Provenance": "Synthetic land-use classification" }, "geometry": { "type": "Polygon", "coordinates": [ [ [ 82.495, 22.193 ], [ 82.515, 22.187 ], [ 82.535, 22.217 ], [ 82.515, 22.223 ], [ 82.495, 22.193 ] ] ] } },
{ "type": "Feature", "properties": { "Landuse_ID": "GEVRA-LU-04", "Mine_ID": "M-GEVRA", "Mine_Code": "GEVRA", "Landuse_Class": "Green/Reclaimed Area", "Status": "SYNTHETIC", "Data_Type": "SYNTHETIC_DEMO", "Source_Provenance": "Synthetic land-use classification" }, "geometry": { "type": "Polygon", "coordinates": [ [ [ 82.505, 22.193 ], [ 82.525, 22.187 ], [ 82.545, 22.217 ], [ 82.525, 22.223 ], [ 82.505, 22.193 ] ] ] } },
{ "type": "Feature", "properties": { "Landuse_ID": "GEVRA-LU-05", "Mine_ID": "M-GEVRA", "Mine_Code": "GEVRA", "Landuse_Class": "Water Body", "Status": "SYNTHETIC", "Data_Type": "SYNTHETIC_DEMO", "Source_Provenance": "Synthetic land-use classification" }, "geometry": { "type": "Polygon", "coordinates": [ [ [ 82.515, 22.193 ], [ 82.535, 22.187 ], [ 82.555, 22.217 ], [ 82.535, 22.223 ], [ 82.515, 22.193 ] ] ] } },
{ "type": "Feature", "properties": { "Landuse_ID": "GEVRA-LU-06", "Mine_ID": "M-GEVRA", "Mine_Code": "GEVRA", "Landuse_Class": "Road/Transport", "Status": "SYNTHETIC", "Data_Type": "SYNTHETIC_DEMO", "Source_Provenance": "Synthetic land-use classification" }, "geometry": { "type": "Polygon", "coordinates": [ [ [ 82.525, 22.193 ], [ 82.545, 22.187 ], [ 82.565, 22.217 ], [ 82.545, 22.223 ], [ 82.525, 22.193 ] ] ] } },
{ "type": "Feature", "properties": { "Landuse_ID": "KUSMUNDA-LU-01", "Mine_ID": "M-KUSMUNDA", "Mine_Code": "KUSMUNDA", "Landuse_Class": "Active Mine Working", "Status": "SYNTHETIC", "Data_Type": "SYNTHETIC_DEMO", "Source_Provenance": "Synthetic land-use classification" }, "geometry": { "type": "Polygon", "coordinates": [ [ [ 82.615, 22.293 ], [ 82.635, 22.287 ], [ 82.655, 22.317 ], [ 82.635, 22.323 ], [ 82.615, 22.293 ] ] ] } },
{ "type": "Feature", "properties": { "Landuse_ID": "KUSMUNDA-LU-02", "Mine_ID": "M-KUSMUNDA", "Mine_Code": "KUSMUNDA", "Landuse_Class": "Overburden Dump", "Status": "SYNTHETIC", "Data_Type": "SYNTHETIC_DEMO", "Source_Provenance": "Synthetic land-use classification" }, "geometry": { "type": "Polygon", "coordinates": [ [ [ 82.625, 22.293 ], [ 82.645, 22.287 ], [ 82.665, 22.317 ], [ 82.645, 22.323 ], [ 82.625, 22.293 ] ] ] } },
{ "type": "Feature", "properties": { "Landuse_ID": "KUSMUNDA-LU-03", "Mine_ID": "M-KUSMUNDA", "Mine_Code": "KUSMUNDA", "Landuse_Class": "Infrastructure", "Status": "SYNTHETIC", "Data_Type": "SYNTHETIC_DEMO", "Source_Provenance": "Synthetic land-use classification" }, "geometry": { "type": "Polygon", "coordinates": [ [ [ 82.635, 22.293 ], [ 82.655, 22.287 ], [ 82.675, 22.317 ], [ 82.655, 22.323 ], [ 82.635, 22.293 ] ] ] } },
{ "type": "Feature", "properties": { "Landuse_ID": "KUSMUNDA-LU-04", "Mine_ID": "M-KUSMUNDA", "Mine_Code": "KUSMUNDA", "Landuse_Class": "Green/Reclaimed Area", "Status": "SYNTHETIC", "Data_Type": "SYNTHETIC_DEMO", "Source_Provenance": "Synthetic land-use classification" }, "geometry": { "type": "Polygon", "coordinates": [ [ [ 82.645, 22.293 ], [ 82.665, 22.287 ], [ 82.685, 22.317 ], [ 82.665, 22.323 ], [ 82.645, 22.293 ] ] ] } },
{ "type": "Feature", "properties": { "Landuse_ID": "KUSMUNDA-LU-05", "Mine_ID": "M-KUSMUNDA", "Mine_Code": "KUSMUNDA", "Landuse_Class": "Water Body", "Status": "SYNTHETIC", "Data_Type": "SYNTHETIC_DEMO", "Source_Provenance": "Synthetic land-use classification" }, "geometry": { "type": "Polygon", "coordinates": [ [ [ 82.655, 22.293 ], [ 82.675, 22.287 ], [ 82.695, 22.317 ], [ 82.675, 22.323 ], [ 82.655, 22.293 ] ] ] } },
{ "type": "Feature", "properties": { "Landuse_ID": "KUSMUNDA-LU-06", "Mine_ID": "M-KUSMUNDA", "Mine_Code": "KUSMUNDA", "Landuse_Class": "Road/Transport", "Status": "SYNTHETIC", "Data_Type": "SYNTHETIC_DEMO", "Source_Provenance": "Synthetic land-use classification" }, "geometry": { "type": "Polygon", "coordinates": [ [ [ 82.665, 22.293 ], [ 82.685, 22.287 ], [ 82.705, 22.317 ], [ 82.685, 22.323 ], [ 82.665, 22.293 ] ] ] } },
{ "type": "Feature", "properties": { "Landuse_ID": "DIPKA-LU-01", "Mine_ID": "M-DIPKA", "Mine_Code": "DIPKA", "Landuse_Class": "Active Mine Working", "Status": "SYNTHETIC", "Data_Type": "SYNTHETIC_DEMO", "Source_Provenance": "Synthetic land-use classification" }, "geometry": { "type": "Polygon", "coordinates": [ [ [ 82.475, 22.306 ], [ 82.495, 22.3 ], [ 82.515, 22.33 ], [ 82.495, 22.336 ], [ 82.475, 22.306 ] ] ] } },
{ "type": "Feature", "properties": { "Landuse_ID": "DIPKA-LU-02", "Mine_ID": "M-DIPKA", "Mine_Code": "DIPKA", "Landuse_Class": "Overburden Dump", "Status": "SYNTHETIC", "Data_Type": "SYNTHETIC_DEMO", "Source_Provenance": "Synthetic land-use classification" }, "geometry": { "type": "Polygon", "coordinates": [ [ [ 82.485, 22.306 ], [ 82.505, 22.3 ], [ 82.525, 22.33 ], [ 82.505, 22.336 ], [ 82.485, 22.306 ] ] ] } },
{ "type": "Feature", "properties": { "Landuse_ID": "DIPKA-LU-03", "Mine_ID": "M-DIPKA", "Mine_Code": "DIPKA", "Landuse_Class": "Infrastructure", "Status": "SYNTHETIC", "Data_Type": "SYNTHETIC_DEMO", "Source_Provenance": "Synthetic land-use classification" }, "geometry": { "type": "Polygon", "coordinates": [ [ [ 82.495, 22.306 ], [ 82.515, 22.3 ], [ 82.535, 22.33 ], [ 82.515, 22.336 ], [ 82.495, 22.306 ] ] ] } },
{ "type": "Feature", "properties": { "Landuse_ID": "DIPKA-LU-04", "Mine_ID": "M-DIPKA", "Mine_Code": "DIPKA", "Landuse_Class": "Green/Reclaimed Area", "Status": "SYNTHETIC", "Data_Type": "SYNTHETIC_DEMO", "Source_Provenance": "Synthetic land-use classification" }, "geometry": { "type": "Polygon", "coordinates": [ [ [ 82.505, 22.306 ], [ 82.525, 22.3 ], [ 82.545, 22.33 ], [ 82.525, 22.336 ], [ 82.505, 22.306 ] ] ] } },
{ "type": "Feature", "properties": { "Landuse_ID": "DIPKA-LU-05", "Mine_ID": "M-DIPKA", "Mine_Code": "DIPKA", "Landuse_Class": "Water Body", "Status": "SYNTHETIC", "Data_Type": "SYNTHETIC_DEMO", "Source_Provenance": "Synthetic land-use classification" }, "geometry": { "type": "Polygon", "coordinates": [ [ [ 82.515, 22.306 ], [ 82.535, 22.3 ], [ 82.555, 22.33 ], [ 82.535, 22.336 ], [ 82.515, 22.306 ] ] ] } },
{ "type": "Feature", "properties": { "Landuse_ID": "DIPKA-LU-06", "Mine_ID": "M-DIPKA", "Mine_Code": "DIPKA", "Landuse_Class": "Road/Transport", "Status": "SYNTHETIC", "Data_Type": "SYNTHETIC_DEMO", "Source_Provenance": "Synthetic land-use classification" }, "geometry": { "type": "Polygon", "coordinates": [ [ [ 82.525, 22.306 ], [ 82.545, 22.3 ], [ 82.565, 22.33 ], [ 82.545, 22.336 ], [ 82.525, 22.306 ] ] ] } },
{ "type": "Feature", "properties": { "Landuse_ID": "NIGAHI-LU-01", "Mine_ID": "M-NIGAHI", "Mine_Code": "NIGAHI", "Landuse_Class": "Active Mine Working", "Status": "SYNTHETIC", "Data_Type": "SYNTHETIC_DEMO", "Source_Provenance": "Synthetic land-use classification" }, "geometry": { "type": "Polygon", "coordinates": [ [ [ 82.565, 24.138 ], [ 82.585, 24.132 ], [ 82.605, 24.162 ], [ 82.585, 24.168 ], [ 82.565, 24.138 ] ] ] } },
{ "type": "Feature", "properties": { "Landuse_ID": "NIGAHI-LU-02", "Mine_ID": "M-NIGAHI", "Mine_Code": "NIGAHI", "Landuse_Class": "Overburden Dump", "Status": "SYNTHETIC", "Data_Type": "SYNTHETIC_DEMO", "Source_Provenance": "Synthetic land-use classification" }, "geometry": { "type": "Polygon", "coordinates": [ [ [ 82.575, 24.138 ], [ 82.595, 24.132 ], [ 82.615, 24.162 ], [ 82.595, 24.168 ], [ 82.575, 24.138 ] ] ] } },
{ "type": "Feature", "properties": { "Landuse_ID": "NIGAHI-LU-03", "Mine_ID": "M-NIGAHI", "Mine_Code": "NIGAHI", "Landuse_Class": "Infrastructure", "Status": "SYNTHETIC", "Data_Type": "SYNTHETIC_DEMO", "Source_Provenance": "Synthetic land-use classification" }, "geometry": { "type": "Polygon", "coordinates": [ [ [ 82.585, 24.138 ], [ 82.605, 24.132 ], [ 82.625, 24.162 ], [ 82.605, 24.168 ], [ 82.585, 24.138 ] ] ] } },
{ "type": "Feature", "properties": { "Landuse_ID": "NIGAHI-LU-04", "Mine_ID": "M-NIGAHI", "Mine_Code": "NIGAHI", "Landuse_Class": "Green/Reclaimed Area", "Status": "SYNTHETIC", "Data_Type": "SYNTHETIC_DEMO", "Source_Provenance": "Synthetic land-use classification" }, "geometry": { "type": "Polygon", "coordinates": [ [ [ 82.595, 24.138 ], [ 82.615, 24.132 ], [ 82.635, 24.162 ], [ 82.615, 24.168 ], [ 82.595, 24.138 ] ] ] } },
{ "type": "Feature", "properties": { "Landuse_ID": "NIGAHI-LU-05", "Mine_ID": "M-NIGAHI", "Mine_Code": "NIGAHI", "Landuse_Class": "Water Body", "Status": "SYNTHETIC", "Data_Type": "SYNTHETIC_DEMO", "Source_Provenance": "Synthetic land-use classification" }, "geometry": { "type": "Polygon", "coordinates": [ [ [ 82.605, 24.138 ], [ 82.625, 24.132 ], [ 82.645, 24.162 ], [ 82.625, 24.168 ], [ 82.605, 24.138 ] ] ] } },
{ "type": "Feature", "properties": { "Landuse_ID": "NIGAHI-LU-06", "Mine_ID": "M-NIGAHI", "Mine_Code": "NIGAHI", "Landuse_Class": "Road/Transport", "Status": "SYNTHETIC", "Data_Type": "SYNTHETIC_DEMO", "Source_Provenance": "Synthetic land-use classification" }, "geometry": { "type": "Polygon", "coordinates": [ [ [ 82.615, 24.138 ], [ 82.635, 24.132 ], [ 82.655, 24.162 ], [ 82.635, 24.168 ], [ 82.615, 24.138 ] ] ] } },
{ "type": "Feature", "properties": { "Landuse_ID": "DUDHICHUA-LU-01", "Mine_ID": "M-DUDHICHUA", "Mine_Code": "DUDHICHUA", "Landuse_Class": "Active Mine Working", "Status": "SYNTHETIC", "Data_Type": "SYNTHETIC_DEMO", "Source_Provenance": "Synthetic land-use classification" }, "geometry": { "type": "Polygon", "coordinates": [ [ [ 82.65, 24.133 ], [ 82.67, 24.127 ], [ 82.69, 24.157 ], [ 82.67, 24.163 ], [ 82.65, 24.133 ] ] ] } },
{ "type": "Feature", "properties": { "Landuse_ID": "DUDHICHUA-LU-02", "Mine_ID": "M-DUDHICHUA", "Mine_Code": "DUDHICHUA", "Landuse_Class": "Overburden Dump", "Status": "SYNTHETIC", "Data_Type": "SYNTHETIC_DEMO", "Source_Provenance": "Synthetic land-use classification" }, "geometry": { "type": "Polygon", "coordinates": [ [ [ 82.66, 24.133 ], [ 82.68, 24.127 ], [ 82.7, 24.157 ], [ 82.68, 24.163 ], [ 82.66, 24.133 ] ] ] } },
{ "type": "Feature", "properties": { "Landuse_ID": "DUDHICHUA-LU-03", "Mine_ID": "M-DUDHICHUA", "Mine_Code": "DUDHICHUA", "Landuse_Class": "Infrastructure", "Status": "SYNTHETIC", "Data_Type": "SYNTHETIC_DEMO", "Source_Provenance": "Synthetic land-use classification" }, "geometry": { "type": "Polygon", "coordinates": [ [ [ 82.67, 24.133 ], [ 82.69, 24.127 ], [ 82.71, 24.157 ], [ 82.69, 24.163 ], [ 82.67, 24.133 ] ] ] } },
{ "type": "Feature", "properties": { "Landuse_ID": "DUDHICHUA-LU-04", "Mine_ID": "M-DUDHICHUA", "Mine_Code": "DUDHICHUA", "Landuse_Class": "Green/Reclaimed Area", "Status": "SYNTHETIC", "Data_Type": "SYNTHETIC_DEMO", "Source_Provenance": "Synthetic land-use classification" }, "geometry": { "type": "Polygon", "coordinates": [ [ [ 82.68, 24.133 ], [ 82.7, 24.127 ], [ 82.72, 24.157 ], [ 82.7, 24.163 ], [ 82.68, 24.133 ] ] ] } },
{ "type": "Feature", "properties": { "Landuse_ID": "DUDHICHUA-LU-05", "Mine_ID": "M-DUDHICHUA", "Mine_Code": "DUDHICHUA", "Landuse_Class": "Water Body", "Status": "SYNTHETIC", "Data_Type": "SYNTHETIC_DEMO", "Source_Provenance": "Synthetic land-use classification" }, "geometry": { "type": "Polygon", "coordinates": [ [ [ 82.69, 24.133 ], [ 82.71, 24.127 ], [ 82.73, 24.157 ], [ 82.71, 24.163 ], [ 82.69, 24.133 ] ] ] } },
{ "type": "Feature", "properties": { "Landuse_ID": "DUDHICHUA-LU-06", "Mine_ID": "M-DUDHICHUA", "Mine_Code": "DUDHICHUA", "Landuse_Class": "Road/Transport", "Status": "SYNTHETIC", "Data_Type": "SYNTHETIC_DEMO", "Source_Provenance": "Synthetic land-use classification" }, "geometry": { "type": "Polygon", "coordinates": [ [ [ 82.7, 24.133 ], [ 82.72, 24.127 ], [ 82.74, 24.157 ], [ 82.72, 24.163 ], [ 82.7, 24.133 ] ] ] } }
]
}
