{
"type": "FeatureCollection",
"name": "survey_points",
"crs": { "type": "name", "properties": { "name": "urn:ogc:def:crs:OGC:1.3:CRS84" } },
"features": [
{ "type": "Feature", "properties": { "Survey_Point_ID": "GEVRA-SP-001", "Mine_ID": "M-GEVRA", "Mine_Code": "GEVRA", "Latitude": 22.231315, "Longitude": 82.5014409, "RL_m": 316.6, "Point_Type": "DGPS_CONTROL", "Survey_Date": "2025-10-24", "Horizontal_Accuracy_m": 0.029, "Vertical_Accuracy_m": 0.053, "Data_Type": "SYNTHETIC_DEMO", "Source_Provenance": "Synthetic survey/control dataset" }, "geometry": { "type": "Point", "coordinates": [ 82.5014409, 22.231315 ] } },
{ "type": "Feature", "properties": { "Survey_Point_ID": "GEVRA-SP-002", "Mine_ID": "M-GEVRA", "Mine_Code": "GEVRA", "Latitude": 22.1940376, "Longitude": 82.5128383, "RL_m": 291.98, "Point_Type": "REFERENCE", "Survey_Date": "2025-01-24", "Horizontal_Accuracy_m": 0.049, "Vertical_Accuracy_m": 0.072, "Data_Type": "SYNTHETIC_DEMO", "Source_Provenance": "Synthetic survey/control dataset" }, "geometry": { "type": "Point", "coordinates": [ 82.5128383, 22.1940376 ] } },
{ "type": "Feature", "properties": { "Survey_Point_ID": "GEVRA-SP-003", "Mine_ID": "M-GEVRA", "Mine_Code": "GEVRA", "Latitude": 22.1848117, "Longitude": 82.5428297, "RL_m": 273.37, "Point_Type": "PIT_RIM", "Survey_Date": "2025-01-02", "Horizontal_Accuracy_m": 0.043, "Vertical_Accuracy_m": 0.102, "Data_Type": "SYNTHETIC_DEMO", "Source_Provenance": "Synthetic survey/control dataset" }, "geometry": { "type": "Point", "coordinates": [ 82.5428297, 22.1848117 ] } },
{ "type": "Feature", "properties": { "Survey_Point_ID": "GEVRA-SP-004", "Mine_ID": "M-GEVRA", "Mine_Code": "GEVRA", "Latitude": 22.1881817, "Longitude": 82.5549623, "RL_m": 291.14, "Point_Type": "REFERENCE", "Survey_Date": "2025-08-17", "Horizontal_Accuracy_m": 0.063, "Vertical_Accuracy_m": 0.028, "Data_Type": "SYNTHETIC_DEMO", "Source_Provenance": "Synthetic survey/control dataset" }, "geometry": { "type": "Point", "coordinates": [ 82.5549623, 22.1881817 ] } },
{ "type": "Feature", "properties": { "Survey_Point_ID": "GEVRA-SP-005", "Mine_ID": "M-GEVRA", "Mine_Code": "GEVRA", "Latitude": 22.1865494, "Longitude": 82.5425281, "RL_m": 255.2, "Point_Type": "REFERENCE", "Survey_Date": "2025-03-02", "Horizontal_Accuracy_m": 0.095, "Vertical_Accuracy_m": 0.194, "Data_Type": "SYNTHETIC_DEMO", "Source_Provenance": "Synthetic survey/control dataset" }, "geometry": { "type": "Point", "coordinates": [ 82.5425281, 22.1865494 ] } },
{ "type": "Feature", "properties": { "Survey_Point_ID": "GEVRA-SP-006", "Mine_ID": "M-GEVRA", "Mine_Code": "GEVRA", "Latitude": 22.1940584, "Longitude": 82.5565878, "RL_m": 257.81, "Point_Type": "REFERENCE", "Survey_Date": "2025-02-28", "Horizontal_Accuracy_m": 0.072, "Vertical_Accuracy_m": 0.099, "Data_Type": "SYNTHETIC_DEMO", "Source_Provenance": "Synthetic survey/control dataset" }, "geometry": { "type": "Point", "coordinates": [ 82.5565878, 22.1940584 ] } },
{ "type": "Feature", "properties": { "Survey_Point_ID": "GEVRA-SP-007", "Mine_ID": "M-GEVRA", "Mine_Code": "GEVRA", "Latitude": 22.2047299, "Longitude": 82.5085427, "RL_m": 252.75, "Point_Type": "BENCH_RL", "Survey_Date": "2025-02-20", "Horizontal_Accuracy_m": 0.092, "Vertical_Accuracy_m": 0.067, "Data_Type": "SYNTHETIC_DEMO", "Source_Provenance": "Synthetic survey/control dataset" }, "geometry": { "type": "Point", "coordinates": [ 82.5085427, 22.2047299 ] } },
{ "type": "Feature", "properties": { "Survey_Point_ID": "GEVRA-SP-008", "Mine_ID": "M-GEVRA", "Mine_Code": "GEVRA", "Latitude": 22.1944558, "Longitude": 82.5463766, "RL_m": 291.61, "Point_Type": "DGPS_CONTROL", "Survey_Date": "2025-11-28", "Horizontal_Accuracy_m": 0.059, "Vertical_Accuracy_m": 0.053, "Data_Type": "SYNTHETIC_DEMO", "Source_Provenance": "Synthetic survey/control dataset" }, "geometry": { "type": "Point", "coordinates": [ 82.5463766, 22.1944558 ] } },
{ "type": "Feature", "properties": { "Survey_Point_ID": "GEVRA-SP-009", "Mine_ID": "M-GEVRA", "Mine_Code": "GEVRA", "Latitude": 22.2204074, "Longitude": 82.5678709, "RL_m": 325.16, "Point_Type": "BENCH_RL", "Survey_Date": "2025-07-04", "Horizontal_Accuracy_m": 0.091, "Vertical_Accuracy_m": 0.128, "Data_Type": "SYNTHETIC_DEMO", "Source_Provenance": "Synthetic survey/control dataset" }, "geometry": { "type": "Point", "coordinates": [ 82.5678709, 22.2204074 ] } },
{ "type": "Feature", "properties": { "Survey_Point_ID": "GEVRA-SP-010", "Mine_ID": "M-GEVRA", "Mine_Code": "GEVRA", "Latitude": 22.1819556, "Longitude": 82.5645312, "RL_m": 265.68, "Point_Type": "REFERENCE", "Survey_Date": "2025-04-19", "Horizontal_Accuracy_m": 0.014, "Vertical_Accuracy_m": 0.079, "Data_Type": "SYNTHETIC_DEMO", "Source_Provenance": "Synthetic survey/control dataset" }, "geometry": { "type": "Point", "coordinates": [ 82.5645312, 22.1819556 ] } },
{ "type": "Feature", "properties": { "Survey_Point_ID": "GEVRA-SP-011", "Mine_ID": "M-GEVRA", "Mine_Code": "GEVRA", "Latitude": 22.1921955, "Longitude": 82.5272074, "RL_m": 316.3, "Point_Type": "REFERENCE", "Survey_Date": "2025-01-20", "Horizontal_Accuracy_m": 0.042, "Vertical_Accuracy_m": 0.071, "Data_Type": "SYNTHETIC_DEMO", "Source_Provenance": "Synthetic survey/control dataset" }, "geometry": { "type": "Point", "coordinates": [ 82.5272074, 22.1921955 ] } },
{ "type": "Feature", "properties": { "Survey_Point_ID": "GEVRA-SP-012", "Mine_ID": "M-GEVRA", "Mine_Code": "GEVRA", "Latitude": 22.1848918, "Longitude": 82.5379887, "RL_m": 314.18, "Point_Type": "DGPS_CONTROL", "Survey_Date": "2025-07-22", "Horizontal_Accuracy_m": 0.017, "Vertical_Accuracy_m": 0.198, "Data_Type": "SYNTHETIC_DEMO", "Source_Provenance": "Synthetic survey/control dataset" }, "geometry": { "type": "Point", "coordinates": [ 82.5379887, 22.1848918 ] } },
{ "type": "Feature", "properties": { "Survey_Point_ID": "GEVRA-SP-013", "Mine_ID": "M-GEVRA", "Mine_Code": "GEVRA", "Latitude": 22.1881281, "Longitude": 82.5540571, "RL_m": 250.44, "Point_Type": "REFERENCE", "Survey_Date": "2025-10-17", "Horizontal_Accuracy_m": 0.083, "Vertical_Accuracy_m": 0.147, "Data_Type": "SYNTHETIC_DEMO", "Source_Provenance": "Synthetic survey/control dataset" }, "geometry": { "type": "Point", "coordinates": [ 82.5540571, 22.1881281 ] } },
{ "type": "Feature", "properties": { "Survey_Point_ID": "GEVRA-SP-014", "Mine_ID": "M-GEVRA", "Mine_Code": "GEVRA", "Latitude": 22.2201911, "Longitude": 82.5510305, "RL_m": 255.92, "Point_Type": "PIT_RIM", "Survey_Date": "2025-05-07", "Horizontal_Accuracy_m": 0.042, "Vertical_Accuracy_m": 0.041, "Data_Type": "SYNTHETIC_DEMO", "Source_Provenance": "Synthetic survey/control dataset" }, "geometry": { "type": "Point", "coordinates": [ 82.5510305, 22.2201911 ] } },
{ "type": "Feature", "properties": { "Survey_Point_ID": "GEVRA-SP-015", "Mine_ID": "M-GEVRA", "Mine_Code": "GEVRA", "Latitude": 22.2119047, "Longitude": 82.5604172, "RL_m": 276.47, "Point_Type": "PIT_RIM", "Survey_Date": "2025-04-09", "Horizontal_Accuracy_m": 0.016, "Vertical_Accuracy_m": 0.076, "Data_Type": "SYNTHETIC_DEMO", "Source_Provenance": "Synthetic survey/control dataset" }, "geometry": { "type": "Point", "coordinates": [ 82.5604172, 22.2119047 ] } },
{ "type": "Feature", "properties": { "Survey_Point_ID": "GEVRA-SP-016", "Mine_ID": "M-GEVRA", "Mine_Code": "GEVRA", "Latitude": 22.2178579, "Longitude": 82.5227628, "RL_m": 301.0, "Point_Type": "PIT_FLOOR", "Survey_Date": "2025-03-22", "Horizontal_Accuracy_m": 0.09, "Vertical_Accuracy_m": 0.105, "Data_Type": "SYNTHETIC_DEMO", "Source_Provenance": "Synthetic survey/control dataset" }, "geometry": { "type": "Point", "coordinates": [ 82.5227628, 22.2178579 ] } },
{ "type": "Feature", "properties": { "Survey_Point_ID": "GEVRA-SP-017", "Mine_ID": "M-GEVRA", "Mine_Code": "GEVRA", "Latitude": 22.2169417, "Longitude": 82.5083716, "RL_m": 310.86, "Point_Type": "PIT_RIM", "Survey_Date": "2025-08-11", "Horizontal_Accuracy_m": 0.061, "Vertical_Accuracy_m": 0.159, "Data_Type": "SYNTHETIC_DEMO", "Source_Provenance": "Synthetic survey/control dataset" }, "geometry": { "type": "Point", "coordinates": [ 82.5083716, 22.2169417 ] } },
{ "type": "Feature", "properties": { "Survey_Point_ID": "GEVRA-SP-018", "Mine_ID": "M-GEVRA", "Mine_Code": "GEVRA", "Latitude": 22.206273, "Longitude": 82.5345657, "RL_m": 284.2, "Point_Type": "DGPS_CONTROL", "Survey_Date": "2025-01-15", "Horizontal_Accuracy_m": 0.012, "Vertical_Accuracy_m": 0.039, "Data_Type": "SYNTHETIC_DEMO", "Source_Provenance": "Synthetic survey/control dataset" }, "geometry": { "type": "Point", "coordinates": [ 82.5345657, 22.206273 ] } },
{ "type": "Feature", "properties": { "Survey_Point_ID": "GEVRA-SP-019", "Mine_ID": "M-GEVRA", "Mine_Code": "GEVRA", "Latitude": 22.212639, "Longitude": 82.5022, "RL_m": 275.15, "Point_Type": "REFERENCE", "Survey_Date": "2025-10-04", "Horizontal_Accuracy_m": 0.056, "Vertical_Accuracy_m": 0.183, "Data_Type": "SYNTHETIC_DEMO", "Source_Provenance": "Synthetic survey/control dataset" }, "geometry": { "type": "Point", "coordinates": [ 82.5022, 22.212639 ] } },
{ "type": "Feature", "properties": { "Survey_Point_ID": "GEVRA-SP-020", "Mine_ID": "M-GEVRA", "Mine_Code": "GEVRA", "Latitude": 22.1999814, "Longitude": 82.5174505, "RL_m": 310.44, "Point_Type": "DGPS_CONTROL", "Survey_Date": "2025-09-07", "Horizontal_Accuracy_m": 0.031, "Vertical_Accuracy_m": 0.034, "Data_Type": "SYNTHETIC_DEMO", "Source_Provenance": "Synthetic survey/control dataset" }, "geometry": { "type": "Point", "coordinates": [ 82.5174505, 22.1999814 ] } },
{ "type": "Feature", "properties": { "Survey_Point_ID": "GEVRA-SP-021", "Mine_ID": "M-GEVRA", "Mine_Code": "GEVRA", "Latitude": 22.1860284, "Longitude": 82.5202826, "RL_m": 324.38, "Point_Type": "REFERENCE", "Survey_Date": "2025-05-05", "Horizontal_Accuracy_m": 0.083, "Vertical_Accuracy_m": 0.134, "Data_Type": "SYNTHETIC_DEMO", "Source_Provenance": "Synthetic survey/control dataset" }, "geometry": { "type": "Point", "coordinates": [ 82.5202826, 22.1860284 ] } },
{ "type": "Feature", "properties": { "Survey_Point_ID": "GEVRA-SP-022", "Mine_ID": "M-GEVRA", "Mine_Code": "GEVRA", "Latitude": 22.2220056, "Longitude": 82.5610022, "RL_m": 264.93, "Point_Type": "PIT_RIM", "Survey_Date": "2025-02-08", "Horizontal_Accuracy_m": 0.09, "Vertical_Accuracy_m": 0.117, "Data_Type": "SYNTHETIC_DEMO", "Source_Provenance": "Synthetic survey/control dataset" }, "geometry": { "type": "Point", "coordinates": [ 82.5610022, 22.2220056 ] } },
{ "type": "Feature", "properties": { "Survey_Point_ID": "GEVRA-SP-023", "Mine_ID": "M-GEVRA", "Mine_Code": "GEVRA", "Latitude": 22.2271811, "Longitude": 82.5565208, "RL_m": 275.44, "Point_Type": "PIT_RIM", "Survey_Date": "2025-05-06", "Horizontal_Accuracy_m": 0.02, "Vertical_Accuracy_m": 0.061, "Data_Type": "SYNTHETIC_DEMO", "Source_Provenance": "Synthetic survey/control dataset" }, "geometry": { "type": "Point", "coordinates": [ 82.5565208, 22.2271811 ] } },
{ "type": "Feature", "properties": { "Survey_Point_ID": "GEVRA-SP-024", "Mine_ID": "M-GEVRA", "Mine_Code": "GEVRA", "Latitude": 22.2228088, "Longitude": 82.5298975, "RL_m": 318.86, "Point_Type": "PIT_FLOOR", "Survey_Date": "2025-09-23", "Horizontal_Accuracy_m": 0.011, "Vertical_Accuracy_m": 0.112, "Data_Type": "SYNTHETIC_DEMO", "Source_Provenance": "Synthetic survey/control dataset" }, "geometry": { "type": "Point", "coordinates": [ 82.5298975, 22.2228088 ] } },
{ "type": "Feature", "properties": { "Survey_Point_ID": "GEVRA-SP-025", "Mine_ID": "M-GEVRA", "Mine_Code": "GEVRA", "Latitude": 22.189438, "Longitude": 82.5292188, "RL_m": 259.59, "Point_Type": "PIT_RIM", "Survey_Date": "2025-10-26", "Horizontal_Accuracy_m": 0.04, "Vertical_Accuracy_m": 0.19, "Data_Type": "SYNTHETIC_DEMO", "Source_Provenance": "Synthetic survey/control dataset" }, "geometry": { "type": "Point", "coordinates": [ 82.5292188, 22.189438 ] } },
{ "type": "Feature", "properties": { "Survey_Point_ID": "KUSMUNDA-SP-001", "Mine_ID": "M-KUSMUNDA", "Mine_Code": "KUSMUNDA", "Latitude": 22.2919397, "Longitude": 82.7098418, "RL_m": 328.13, "Point_Type": "DGPS_CONTROL", "Survey_Date": "2025-11-02", "Horizontal_Accuracy_m": 0.047, "Vertical_Accuracy_m": 0.026, "Data_Type": "SYNTHETIC_DEMO", "Source_Provenance": "Synthetic survey/control dataset" }, "geometry": { "type": "Point", "coordinates": [ 82.7098418, 22.2919397 ] } },
{ "type": "Feature", "properties": { "Survey_Point_ID": "KUSMUNDA-SP-002", "Mine_ID": "M-KUSMUNDA", "Mine_Code": "KUSMUNDA", "Latitude": 22.3125237, "Longitude": 82.664155, "RL_m": 304.46, "Point_Type": "DGPS_CONTROL", "Survey_Date": "2025-04-07", "Horizontal_Accuracy_m": 0.058, "Vertical_Accuracy_m": 0.101, "Data_Type": "SYNTHETIC_DEMO", "Source_Provenance": "Synthetic survey/control dataset" }, "geometry": { "type": "Point", "coordinates": [ 82.664155, 22.3125237 ] } },
{ "type": "Feature", "properties": { "Survey_Point_ID": "KUSMUNDA-SP-003", "Mine_ID": "M-KUSMUNDA", "Mine_Code": "KUSMUNDA", "Latitude": 22.310191, "Longitude": 82.6787025, "RL_m": 256.47, "Point_Type": "DGPS_CONTROL", "Survey_Date": "2025-10-05", "Horizontal_Accuracy_m": 0.043, "Vertical_Accuracy_m": 0.064, "Data_Type": "SYNTHETIC_DEMO", "Source_Provenance": "Synthetic survey/control dataset" }, "geometry": { "type": "Point", "coordinates": [ 82.6787025, 22.310191 ] } },
{ "type": "Feature", "properties": { "Survey_Point_ID": "KUSMUNDA-SP-004", "Mine_ID": "M-KUSMUNDA", "Mine_Code": "KUSMUNDA", "Latitude": 22.3033368, "Longitude": 82.6962198, "RL_m": 328.67, "Point_Type": "BENCH_RL", "Survey_Date": "2025-03-16", "Horizontal_Accuracy_m": 0.046, "Vertical_Accuracy_m": 0.167, "Data_Type": "SYNTHETIC_DEMO", "Source_Provenance": "Synthetic survey/control dataset" }, "geometry": { "type": "Point", "coordinates": [ 82.6962198, 22.3033368 ] } },
{ "type": "Feature", "properties": { "Survey_Point_ID": "KUSMUNDA-SP-005", "Mine_ID": "M-KUSMUNDA", "Mine_Code": "KUSMUNDA", "Latitude": 22.2854402, "Longitude": 82.6958842, "RL_m": 290.66, "Point_Type": "DGPS_CONTROL", "Survey_Date": "2025-10-07", "Horizontal_Accuracy_m": 0.073, "Vertical_Accuracy_m": 0.175, "Data_Type": "SYNTHETIC_DEMO", "Source_Provenance": "Synthetic survey/control dataset" }, "geometry": { "type": "Point", "coordinates": [ 82.6958842, 22.2854402 ] } },
{ "type": "Feature", "properties": { "Survey_Point_ID": "KUSMUNDA-SP-006", "Mine_ID": "M-KUSMUNDA", "Mine_Code": "KUSMUNDA", "Latitude": 22.2893335, "Longitude": 82.6628171, "RL_m": 306.89, "Point_Type": "PIT_FLOOR", "Survey_Date": "2025-12-09", "Horizontal_Accuracy_m": 0.083, "Vertical_Accuracy_m": 0.083, "Data_Type": "SYNTHETIC_DEMO", "Source_Provenance": "Synthetic survey/control dataset" }, "geometry": { "type": "Point", "coordinates": [ 82.6628171, 22.2893335 ] } },
{ "type": "Feature", "properties": { "Survey_Point_ID": "KUSMUNDA-SP-007", "Mine_ID": "M-KUSMUNDA", "Mine_Code": "KUSMUNDA", "Latitude": 22.3296693, "Longitude": 82.6467324, "RL_m": 281.81, "Point_Type": "PIT_RIM", "Survey_Date": "2025-03-20", "Horizontal_Accuracy_m": 0.057, "Vertical_Accuracy_m": 0.171, "Data_Type": "SYNTHETIC_DEMO", "Source_Provenance": "Synthetic survey/control dataset" }, "geometry": { "type": "Point", "coordinates": [ 82.6467324, 22.3296693 ] } },
{ "type": "Feature", "properties": { "Survey_Point_ID": "KUSMUNDA-SP-008", "Mine_ID": "M-KUSMUNDA", "Mine_Code": "KUSMUNDA", "Latitude": 22.3181721, "Longitude": 82.6872983, "RL_m": 266.73, "Point_Type": "REFERENCE", "Survey_Date": "2025-12-23", "Horizontal_Accuracy_m": 0.059, "Vertical_Accuracy_m": 0.145, "Data_Type": "SYNTHETIC_DEMO", "Source_Provenance": "Synthetic survey/control dataset" }, "geometry": { "type": "Point", "coordinates": [ 82.6872983, 22.3181721 ] } },
{ "type": "Feature", "properties": { "Survey_Point_ID": "KUSMUNDA-SP-009", "Mine_ID": "M-KUSMUNDA", "Mine_Code": "KUSMUNDA", "Latitude": 22.2867975, "Longitude": 82.6559985, "RL_m": 328.57, "Point_Type": "DGPS_CONTROL", "Survey_Date": "2025-03-10", "Horizontal_Accuracy_m": 0.056, "Vertical_Accuracy_m": 0.067, "Data_Type": "SYNTHETIC_DEMO", "Source_Provenance": "Synthetic survey/control dataset" }, "geometry": { "type": "Point", "coordinates": [ 82.6559985, 22.2867975 ] } },
{ "type": "Feature", "properties": { "Survey_Point_ID": "KUSMUNDA-SP-010", "Mine_ID": "M-KUSMUNDA", "Mine_Code": "KUSMUNDA", "Latitude": 22.3310635, "Longitude": 82.7097378, "RL_m": 294.66, "Point_Type": "DGPS_CONTROL", "Survey_Date": "2025-10-01", "Horizontal_Accuracy_m": 0.089, "Vertical_Accuracy_m": 0.054, "Data_Type": "SYNTHETIC_DEMO", "Source_Provenance": "Synthetic survey/control dataset" }, "geometry": { "type": "Point", "coordinates": [ 82.7097378, 22.3310635 ] } },
{ "type": "Feature", "properties": { "Survey_Point_ID": "KUSMUNDA-SP-011", "Mine_ID": "M-KUSMUNDA", "Mine_Code": "KUSMUNDA", "Latitude": 22.31622, "Longitude": 82.659521, "RL_m": 317.73, "Point_Type": "PIT_RIM", "Survey_Date": "2025-10-22", "Horizontal_Accuracy_m": 0.087, "Vertical_Accuracy_m": 0.093, "Data_Type": "SYNTHETIC_DEMO", "Source_Provenance": "Synthetic survey/control dataset" }, "geometry": { "type": "Point", "coordinates": [ 82.659521, 22.31622 ] } },
{ "type": "Feature", "properties": { "Survey_Point_ID": "KUSMUNDA-SP-012", "Mine_ID": "M-KUSMUNDA", "Mine_Code": "KUSMUNDA", "Latitude": 22.324652, "Longitude": 82.7021439, "RL_m": 324.85, "Point_Type": "PIT_FLOOR", "Survey_Date": "2025-07-23", "Horizontal_Accuracy_m": 0.081, "Vertical_Accuracy_m": 0.14, "Data_Type": "SYNTHETIC_DEMO", "Source_Provenance": "Synthetic survey/control dataset" }, "geometry": { "type": "Point", "coordinates": [ 82.7021439, 22.324652 ] } },
{ "type": "Feature", "properties": { "Survey_Point_ID": "KUSMUNDA-SP-013", "Mine_ID": "M-KUSMUNDA", "Mine_Code": "KUSMUNDA", "Latitude": 22.2978478, "Longitude": 82.6806481, "RL_m": 325.21, "Point_Type": "BENCH_RL", "Survey_Date": "2025-02-19", "Horizontal_Accuracy_m": 0.098, "Vertical_Accuracy_m": 0.071, "Data_Type": "SYNTHETIC_DEMO", "Source_Provenance": "Synthetic survey/control dataset" }, "geometry": { "type": "Point", "coordinates": [ 82.6806481, 22.2978478 ] } },
{ "type": "Feature", "properties": { "Survey_Point_ID": "KUSMUNDA-SP-014", "Mine_ID": "M-KUSMUNDA", "Mine_Code": "KUSMUNDA", "Latitude": 22.3041944, "Longitude": 82.6613755, "RL_m": 285.87, "Point_Type": "BENCH_RL", "Survey_Date": "2025-02-23", "Horizontal_Accuracy_m": 0.1, "Vertical_Accuracy_m": 0.052, "Data_Type": "SYNTHETIC_DEMO", "Source_Provenance": "Synthetic survey/control dataset" }, "geometry": { "type": "Point", "coordinates": [ 82.6613755, 22.3041944 ] } },
{ "type": "Feature", "properties": { "Survey_Point_ID": "KUSMUNDA-SP-015", "Mine_ID": "M-KUSMUNDA", "Mine_Code": "KUSMUNDA", "Latitude": 22.304658, "Longitude": 82.6412653, "RL_m": 264.31, "Point_Type": "PIT_RIM", "Survey_Date": "2025-11-20", "Horizontal_Accuracy_m": 0.043, "Vertical_Accuracy_m": 0.154, "Data_Type": "SYNTHETIC_DEMO", "Source_Provenance": "Synthetic survey/control dataset" }, "geometry": { "type": "Point", "coordinates": [ 82.6412653, 22.304658 ] } },
{ "type": "Feature", "properties": { "Survey_Point_ID": "KUSMUNDA-SP-016", "Mine_ID": "M-KUSMUNDA", "Mine_Code": "KUSMUNDA", "Latitude": 22.2942514, "Longitude": 82.6904658, "RL_m": 293.4, "Point_Type": "DGPS_CONTROL", "Survey_Date": "2025-10-26", "Horizontal_Accuracy_m": 0.056, "Vertical_Accuracy_m": 0.135, "Data_Type": "SYNTHETIC_DEMO", "Source_Provenance": "Synthetic survey/control dataset" }, "geometry": { "type": "Point", "coordinates": [ 82.6904658, 22.2942514 ] } },
{ "type": "Feature", "properties": { "Survey_Point_ID": "KUSMUNDA-SP-017", "Mine_ID": "M-KUSMUNDA", "Mine_Code": "KUSMUNDA", "Latitude": 22.3100328, "Longitude": 82.6575323, "RL_m": 328.31, "Point_Type": "DGPS_CONTROL", "Survey_Date": "2025-06-18", "Horizontal_Accuracy_m": 0.054, "Vertical_Accuracy_m": 0.183, "Data_Type": "SYNTHETIC_DEMO", "Source_Provenance": "Synthetic survey/control dataset" }, "geometry": { "type": "Point", "coordinates": [ 82.6575323, 22.3100328 ] } },
{ "type": "Feature", "properties": { "Survey_Point_ID": "KUSMUNDA-SP-018", "Mine_ID": "M-KUSMUNDA", "Mine_Code": "KUSMUNDA", "Latitude": 22.2966044, "Longitude": 82.6704076, "RL_m": 301.61, "Point_Type": "PIT_FLOOR", "Survey_Date": "2025-11-12", "Horizontal_Accuracy_m": 0.07, "Vertical_Accuracy_m": 0.176, "Data_Type": "SYNTHETIC_DEMO", "Source_Provenance": "Synthetic survey/control dataset" }, "geometry": { "type": "Point", "coordinates": [ 82.6704076, 22.2966044 ] } },
{ "type": "Feature", "properties": { "Survey_Point_ID": "KUSMUNDA-SP-019", "Mine_ID": "M-KUSMUNDA", "Mine_Code": "KUSMUNDA", "Latitude": 22.3049548, "Longitude": 82.656113, "RL_m": 295.76, "Point_Type": "DGPS_CONTROL", "Survey_Date": "2025-09-21", "Horizontal_Accuracy_m": 0.079, "Vertical_Accuracy_m": 0.028, "Data_Type": "SYNTHETIC_DEMO", "Source_Provenance": "Synthetic survey/control dataset" }, "geometry": { "type": "Point", "coordinates": [ 82.656113, 22.3049548 ] } },
{ "type": "Feature", "properties": { "Survey_Point_ID": "KUSMUNDA-SP-020", "Mine_ID": "M-KUSMUNDA", "Mine_Code": "KUSMUNDA", "Latitude": 22.3033169, "Longitude": 82.7096185, "RL_m": 272.36, "Point_Type": "PIT_RIM", "Survey_Date": "2025-01-28", "Horizontal_Accuracy_m": 0.09, "Vertical_Accuracy_m": 0.155, "Data_Type": "SYNTHETIC_DEMO", "Source_Provenance": "Synthetic survey/control dataset" }, "geometry": { "type": "Point", "coordinates": [ 82.7096185, 22.3033169 ] } },
{ "type": "Feature", "properties": { "Survey_Point_ID": "KUSMUNDA-SP-021", "Mine_ID": "M-KUSMUNDA", "Mine_Code": "KUSMUNDA", "Latitude": 22.295522, "Longitude": 82.706715, "RL_m": 294.22, "Point_Type": "PIT_FLOOR", "Survey_Date": "2025-08-04", "Horizontal_Accuracy_m": 0.062, "Vertical_Accuracy_m": 0.196, "Data_Type": "SYNTHETIC_DEMO", "Source_Provenance": "Synthetic survey/control dataset" }, "geometry": { "type": "Point", "coordinates": [ 82.706715, 22.295522 ] } },
{ "type": "Feature", "properties": { "Survey_Point_ID": "KUSMUNDA-SP-022", "Mine_ID": "M-KUSMUNDA", "Mine_Code": "KUSMUNDA", "Latitude": 22.294119, "Longitude": 82.6452742, "RL_m": 265.27, "Point_Type": "PIT_FLOOR", "Survey_Date": "2025-06-21", "Horizontal_Accuracy_m": 0.034, "Vertical_Accuracy_m": 0.107, "Data_Type": "SYNTHETIC_DEMO", "Source_Provenance": "Synthetic survey/control dataset" }, "geometry": { "type": "Point", "coordinates": [ 82.6452742, 22.294119 ] } },
{ "type": "Feature", "properties": { "Survey_Point_ID": "KUSMUNDA-SP-023", "Mine_ID": "M-KUSMUNDA", "Mine_Code": "KUSMUNDA", "Latitude": 22.2991027, "Longitude": 82.6660881, "RL_m": 317.54, "Point_Type": "PIT_FLOOR", "Survey_Date": "2025-12-05", "Horizontal_Accuracy_m": 0.094, "Vertical_Accuracy_m": 0.033, "Data_Type": "SYNTHETIC_DEMO", "Source_Provenance": "Synthetic survey/control dataset" }, "geometry": { "type": "Point", "coordinates": [ 82.6660881, 22.2991027 ] } },
{ "type": "Feature", "properties": { "Survey_Point_ID": "KUSMUNDA-SP-024", "Mine_ID": "M-KUSMUNDA", "Mine_Code": "KUSMUNDA", "Latitude": 22.314584, "Longitude": 82.6546243, "RL_m": 278.69, "Point_Type": "PIT_FLOOR", "Survey_Date": "2025-03-24", "Horizontal_Accuracy_m": 0.033, "Vertical_Accuracy_m": 0.073, "Data_Type": "SYNTHETIC_DEMO", "Source_Provenance": "Synthetic survey/control dataset" }, "geometry": { "type": "Point", "coordinates": [ 82.6546243, 22.314584 ] } },
{ "type": "Feature", "properties": { "Survey_Point_ID": "KUSMUNDA-SP-025", "Mine_ID": "M-KUSMUNDA", "Mine_Code": "KUSMUNDA", "Latitude": 22.3245255, "Longitude": 82.6625786, "RL_m": 260.93, "Point_Type": "REFERENCE", "Survey_Date": "2025-11-09", "Horizontal_Accuracy_m": 0.074, "Vertical_Accuracy_m": 0.12, "Data_Type": "SYNTHETIC_DEMO", "Source_Provenance": "Synthetic survey/control dataset" }, "geometry": { "type": "Point", "coordinates": [ 82.6625786, 22.3245255 ] } },
{ "type": "Feature", "properties": { "Survey_Point_ID": "DIPKA-SP-001", "Mine_ID": "M-DIPKA", "Mine_Code": "DIPKA", "Latitude": 22.3293101, "Longitude": 82.5454975, "RL_m": 313.66, "Point_Type": "REFERENCE", "Survey_Date": "2025-07-08", "Horizontal_Accuracy_m": 0.09, "Vertical_Accuracy_m": 0.081, "Data_Type": "SYNTHETIC_DEMO", "Source_Provenance": "Synthetic survey/control dataset" }, "geometry": { "type": "Point", "coordinates": [ 82.5454975, 22.3293101 ] } },
{ "type": "Feature", "properties": { "Survey_Point_ID": "DIPKA-SP-002", "Mine_ID": "M-DIPKA", "Mine_Code": "DIPKA", "Latitude": 22.295263, "Longitude": 82.5262908, "RL_m": 296.26, "Point_Type": "PIT_FLOOR", "Survey_Date": "2025-01-11", "Horizontal_Accuracy_m": 0.013, "Vertical_Accuracy_m": 0.104, "Data_Type": "SYNTHETIC_DEMO", "Source_Provenance": "Synthetic survey/control dataset" }, "geometry": { "type": "Point", "coordinates": [ 82.5262908, 22.295263 ] } },
{ "type": "Feature", "properties": { "Survey_Point_ID": "DIPKA-SP-003", "Mine_ID": "M-DIPKA", "Mine_Code": "DIPKA", "Latitude": 22.3060463, "Longitude": 82.5379851, "RL_m": 297.27, "Point_Type": "PIT_FLOOR", "Survey_Date": "2025-12-26", "Horizontal_Accuracy_m": 0.013, "Vertical_Accuracy_m": 0.027, "Data_Type": "SYNTHETIC_DEMO", "Source_Provenance": "Synthetic survey/control dataset" }, "geometry": { "type": "Point", "coordinates": [ 82.5379851, 22.3060463 ] } },
{ "type": "Feature", "properties": { "Survey_Point_ID": "DIPKA-SP-004", "Mine_ID": "M-DIPKA", "Mine_Code": "DIPKA", "Latitude": 22.3101707, "Longitude": 82.557582, "RL_m": 260.16, "Point_Type": "PIT_FLOOR", "Survey_Date": "2025-07-22", "Horizontal_Accuracy_m": 0.057, "Vertical_Accuracy_m": 0.159, "Data_Type": "SYNTHETIC_DEMO", "Source_Provenance": "Synthetic survey/control dataset" }, "geometry": { "type": "Point", "coordinates": [ 82.557582, 22.3101707 ] } },
{ "type": "Feature", "properties": { "Survey_Point_ID": "DIPKA-SP-005", "Mine_ID": "M-DIPKA", "Mine_Code": "DIPKA", "Latitude": 22.3248819, "Longitude": 82.5151075, "RL_m": 256.83, "Point_Type": "BENCH_RL", "Survey_Date": "2025-08-02", "Horizontal_Accuracy_m": 0.015, "Vertical_Accuracy_m": 0.116, "Data_Type": "SYNTHETIC_DEMO", "Source_Provenance": "Synthetic survey/control dataset" }, "geometry": { "type": "Point", "coordinates": [ 82.5151075, 22.3248819 ] } },
{ "type": "Feature", "properties": { "Survey_Point_ID": "DIPKA-SP-006", "Mine_ID": "M-DIPKA", "Mine_Code": "DIPKA", "Latitude": 22.3256961, "Longitude": 82.5378445, "RL_m": 308.09, "Point_Type": "BENCH_RL", "Survey_Date": "2025-09-19", "Horizontal_Accuracy_m": 0.098, "Vertical_Accuracy_m": 0.113, "Data_Type": "SYNTHETIC_DEMO", "Source_Provenance": "Synthetic survey/control dataset" }, "geometry": { "type": "Point", "coordinates": [ 82.5378445, 22.3256961 ] } },
{ "type": "Feature", "properties": { "Survey_Point_ID": "DIPKA-SP-007", "Mine_ID": "M-DIPKA", "Mine_Code": "DIPKA", "Latitude": 22.3345304, "Longitude": 82.522607, "RL_m": 271.67, "Point_Type": "PIT_RIM", "Survey_Date": "2025-02-28", "Horizontal_Accuracy_m": 0.05, "Vertical_Accuracy_m": 0.034, "Data_Type": "SYNTHETIC_DEMO", "Source_Provenance": "Synthetic survey/control dataset" }, "geometry": { "type": "Point", "coordinates": [ 82.522607, 22.3345304 ] } },
{ "type": "Feature", "properties": { "Survey_Point_ID": "DIPKA-SP-008", "Mine_ID": "M-DIPKA", "Mine_Code": "DIPKA", "Latitude": 22.3439083, "Longitude": 82.5017746, "RL_m": 316.88, "Point_Type": "PIT_FLOOR", "Survey_Date": "2025-02-17", "Horizontal_Accuracy_m": 0.073, "Vertical_Accuracy_m": 0.094, "Data_Type": "SYNTHETIC_DEMO", "Source_Provenance": "Synthetic survey/control dataset" }, "geometry": { "type": "Point", "coordinates": [ 82.5017746, 22.3439083 ] } },
{ "type": "Feature", "properties": { "Survey_Point_ID": "DIPKA-SP-009", "Mine_ID": "M-DIPKA", "Mine_Code": "DIPKA", "Latitude": 22.2987605, "Longitude": 82.5121306, "RL_m": 270.02, "Point_Type": "PIT_FLOOR", "Survey_Date": "2025-01-24", "Horizontal_Accuracy_m": 0.059, "Vertical_Accuracy_m": 0.149, "Data_Type": "SYNTHETIC_DEMO", "Source_Provenance": "Synthetic survey/control dataset" }, "geometry": { "type": "Point", "coordinates": [ 82.5121306, 22.2987605 ] } },
{ "type": "Feature", "properties": { "Survey_Point_ID": "DIPKA-SP-010", "Mine_ID": "M-DIPKA", "Mine_Code": "DIPKA", "Latitude": 22.3056763, "Longitude": 82.5462138, "RL_m": 326.39, "Point_Type": "BENCH_RL", "Survey_Date": "2025-07-28", "Horizontal_Accuracy_m": 0.076, "Vertical_Accuracy_m": 0.12, "Data_Type": "SYNTHETIC_DEMO", "Source_Provenance": "Synthetic survey/control dataset" }, "geometry": { "type": "Point", "coordinates": [ 82.5462138, 22.3056763 ] } },
{ "type": "Feature", "properties": { "Survey_Point_ID": "DIPKA-SP-011", "Mine_ID": "M-DIPKA", "Mine_Code": "DIPKA", "Latitude": 22.3134976, "Longitude": 82.5428205, "RL_m": 269.82, "Point_Type": "BENCH_RL", "Survey_Date": "2025-02-16", "Horizontal_Accuracy_m": 0.042, "Vertical_Accuracy_m": 0.156, "Data_Type": "SYNTHETIC_DEMO", "Source_Provenance": "Synthetic survey/control dataset" }, "geometry": { "type": "Point", "coordinates": [ 82.5428205, 22.3134976 ] } },
{ "type": "Feature", "properties": { "Survey_Point_ID": "DIPKA-SP-012", "Mine_ID": "M-DIPKA", "Mine_Code": "DIPKA", "Latitude": 22.2965001, "Longitude": 82.5010075, "RL_m": 253.68, "Point_Type": "PIT_RIM", "Survey_Date": "2025-06-20", "Horizontal_Accuracy_m": 0.014, "Vertical_Accuracy_m": 0.174, "Data_Type": "SYNTHETIC_DEMO", "Source_Provenance": "Synthetic survey/control dataset" }, "geometry": { "type": "Point", "coordinates": [ 82.5010075, 22.2965001 ] } },
{ "type": "Feature", "properties": { "Survey_Point_ID": "DIPKA-SP-013", "Mine_ID": "M-DIPKA", "Mine_Code": "DIPKA", "Latitude": 22.3165537, "Longitude": 82.5492561, "RL_m": 257.83, "Point_Type": "PIT_FLOOR", "Survey_Date": "2025-11-03", "Horizontal_Accuracy_m": 0.054, "Vertical_Accuracy_m": 0.105, "Data_Type": "SYNTHETIC_DEMO", "Source_Provenance": "Synthetic survey/control dataset" }, "geometry": { "type": "Point", "coordinates": [ 82.5492561, 22.3165537 ] } },
{ "type": "Feature", "properties": { "Survey_Point_ID": "DIPKA-SP-014", "Mine_ID": "M-DIPKA", "Mine_Code": "DIPKA", "Latitude": 22.3142957, "Longitude": 82.5121241, "RL_m": 281.88, "Point_Type": "PIT_RIM", "Survey_Date": "2025-11-28", "Horizontal_Accuracy_m": 0.065, "Vertical_Accuracy_m": 0.134, "Data_Type": "SYNTHETIC_DEMO", "Source_Provenance": "Synthetic survey/control dataset" }, "geometry": { "type": "Point", "coordinates": [ 82.5121241, 22.3142957 ] } },
{ "type": "Feature", "properties": { "Survey_Point_ID": "DIPKA-SP-015", "Mine_ID": "M-DIPKA", "Mine_Code": "DIPKA", "Latitude": 22.3109783, "Longitude": 82.5031713, "RL_m": 300.07, "Point_Type": "REFERENCE", "Survey_Date": "2025-07-11", "Horizontal_Accuracy_m": 0.055, "Vertical_Accuracy_m": 0.174, "Data_Type": "SYNTHETIC_DEMO", "Source_Provenance": "Synthetic survey/control dataset" }, "geometry": { "type": "Point", "coordinates": [ 82.5031713, 22.3109783 ] } },
{ "type": "Feature", "properties": { "Survey_Point_ID": "DIPKA-SP-016", "Mine_ID": "M-DIPKA", "Mine_Code": "DIPKA", "Latitude": 22.2991243, "Longitude": 82.5461086, "RL_m": 255.65, "Point_Type": "PIT_FLOOR", "Survey_Date": "2025-09-02", "Horizontal_Accuracy_m": 0.068, "Vertical_Accuracy_m": 0.025, "Data_Type": "SYNTHETIC_DEMO", "Source_Provenance": "Synthetic survey/control dataset" }, "geometry": { "type": "Point", "coordinates": [ 82.5461086, 22.2991243 ] } },
{ "type": "Feature", "properties": { "Survey_Point_ID": "DIPKA-SP-017", "Mine_ID": "M-DIPKA", "Mine_Code": "DIPKA", "Latitude": 22.3426529, "Longitude": 82.5410043, "RL_m": 296.04, "Point_Type": "REFERENCE", "Survey_Date": "2025-02-08", "Horizontal_Accuracy_m": 0.045, "Vertical_Accuracy_m": 0.136, "Data_Type": "SYNTHETIC_DEMO", "Source_Provenance": "Synthetic survey/control dataset" }, "geometry": { "type": "Point", "coordinates": [ 82.5410043, 22.3426529 ] } },
{ "type": "Feature", "properties": { "Survey_Point_ID": "DIPKA-SP-018", "Mine_ID": "M-DIPKA", "Mine_Code": "DIPKA", "Latitude": 22.3205545, "Longitude": 82.5320777, "RL_m": 325.32, "Point_Type": "PIT_RIM", "Survey_Date": "2025-04-24", "Horizontal_Accuracy_m": 0.045, "Vertical_Accuracy_m": 0.193, "Data_Type": "SYNTHETIC_DEMO", "Source_Provenance": "Synthetic survey/control dataset" }, "geometry": { "type": "Point", "coordinates": [ 82.5320777, 22.3205545 ] } },
{ "type": "Feature", "properties": { "Survey_Point_ID": "DIPKA-SP-019", "Mine_ID": "M-DIPKA", "Mine_Code": "DIPKA", "Latitude": 22.3009643, "Longitude": 82.5633745, "RL_m": 255.55, "Point_Type": "DGPS_CONTROL", "Survey_Date": "2025-07-04", "Horizontal_Accuracy_m": 0.019, "Vertical_Accuracy_m": 0.023, "Data_Type": "SYNTHETIC_DEMO", "Source_Provenance": "Synthetic survey/control dataset" }, "geometry": { "type": "Point", "coordinates": [ 82.5633745, 22.3009643 ] } },
{ "type": "Feature", "properties": { "Survey_Point_ID": "DIPKA-SP-020", "Mine_ID": "M-DIPKA", "Mine_Code": "DIPKA", "Latitude": 22.3282484, "Longitude": 82.506611, "RL_m": 255.7, "Point_Type": "DGPS_CONTROL", "Survey_Date": "2025-08-06", "Horizontal_Accuracy_m": 0.039, "Vertical_Accuracy_m": 0.172, "Data_Type": "SYNTHETIC_DEMO", "Source_Provenance": "Synthetic survey/control dataset" }, "geometry": { "type": "Point", "coordinates": [ 82.506611, 22.3282484 ] } },
{ "type": "Feature", "properties": { "Survey_Point_ID": "DIPKA-SP-021", "Mine_ID": "M-DIPKA", "Mine_Code": "DIPKA", "Latitude": 22.3356102, "Longitude": 82.501629, "RL_m": 272.55, "Point_Type": "PIT_RIM", "Survey_Date": "2025-01-02", "Horizontal_Accuracy_m": 0.021, "Vertical_Accuracy_m": 0.145, "Data_Type": "SYNTHETIC_DEMO", "Source_Provenance": "Synthetic survey/control dataset" }, "geometry": { "type": "Point", "coordinates": [ 82.501629, 22.3356102 ] } },
{ "type": "Feature", "properties": { "Survey_Point_ID": "DIPKA-SP-022", "Mine_ID": "M-DIPKA", "Mine_Code": "DIPKA", "Latitude": 22.3391384, "Longitude": 82.544026, "RL_m": 308.81, "Point_Type": "PIT_RIM", "Survey_Date": "2025-01-10", "Horizontal_Accuracy_m": 0.082, "Vertical_Accuracy_m": 0.071, "Data_Type": "SYNTHETIC_DEMO", "Source_Provenance": "Synthetic survey/control dataset" }, "geometry": { "type": "Point", "coordinates": [ 82.544026, 22.3391384 ] } },
{ "type": "Feature", "properties": { "Survey_Point_ID": "DIPKA-SP-023", "Mine_ID": "M-DIPKA", "Mine_Code": "DIPKA", "Latitude": 22.3320344, "Longitude": 82.5124208, "RL_m": 314.55, "Point_Type": "PIT_RIM", "Survey_Date": "2025-06-14", "Horizontal_Accuracy_m": 0.099, "Vertical_Accuracy_m": 0.094, "Data_Type": "SYNTHETIC_DEMO", "Source_Provenance": "Synthetic survey/control dataset" }, "geometry": { "type": "Point", "coordinates": [ 82.5124208, 22.3320344 ] } },
{ "type": "Feature", "properties": { "Survey_Point_ID": "DIPKA-SP-024", "Mine_ID": "M-DIPKA", "Mine_Code": "DIPKA", "Latitude": 22.3334791, "Longitude": 82.5260413, "RL_m": 277.26, "Point_Type": "BENCH_RL", "Survey_Date": "2025-04-17", "Horizontal_Accuracy_m": 0.094, "Vertical_Accuracy_m": 0.175, "Data_Type": "SYNTHETIC_DEMO", "Source_Provenance": "Synthetic survey/control dataset" }, "geometry": { "type": "Point", "coordinates": [ 82.5260413, 22.3334791 ] } },
{ "type": "Feature", "properties": { "Survey_Point_ID": "DIPKA-SP-025", "Mine_ID": "M-DIPKA", "Mine_Code": "DIPKA", "Latitude": 22.3320488, "Longitude": 82.5300296, "RL_m": 310.36, "Point_Type": "PIT_FLOOR", "Survey_Date": "2025-10-22", "Horizontal_Accuracy_m": 0.019, "Vertical_Accuracy_m": 0.182, "Data_Type": "SYNTHETIC_DEMO", "Source_Provenance": "Synthetic survey/control dataset" }, "geometry": { "type": "Point", "coordinates": [ 82.5300296, 22.3320488 ] } },
{ "type": "Feature", "properties": { "Survey_Point_ID": "NIGAHI-SP-001", "Mine_ID": "M-NIGAHI", "Mine_Code": "NIGAHI", "Latitude": 24.1755808, "Longitude": 82.6148434, "RL_m": 304.14, "Point_Type": "BENCH_RL", "Survey_Date": "2025-10-22", "Horizontal_Accuracy_m": 0.053, "Vertical_Accuracy_m": 0.109, "Data_Type": "SYNTHETIC_DEMO", "Source_Provenance": "Synthetic survey/control dataset" }, "geometry": { "type": "Point", "coordinates": [ 82.6148434, 24.1755808 ] } },
{ "type": "Feature", "properties": { "Survey_Point_ID": "NIGAHI-SP-002", "Mine_ID": "M-NIGAHI", "Mine_Code": "NIGAHI", "Latitude": 24.1271354, "Longitude": 82.5958299, "RL_m": 298.2, "Point_Type": "PIT_FLOOR", "Survey_Date": "2025-02-05", "Horizontal_Accuracy_m": 0.06, "Vertical_Accuracy_m": 0.058, "Data_Type": "SYNTHETIC_DEMO", "Source_Provenance": "Synthetic survey/control dataset" }, "geometry": { "type": "Point", "coordinates": [ 82.5958299, 24.1271354 ] } },
{ "type": "Feature", "properties": { "Survey_Point_ID": "NIGAHI-SP-003", "Mine_ID": "M-NIGAHI", "Mine_Code": "NIGAHI", "Latitude": 24.1657526, "Longitude": 82.6562336, "RL_m": 259.08, "Point_Type": "DGPS_CONTROL", "Survey_Date": "2025-02-24", "Horizontal_Accuracy_m": 0.094, "Vertical_Accuracy_m": 0.195, "Data_Type": "SYNTHETIC_DEMO", "Source_Provenance": "Synthetic survey/control dataset" }, "geometry": { "type": "Point", "coordinates": [ 82.6562336, 24.1657526 ] } },
{ "type": "Feature", "properties": { "Survey_Point_ID": "NIGAHI-SP-004", "Mine_ID": "M-NIGAHI", "Mine_Code": "NIGAHI", "Latitude": 24.1251288, "Longitude": 82.6597152, "RL_m": 308.96, "Point_Type": "REFERENCE", "Survey_Date": "2025-04-13", "Horizontal_Accuracy_m": 0.059, "Vertical_Accuracy_m": 0.147, "Data_Type": "SYNTHETIC_DEMO", "Source_Provenance": "Synthetic survey/control dataset" }, "geometry": { "type": "Point", "coordinates": [ 82.6597152, 24.1251288 ] } },
{ "type": "Feature", "properties": { "Survey_Point_ID": "NIGAHI-SP-005", "Mine_ID": "M-NIGAHI", "Mine_Code": "NIGAHI", "Latitude": 24.1605297, "Longitude": 82.6578056, "RL_m": 316.96, "Point_Type": "PIT_FLOOR", "Survey_Date": "2025-08-11", "Horizontal_Accuracy_m": 0.088, "Vertical_Accuracy_m": 0.171, "Data_Type": "SYNTHETIC_DEMO", "Source_Provenance": "Synthetic survey/control dataset" }, "geometry": { "type": "Point", "coordinates": [ 82.6578056, 24.1605297 ] } },
{ "type": "Feature", "properties": { "Survey_Point_ID": "NIGAHI-SP-006", "Mine_ID": "M-NIGAHI", "Mine_Code": "NIGAHI", "Latitude": 24.1344643, "Longitude": 82.6198264, "RL_m": 281.73, "Point_Type": "BENCH_RL", "Survey_Date": "2025-06-10", "Horizontal_Accuracy_m": 0.09, "Vertical_Accuracy_m": 0.046, "Data_Type": "SYNTHETIC_DEMO", "Source_Provenance": "Synthetic survey/control dataset" }, "geometry": { "type": "Point", "coordinates": [ 82.6198264, 24.1344643 ] } },
{ "type": "Feature", "properties": { "Survey_Point_ID": "NIGAHI-SP-007", "Mine_ID": "M-NIGAHI", "Mine_Code": "NIGAHI", "Latitude": 24.1350608, "Longitude": 82.6259328, "RL_m": 296.5, "Point_Type": "PIT_RIM", "Survey_Date": "2025-10-20", "Horizontal_Accuracy_m": 0.088, "Vertical_Accuracy_m": 0.178, "Data_Type": "SYNTHETIC_DEMO", "Source_Provenance": "Synthetic survey/control dataset" }, "geometry": { "type": "Point", "coordinates": [ 82.6259328, 24.1350608 ] } },
{ "type": "Feature", "properties": { "Survey_Point_ID": "NIGAHI-SP-008", "Mine_ID": "M-NIGAHI", "Mine_Code": "NIGAHI", "Latitude": 24.1728308, "Longitude": 82.606568, "RL_m": 297.35, "Point_Type": "DGPS_CONTROL", "Survey_Date": "2025-01-05", "Horizontal_Accuracy_m": 0.042, "Vertical_Accuracy_m": 0.147, "Data_Type": "SYNTHETIC_DEMO", "Source_Provenance": "Synthetic survey/control dataset" }, "geometry": { "type": "Point", "coordinates": [ 82.606568, 24.1728308 ] } },
{ "type": "Feature", "properties": { "Survey_Point_ID": "NIGAHI-SP-009", "Mine_ID": "M-NIGAHI", "Mine_Code": "NIGAHI", "Latitude": 24.1431673, "Longitude": 82.6237167, "RL_m": 306.41, "Point_Type": "BENCH_RL", "Survey_Date": "2025-10-02", "Horizontal_Accuracy_m": 0.032, "Vertical_Accuracy_m": 0.079, "Data_Type": "SYNTHETIC_DEMO", "Source_Provenance": "Synthetic survey/control dataset" }, "geometry": { "type": "Point", "coordinates": [ 82.6237167, 24.1431673 ] } },
{ "type": "Feature", "properties": { "Survey_Point_ID": "NIGAHI-SP-010", "Mine_ID": "M-NIGAHI", "Mine_Code": "NIGAHI", "Latitude": 24.1362062, "Longitude": 82.6204116, "RL_m": 282.42, "Point_Type": "DGPS_CONTROL", "Survey_Date": "2025-05-15", "Horizontal_Accuracy_m": 0.061, "Vertical_Accuracy_m": 0.153, "Data_Type": "SYNTHETIC_DEMO", "Source_Provenance": "Synthetic survey/control dataset" }, "geometry": { "type": "Point", "coordinates": [ 82.6204116, 24.1362062 ] } },
{ "type": "Feature", "properties": { "Survey_Point_ID": "NIGAHI-SP-011", "Mine_ID": "M-NIGAHI", "Mine_Code": "NIGAHI", "Latitude": 24.1680763, "Longitude": 82.6437036, "RL_m": 309.54, "Point_Type": "PIT_FLOOR", "Survey_Date": "2025-08-20", "Horizontal_Accuracy_m": 0.071, "Vertical_Accuracy_m": 0.063, "Data_Type": "SYNTHETIC_DEMO", "Source_Provenance": "Synthetic survey/control dataset" }, "geometry": { "type": "Point", "coordinates": [ 82.6437036, 24.1680763 ] } },
{ "type": "Feature", "properties": { "Survey_Point_ID": "NIGAHI-SP-012", "Mine_ID": "M-NIGAHI", "Mine_Code": "NIGAHI", "Latitude": 24.148752, "Longitude": 82.6180156, "RL_m": 256.63, "Point_Type": "PIT_FLOOR", "Survey_Date": "2025-07-09", "Horizontal_Accuracy_m": 0.058, "Vertical_Accuracy_m": 0.099, "Data_Type": "SYNTHETIC_DEMO", "Source_Provenance": "Synthetic survey/control dataset" }, "geometry": { "type": "Point", "coordinates": [ 82.6180156, 24.148752 ] } },
{ "type": "Feature", "properties": { "Survey_Point_ID": "NIGAHI-SP-013", "Mine_ID": "M-NIGAHI", "Mine_Code": "NIGAHI", "Latitude": 24.1767624, "Longitude": 82.6461476, "RL_m": 294.48, "Point_Type": "BENCH_RL", "Survey_Date": "2025-09-04", "Horizontal_Accuracy_m": 0.039, "Vertical_Accuracy_m": 0.028, "Data_Type": "SYNTHETIC_DEMO", "Source_Provenance": "Synthetic survey/control dataset" }, "geometry": { "type": "Point", "coordinates": [ 82.6461476, 24.1767624 ] } },
{ "type": "Feature", "properties": { "Survey_Point_ID": "NIGAHI-SP-014", "Mine_ID": "M-NIGAHI", "Mine_Code": "NIGAHI", "Latitude": 24.1734705, "Longitude": 82.654725, "RL_m": 270.24, "Point_Type": "PIT_RIM", "Survey_Date": "2025-07-04", "Horizontal_Accuracy_m": 0.073, "Vertical_Accuracy_m": 0.034, "Data_Type": "SYNTHETIC_DEMO", "Source_Provenance": "Synthetic survey/control dataset" }, "geometry": { "type": "Point", "coordinates": [ 82.654725, 24.1734705 ] } },
{ "type": "Feature", "properties": { "Survey_Point_ID": "NIGAHI-SP-015", "Mine_ID": "M-NIGAHI", "Mine_Code": "NIGAHI", "Latitude": 24.1341413, "Longitude": 82.6016351, "RL_m": 273.56, "Point_Type": "PIT_RIM", "Survey_Date": "2025-11-22", "Horizontal_Accuracy_m": 0.1, "Vertical_Accuracy_m": 0.145, "Data_Type": "SYNTHETIC_DEMO", "Source_Provenance": "Synthetic survey/control dataset" }, "geometry": { "type": "Point", "coordinates": [ 82.6016351, 24.1341413 ] } },
{ "type": "Feature", "properties": { "Survey_Point_ID": "NIGAHI-SP-016", "Mine_ID": "M-NIGAHI", "Mine_Code": "NIGAHI", "Latitude": 24.1632776, "Longitude": 82.6168941, "RL_m": 323.22, "Point_Type": "REFERENCE", "Survey_Date": "2025-08-17", "Horizontal_Accuracy_m": 0.096, "Vertical_Accuracy_m": 0.03, "Data_Type": "SYNTHETIC_DEMO", "Source_Provenance": "Synthetic survey/control dataset" }, "geometry": { "type": "Point", "coordinates": [ 82.6168941, 24.1632776 ] } },
{ "type": "Feature", "properties": { "Survey_Point_ID": "NIGAHI-SP-017", "Mine_ID": "M-NIGAHI", "Mine_Code": "NIGAHI", "Latitude": 24.1279783, "Longitude": 82.6176165, "RL_m": 276.85, "Point_Type": "PIT_RIM", "Survey_Date": "2025-01-08", "Horizontal_Accuracy_m": 0.025, "Vertical_Accuracy_m": 0.136, "Data_Type": "SYNTHETIC_DEMO", "Source_Provenance": "Synthetic survey/control dataset" }, "geometry": { "type": "Point", "coordinates": [ 82.6176165, 24.1279783 ] } },
{ "type": "Feature", "properties": { "Survey_Point_ID": "NIGAHI-SP-018", "Mine_ID": "M-NIGAHI", "Mine_Code": "NIGAHI", "Latitude": 24.1348461, "Longitude": 82.6171788, "RL_m": 271.28, "Point_Type": "PIT_FLOOR", "Survey_Date": "2025-10-02", "Horizontal_Accuracy_m": 0.042, "Vertical_Accuracy_m": 0.067, "Data_Type": "SYNTHETIC_DEMO", "Source_Provenance": "Synthetic survey/control dataset" }, "geometry": { "type": "Point", "coordinates": [ 82.6171788, 24.1348461 ] } },
{ "type": "Feature", "properties": { "Survey_Point_ID": "NIGAHI-SP-019", "Mine_ID": "M-NIGAHI", "Mine_Code": "NIGAHI", "Latitude": 24.1238097, "Longitude": 82.6217269, "RL_m": 272.38, "Point_Type": "DGPS_CONTROL", "Survey_Date": "2025-04-10", "Horizontal_Accuracy_m": 0.047, "Vertical_Accuracy_m": 0.129, "Data_Type": "SYNTHETIC_DEMO", "Source_Provenance": "Synthetic survey/control dataset" }, "geometry": { "type": "Point", "coordinates": [ 82.6217269, 24.1238097 ] } },
{ "type": "Feature", "properties": { "Survey_Point_ID": "NIGAHI-SP-020", "Mine_ID": "M-NIGAHI", "Mine_Code": "NIGAHI", "Latitude": 24.1294584, "Longitude": 82.608967, "RL_m": 256.1, "Point_Type": "BENCH_RL", "Survey_Date": "2025-03-25", "Horizontal_Accuracy_m": 0.095, "Vertical_Accuracy_m": 0.095, "Data_Type": "SYNTHETIC_DEMO", "Source_Provenance": "Synthetic survey/control dataset" }, "geometry": { "type": "Point", "coordinates": [ 82.608967, 24.1294584 ] } },
{ "type": "Feature", "properties": { "Survey_Point_ID": "NIGAHI-SP-021", "Mine_ID": "M-NIGAHI", "Mine_Code": "NIGAHI", "Latitude": 24.1734739, "Longitude": 82.6306814, "RL_m": 256.62, "Point_Type": "PIT_RIM", "Survey_Date": "2025-05-11", "Horizontal_Accuracy_m": 0.089, "Vertical_Accuracy_m": 0.119, "Data_Type": "SYNTHETIC_DEMO", "Source_Provenance": "Synthetic survey/control dataset" }, "geometry": { "type": "Point", "coordinates": [ 82.6306814, 24.1734739 ] } },
{ "type": "Feature", "properties": { "Survey_Point_ID": "NIGAHI-SP-022", "Mine_ID": "M-NIGAHI", "Mine_Code": "NIGAHI", "Latitude": 24.1450303, "Longitude": 82.6015384, "RL_m": 312.21, "Point_Type": "DGPS_CONTROL", "Survey_Date": "2025-01-16", "Horizontal_Accuracy_m": 0.053, "Vertical_Accuracy_m": 0.197, "Data_Type": "SYNTHETIC_DEMO", "Source_Provenance": "Synthetic survey/control dataset" }, "geometry": { "type": "Point", "coordinates": [ 82.6015384, 24.1450303 ] } },
{ "type": "Feature", "properties": { "Survey_Point_ID": "NIGAHI-SP-023", "Mine_ID": "M-NIGAHI", "Mine_Code": "NIGAHI", "Latitude": 24.1639764, "Longitude": 82.6163717, "RL_m": 281.44, "Point_Type": "PIT_FLOOR", "Survey_Date": "2025-03-05", "Horizontal_Accuracy_m": 0.085, "Vertical_Accuracy_m": 0.122, "Data_Type": "SYNTHETIC_DEMO", "Source_Provenance": "Synthetic survey/control dataset" }, "geometry": { "type": "Point", "coordinates": [ 82.6163717, 24.1639764 ] } },
{ "type": "Feature", "properties": { "Survey_Point_ID": "NIGAHI-SP-024", "Mine_ID": "M-NIGAHI", "Mine_Code": "NIGAHI", "Latitude": 24.124062, "Longitude": 82.5944458, "RL_m": 260.71, "Point_Type": "PIT_FLOOR", "Survey_Date": "2025-09-23", "Horizontal_Accuracy_m": 0.011, "Vertical_Accuracy_m": 0.034, "Data_Type": "SYNTHETIC_DEMO", "Source_Provenance": "Synthetic survey/control dataset" }, "geometry": { "type": "Point", "coordinates": [ 82.5944458, 24.124062 ] } },
{ "type": "Feature", "properties": { "Survey_Point_ID": "NIGAHI-SP-025", "Mine_ID": "M-NIGAHI", "Mine_Code": "NIGAHI", "Latitude": 24.1519234, "Longitude": 82.63842, "RL_m": 309.99, "Point_Type": "BENCH_RL", "Survey_Date": "2025-09-18", "Horizontal_Accuracy_m": 0.092, "Vertical_Accuracy_m": 0.125, "Data_Type": "SYNTHETIC_DEMO", "Source_Provenance": "Synthetic survey/control dataset" }, "geometry": { "type": "Point", "coordinates": [ 82.63842, 24.1519234 ] } },
{ "type": "Feature", "properties": { "Survey_Point_ID": "DUDHICHUA-SP-001", "Mine_ID": "M-DUDHICHUA", "Mine_Code": "DUDHICHUA", "Latitude": 24.1661804, "Longitude": 82.6895059, "RL_m": 310.56, "Point_Type": "PIT_RIM", "Survey_Date": "2025-09-11", "Horizontal_Accuracy_m": 0.014, "Vertical_Accuracy_m": 0.068, "Data_Type": "SYNTHETIC_DEMO", "Source_Provenance": "Synthetic survey/control dataset" }, "geometry": { "type": "Point", "coordinates": [ 82.6895059, 24.1661804 ] } },
{ "type": "Feature", "properties": { "Survey_Point_ID": "DUDHICHUA-SP-002", "Mine_ID": "M-DUDHICHUA", "Mine_Code": "DUDHICHUA", "Latitude": 24.1448973, "Longitude": 82.6765529, "RL_m": 288.1, "Point_Type": "BENCH_RL", "Survey_Date": "2025-11-15", "Horizontal_Accuracy_m": 0.085, "Vertical_Accuracy_m": 0.075, "Data_Type": "SYNTHETIC_DEMO", "Source_Provenance": "Synthetic survey/control dataset" }, "geometry": { "type": "Point", "coordinates": [ 82.6765529, 24.1448973 ] } },
{ "type": "Feature", "properties": { "Survey_Point_ID": "DUDHICHUA-SP-003", "Mine_ID": "M-DUDHICHUA", "Mine_Code": "DUDHICHUA", "Latitude": 24.1712065, "Longitude": 82.732147, "RL_m": 257.07, "Point_Type": "PIT_FLOOR", "Survey_Date": "2025-11-06", "Horizontal_Accuracy_m": 0.081, "Vertical_Accuracy_m": 0.126, "Data_Type": "SYNTHETIC_DEMO", "Source_Provenance": "Synthetic survey/control dataset" }, "geometry": { "type": "Point", "coordinates": [ 82.732147, 24.1712065 ] } },
{ "type": "Feature", "properties": { "Survey_Point_ID": "DUDHICHUA-SP-004", "Mine_ID": "M-DUDHICHUA", "Mine_Code": "DUDHICHUA", "Latitude": 24.14055, "Longitude": 82.7086032, "RL_m": 312.77, "Point_Type": "BENCH_RL", "Survey_Date": "2025-02-23", "Horizontal_Accuracy_m": 0.068, "Vertical_Accuracy_m": 0.165, "Data_Type": "SYNTHETIC_DEMO", "Source_Provenance": "Synthetic survey/control dataset" }, "geometry": { "type": "Point", "coordinates": [ 82.7086032, 24.14055 ] } },
{ "type": "Feature", "properties": { "Survey_Point_ID": "DUDHICHUA-SP-005", "Mine_ID": "M-DUDHICHUA", "Mine_Code": "DUDHICHUA", "Latitude": 24.1515668, "Longitude": 82.7382206, "RL_m": 328.44, "Point_Type": "PIT_FLOOR", "Survey_Date": "2025-01-10", "Horizontal_Accuracy_m": 0.065, "Vertical_Accuracy_m": 0.135, "Data_Type": "SYNTHETIC_DEMO", "Source_Provenance": "Synthetic survey/control dataset" }, "geometry": { "type": "Point", "coordinates": [ 82.7382206, 24.1515668 ] } },
{ "type": "Feature", "properties": { "Survey_Point_ID": "DUDHICHUA-SP-006", "Mine_ID": "M-DUDHICHUA", "Mine_Code": "DUDHICHUA", "Latitude": 24.1220961, "Longitude": 82.7138371, "RL_m": 308.11, "Point_Type": "BENCH_RL", "Survey_Date": "2025-01-26", "Horizontal_Accuracy_m": 0.059, "Vertical_Accuracy_m": 0.101, "Data_Type": "SYNTHETIC_DEMO", "Source_Provenance": "Synthetic survey/control dataset" }, "geometry": { "type": "Point", "coordinates": [ 82.7138371, 24.1220961 ] } },
{ "type": "Feature", "properties": { "Survey_Point_ID": "DUDHICHUA-SP-007", "Mine_ID": "M-DUDHICHUA", "Mine_Code": "DUDHICHUA", "Latitude": 24.1336857, "Longitude": 82.738733, "RL_m": 291.89, "Point_Type": "BENCH_RL", "Survey_Date": "2025-01-11", "Horizontal_Accuracy_m": 0.073, "Vertical_Accuracy_m": 0.163, "Data_Type": "SYNTHETIC_DEMO", "Source_Provenance": "Synthetic survey/control dataset" }, "geometry": { "type": "Point", "coordinates": [ 82.738733, 24.1336857 ] } },
{ "type": "Feature", "properties": { "Survey_Point_ID": "DUDHICHUA-SP-008", "Mine_ID": "M-DUDHICHUA", "Mine_Code": "DUDHICHUA", "Latitude": 24.1641571, "Longitude": 82.7071543, "RL_m": 311.51, "Point_Type": "PIT_RIM", "Survey_Date": "2025-09-13", "Horizontal_Accuracy_m": 0.016, "Vertical_Accuracy_m": 0.028, "Data_Type": "SYNTHETIC_DEMO", "Source_Provenance": "Synthetic survey/control dataset" }, "geometry": { "type": "Point", "coordinates": [ 82.7071543, 24.1641571 ] } },
{ "type": "Feature", "properties": { "Survey_Point_ID": "DUDHICHUA-SP-009", "Mine_ID": "M-DUDHICHUA", "Mine_Code": "DUDHICHUA", "Latitude": 24.1364552, "Longitude": 82.7184564, "RL_m": 266.73, "Point_Type": "REFERENCE", "Survey_Date": "2025-08-09", "Horizontal_Accuracy_m": 0.062, "Vertical_Accuracy_m": 0.081, "Data_Type": "SYNTHETIC_DEMO", "Source_Provenance": "Synthetic survey/control dataset" }, "geometry": { "type": "Point", "coordinates": [ 82.7184564, 24.1364552 ] } },
{ "type": "Feature", "properties": { "Survey_Point_ID": "DUDHICHUA-SP-010", "Mine_ID": "M-DUDHICHUA", "Mine_Code": "DUDHICHUA", "Latitude": 24.1427667, "Longitude": 82.7126084, "RL_m": 296.78, "Point_Type": "DGPS_CONTROL", "Survey_Date": "2025-11-07", "Horizontal_Accuracy_m": 0.046, "Vertical_Accuracy_m": 0.146, "Data_Type": "SYNTHETIC_DEMO", "Source_Provenance": "Synthetic survey/control dataset" }, "geometry": { "type": "Point", "coordinates": [ 82.7126084, 24.1427667 ] } },
{ "type": "Feature", "properties": { "Survey_Point_ID": "DUDHICHUA-SP-011", "Mine_ID": "M-DUDHICHUA", "Mine_Code": "DUDHICHUA", "Latitude": 24.1560041, "Longitude": 82.6876047, "RL_m": 282.93, "Point_Type": "PIT_RIM", "Survey_Date": "2025-06-28", "Horizontal_Accuracy_m": 0.089, "Vertical_Accuracy_m": 0.113, "Data_Type": "SYNTHETIC_DEMO", "Source_Provenance": "Synthetic survey/control dataset" }, "geometry": { "type": "Point", "coordinates": [ 82.6876047, 24.1560041 ] } },
{ "type": "Feature", "properties": { "Survey_Point_ID": "DUDHICHUA-SP-012", "Mine_ID": "M-DUDHICHUA", "Mine_Code": "DUDHICHUA", "Latitude": 24.1507084, "Longitude": 82.7431177, "RL_m": 267.91, "Point_Type": "DGPS_CONTROL", "Survey_Date": "2025-11-11", "Horizontal_Accuracy_m": 0.084, "Vertical_Accuracy_m": 0.082, "Data_Type": "SYNTHETIC_DEMO", "Source_Provenance": "Synthetic survey/control dataset" }, "geometry": { "type": "Point", "coordinates": [ 82.7431177, 24.1507084 ] } },
{ "type": "Feature", "properties": { "Survey_Point_ID": "DUDHICHUA-SP-013", "Mine_ID": "M-DUDHICHUA", "Mine_Code": "DUDHICHUA", "Latitude": 24.1187811, "Longitude": 82.6993333, "RL_m": 293.9, "Point_Type": "PIT_RIM", "Survey_Date": "2025-02-26", "Horizontal_Accuracy_m": 0.058, "Vertical_Accuracy_m": 0.084, "Data_Type": "SYNTHETIC_DEMO", "Source_Provenance": "Synthetic survey/control dataset" }, "geometry": { "type": "Point", "coordinates": [ 82.6993333, 24.1187811 ] } },
{ "type": "Feature", "properties": { "Survey_Point_ID": "DUDHICHUA-SP-014", "Mine_ID": "M-DUDHICHUA", "Mine_Code": "DUDHICHUA", "Latitude": 24.1242099, "Longitude": 82.7375952, "RL_m": 276.41, "Point_Type": "PIT_RIM", "Survey_Date": "2025-07-13", "Horizontal_Accuracy_m": 0.039, "Vertical_Accuracy_m": 0.037, "Data_Type": "SYNTHETIC_DEMO", "Source_Provenance": "Synthetic survey/control dataset" }, "geometry": { "type": "Point", "coordinates": [ 82.7375952, 24.1242099 ] } },
{ "type": "Feature", "properties": { "Survey_Point_ID": "DUDHICHUA-SP-015", "Mine_ID": "M-DUDHICHUA", "Mine_Code": "DUDHICHUA", "Latitude": 24.1555159, "Longitude": 82.7086802, "RL_m": 290.93, "Point_Type": "PIT_FLOOR", "Survey_Date": "2025-07-11", "Horizontal_Accuracy_m": 0.024, "Vertical_Accuracy_m": 0.088, "Data_Type": "SYNTHETIC_DEMO", "Source_Provenance": "Synthetic survey/control dataset" }, "geometry": { "type": "Point", "coordinates": [ 82.7086802, 24.1555159 ] } },
{ "type": "Feature", "properties": { "Survey_Point_ID": "DUDHICHUA-SP-016", "Mine_ID": "M-DUDHICHUA", "Mine_Code": "DUDHICHUA", "Latitude": 24.1656249, "Longitude": 82.6751817, "RL_m": 256.76, "Point_Type": "BENCH_RL", "Survey_Date": "2025-08-23", "Horizontal_Accuracy_m": 0.064, "Vertical_Accuracy_m": 0.198, "Data_Type": "SYNTHETIC_DEMO", "Source_Provenance": "Synthetic survey/control dataset" }, "geometry": { "type": "Point", "coordinates": [ 82.6751817, 24.1656249 ] } },
{ "type": "Feature", "properties": { "Survey_Point_ID": "DUDHICHUA-SP-017", "Mine_ID": "M-DUDHICHUA", "Mine_Code": "DUDHICHUA", "Latitude": 24.1687463, "Longitude": 82.7125613, "RL_m": 268.89, "Point_Type": "PIT_FLOOR", "Survey_Date": "2025-06-26", "Horizontal_Accuracy_m": 0.078, "Vertical_Accuracy_m": 0.116, "Data_Type": "SYNTHETIC_DEMO", "Source_Provenance": "Synthetic survey/control dataset" }, "geometry": { "type": "Point", "coordinates": [ 82.7125613, 24.1687463 ] } },
{ "type": "Feature", "properties": { "Survey_Point_ID": "DUDHICHUA-SP-018", "Mine_ID": "M-DUDHICHUA", "Mine_Code": "DUDHICHUA", "Latitude": 24.1204911, "Longitude": 82.7254361, "RL_m": 261.82, "Point_Type": "REFERENCE", "Survey_Date": "2025-05-26", "Horizontal_Accuracy_m": 0.022, "Vertical_Accuracy_m": 0.144, "Data_Type": "SYNTHETIC_DEMO", "Source_Provenance": "Synthetic survey/control dataset" }, "geometry": { "type": "Point", "coordinates": [ 82.7254361, 24.1204911 ] } },
{ "type": "Feature", "properties": { "Survey_Point_ID": "DUDHICHUA-SP-019", "Mine_ID": "M-DUDHICHUA", "Mine_Code": "DUDHICHUA", "Latitude": 24.1589785, "Longitude": 82.7341108, "RL_m": 252.44, "Point_Type": "DGPS_CONTROL", "Survey_Date": "2025-12-14", "Horizontal_Accuracy_m": 0.088, "Vertical_Accuracy_m": 0.084, "Data_Type": "SYNTHETIC_DEMO", "Source_Provenance": "Synthetic survey/control dataset" }, "geometry": { "type": "Point", "coordinates": [ 82.7341108, 24.1589785 ] } },
{ "type": "Feature", "properties": { "Survey_Point_ID": "DUDHICHUA-SP-020", "Mine_ID": "M-DUDHICHUA", "Mine_Code": "DUDHICHUA", "Latitude": 24.1228727, "Longitude": 82.7028015, "RL_m": 308.99, "Point_Type": "DGPS_CONTROL", "Survey_Date": "2025-07-20", "Horizontal_Accuracy_m": 0.026, "Vertical_Accuracy_m": 0.122, "Data_Type": "SYNTHETIC_DEMO", "Source_Provenance": "Synthetic survey/control dataset" }, "geometry": { "type": "Point", "coordinates": [ 82.7028015, 24.1228727 ] } },
{ "type": "Feature", "properties": { "Survey_Point_ID": "DUDHICHUA-SP-021", "Mine_ID": "M-DUDHICHUA", "Mine_Code": "DUDHICHUA", "Latitude": 24.1219954, "Longitude": 82.7338497, "RL_m": 292.83, "Point_Type": "BENCH_RL", "Survey_Date": "2025-09-10", "Horizontal_Accuracy_m": 0.031, "Vertical_Accuracy_m": 0.082, "Data_Type": "SYNTHETIC_DEMO", "Source_Provenance": "Synthetic survey/control dataset" }, "geometry": { "type": "Point", "coordinates": [ 82.7338497, 24.1219954 ] } },
{ "type": "Feature", "properties": { "Survey_Point_ID": "DUDHICHUA-SP-022", "Mine_ID": "M-DUDHICHUA", "Mine_Code": "DUDHICHUA", "Latitude": 24.1368858, "Longitude": 82.7081779, "RL_m": 301.91, "Point_Type": "PIT_RIM", "Survey_Date": "2025-02-03", "Horizontal_Accuracy_m": 0.053, "Vertical_Accuracy_m": 0.125, "Data_Type": "SYNTHETIC_DEMO", "Source_Provenance": "Synthetic survey/control dataset" }, "geometry": { "type": "Point", "coordinates": [ 82.7081779, 24.1368858 ] } },
{ "type": "Feature", "properties": { "Survey_Point_ID": "DUDHICHUA-SP-023", "Mine_ID": "M-DUDHICHUA", "Mine_Code": "DUDHICHUA", "Latitude": 24.1482336, "Longitude": 82.7265776, "RL_m": 296.92, "Point_Type": "PIT_RIM", "Survey_Date": "2025-11-10", "Horizontal_Accuracy_m": 0.061, "Vertical_Accuracy_m": 0.088, "Data_Type": "SYNTHETIC_DEMO", "Source_Provenance": "Synthetic survey/control dataset" }, "geometry": { "type": "Point", "coordinates": [ 82.7265776, 24.1482336 ] } },
{ "type": "Feature", "properties": { "Survey_Point_ID": "DUDHICHUA-SP-024", "Mine_ID": "M-DUDHICHUA", "Mine_Code": "DUDHICHUA", "Latitude": 24.1673803, "Longitude": 82.6986213, "RL_m": 298.6, "Point_Type": "PIT_RIM", "Survey_Date": "2025-08-20", "Horizontal_Accuracy_m": 0.032, "Vertical_Accuracy_m": 0.11, "Data_Type": "SYNTHETIC_DEMO", "Source_Provenance": "Synthetic survey/control dataset" }, "geometry": { "type": "Point", "coordinates": [ 82.6986213, 24.1673803 ] } },
{ "type": "Feature", "properties": { "Survey_Point_ID": "DUDHICHUA-SP-025", "Mine_ID": "M-DUDHICHUA", "Mine_Code": "DUDHICHUA", "Latitude": 24.1692867, "Longitude": 82.6981244, "RL_m": 250.6, "Point_Type": "PIT_FLOOR", "Survey_Date": "2025-03-23", "Horizontal_Accuracy_m": 0.03, "Vertical_Accuracy_m": 0.086, "Data_Type": "SYNTHETIC_DEMO", "Source_Provenance": "Synthetic survey/control dataset" }, "geometry": { "type": "Point", "coordinates": [ 82.6981244, 24.1692867 ] } }
]
}
