{
"type": "FeatureCollection",
"name": "borehole_intervals",
"crs": { "type": "name", "properties": { "name": "urn:ogc:def:crs:OGC:1.3:CRS84" } },
"features": [
{ "type": "Feature", "properties": { "Borehole_ID": "DIPKA-BH-001", "Mine_ID": "M-DIPKA", "Mine_Code": "DIPKA", "Mine_Name": "Dipka OCP", "Interval_No": 1, "From_Depth_m": 0.0, "To_Depth_m": 14.99, "Thickness_m": 14.99, "Lithology": "Mudstone", "Stratigraphic_Unit": "Underlying sedimentary sequence", "Coal_Bearing": "NO", "Coal_Seam": "", "Weathering_Class": "Slight", "Sample_ID": "DIPKA-001-S01", "Data_Type": "SYNTHETIC_DEMO", "Source_Provenance": "Synthetic borehole interval generated to match GeoVault demonstration corpus" }, "geometry": { "type": "Point", "coordinates": [ 82.52091, 22.325916 ] } },
{ "type": "Feature", "properties": { "Borehole_ID": "DIPKA-BH-001", "Mine_ID": "M-DIPKA", "Mine_Code": "DIPKA", "Mine_Name": "Dipka OCP", "Interval_No": 2, "From_Depth_m": 14.99, "To_Depth_m": 29.98, "Thickness_m": 14.99, "Lithology": "Mudstone", "Stratigraphic_Unit": "Underlying sedimentary sequence", "Coal_Bearing": "NO", "Coal_Seam": "", "Weathering_Class": "Moderate", "Sample_ID": "DIPKA-001-S02", "Data_Type": "SYNTHETIC_DEMO", "Source_Provenance": "Synthetic borehole interval generated to match GeoVault demonstration corpus" }, "geometry": { "type": "Point", "coordinates": [ 82.52091, 22.325916 ] } },
{ "type": "Feature", "properties": { "Borehole_ID": "DIPKA-BH-001", "Mine_ID": "M-DIPKA", "Mine_Code": "DIPKA", "Mine_Name": "Dipka OCP", "Interval_No": 3, "From_Depth_m": 29.98, "To_Depth_m": 44.97, "Thickness_m": 14.99, "Lithology": "Sandstone", "Stratigraphic_Unit": "Overburden", "Coal_Bearing": "NO", "Coal_Seam": "", "Weathering_Class": "Fresh", "Sample_ID": "DIPKA-001-S03", "Data_Type": "SYNTHETIC_DEMO", "Source_Provenance": "Synthetic borehole interval generated to match GeoVault demonstration corpus" }, "geometry": { "type": "Point", "coordinates": [ 82.52091, 22.325916 ] } },
{ "type": "Feature", "properties": { "Borehole_ID": "DIPKA-BH-001", "Mine_ID": "M-DIPKA", "Mine_Code": "DIPKA", "Mine_Name": "Dipka OCP", "Interval_No": 4, "From_Depth_m": 44.97, "To_Depth_m": 59.96, "Thickness_m": 14.99, "Lithology": "Carbonaceous Shale", "Stratigraphic_Unit": "Coal-bearing sequence", "Coal_Bearing": "NO", "Coal_Seam": "", "Weathering_Class": "Fresh", "Sample_ID": "DIPKA-001-S04", "Data_Type": "SYNTHETIC_DEMO", "Source_Provenance": "Synthetic borehole interval generated to match GeoVault demonstration corpus" }, "geometry": { "type": "Point", "coordinates": [ 82.52091, 22.325916 ] } },
{ "type": "Feature", "properties": { "Borehole_ID": "DIPKA-BH-001", "Mine_ID": "M-DIPKA", "Mine_Code": "DIPKA", "Mine_Name": "Dipka OCP", "Interval_No": 5, "From_Depth_m": 59.96, "To_Depth_m": 74.95, "Thickness_m": 14.99, "Lithology": "Coal", "Stratigraphic_Unit": "Barakar-equivalent demo unit", "Coal_Bearing": "YES", "Coal_Seam": "GV-DIP-S2", "Weathering_Class": "Fresh", "Sample_ID": "DIPKA-001-S05", "Data_Type": "SYNTHETIC_DEMO", "Source_Provenance": "Synthetic borehole interval generated to match GeoVault demonstration corpus" }, "geometry": { "type": "Point", "coordinates": [ 82.52091, 22.325916 ] } },
{ "type": "Feature", "properties": { "Borehole_ID": "DIPKA-BH-001", "Mine_ID": "M-DIPKA", "Mine_Code": "DIPKA", "Mine_Name": "Dipka OCP", "Interval_No": 6, "From_Depth_m": 74.95, "To_Depth_m": 89.94, "Thickness_m": 14.99, "Lithology": "Mudstone", "Stratigraphic_Unit": "Barakar-equivalent demo unit", "Coal_Bearing": "NO", "Coal_Seam": "", "Weathering_Class": "Fresh", "Sample_ID": "DIPKA-001-S06", "Data_Type": "SYNTHETIC_DEMO", "Source_Provenance": "Synthetic borehole interval generated to match GeoVault demonstration corpus" }, "geometry": { "type": "Point", "coordinates": [ 82.52091, 22.325916 ] } },
{ "type": "Feature", "properties": { "Borehole_ID": "DIPKA-BH-001", "Mine_ID": "M-DIPKA", "Mine_Code": "DIPKA", "Mine_Name": "Dipka OCP", "Interval_No": 7, "From_Depth_m": 89.94, "To_Depth_m": 104.93, "Thickness_m": 14.99, "Lithology": "Siltstone", "Stratigraphic_Unit": "Coal-bearing sequence", "Coal_Bearing": "NO", "Coal_Seam": "", "Weathering_Class": "Fresh", "Sample_ID": "DIPKA-001-S07", "Data_Type": "SYNTHETIC_DEMO", "Source_Provenance": "Synthetic borehole interval generated to match GeoVault demonstration corpus" }, "geometry": { "type": "Point", "coordinates": [ 82.52091, 22.325916 ] } },
{ "type": "Feature", "properties": { "Borehole_ID": "DIPKA-BH-001", "Mine_ID": "M-DIPKA", "Mine_Code": "DIPKA", "Mine_Name": "Dipka OCP", "Interval_No": 8, "From_Depth_m": 104.93, "To_Depth_m": 119.92, "Thickness_m": 14.99, "Lithology": "Mudstone", "Stratigraphic_Unit": "Coal-bearing sequence", "Coal_Bearing": "NO", "Coal_Seam": "", "Weathering_Class": "Fresh", "Sample_ID": "DIPKA-001-S08", "Data_Type": "SYNTHETIC_DEMO", "Source_Provenance": "Synthetic borehole interval generated to match GeoVault demonstration corpus" }, "geometry": { "type": "Point", "coordinates": [ 82.52091, 22.325916 ] } },
{ "type": "Feature", "properties": { "Borehole_ID": "DIPKA-BH-001", "Mine_ID": "M-DIPKA", "Mine_Code": "DIPKA", "Mine_Name": "Dipka OCP", "Interval_No": 9, "From_Depth_m": 119.92, "To_Depth_m": 134.91, "Thickness_m": 14.99, "Lithology": "Mudstone", "Stratigraphic_Unit": "Coal-bearing sequence", "Coal_Bearing": "NO", "Coal_Seam": "", "Weathering_Class": "Fresh", "Sample_ID": "DIPKA-001-S09", "Data_Type": "SYNTHETIC_DEMO", "Source_Provenance": "Synthetic borehole interval generated to match GeoVault demonstration corpus" }, "geometry": { "type": "Point", "coordinates": [ 82.52091, 22.325916 ] } },
{ "type": "Feature", "properties": { "Borehole_ID": "DIPKA-BH-001", "Mine_ID": "M-DIPKA", "Mine_Code": "DIPKA", "Mine_Name": "Dipka OCP", "Interval_No": 10, "From_Depth_m": 134.91, "To_Depth_m": 149.9, "Thickness_m": 14.99, "Lithology": "Siltstone", "Stratigraphic_Unit": "Underlying sedimentary sequence", "Coal_Bearing": "NO", "Coal_Seam": "", "Weathering_Class": "Fresh", "Sample_ID": "DIPKA-001-S10", "Data_Type": "SYNTHETIC_DEMO", "Source_Provenance": "Synthetic borehole interval generated to match GeoVault demonstration corpus" }, "geometry": { "type": "Point", "coordinates": [ 82.52091, 22.325916 ] } },
{ "type": "Feature", "properties": { "Borehole_ID": "DIPKA-BH-002", "Mine_ID": "M-DIPKA", "Mine_Code": "DIPKA", "Mine_Name": "Dipka OCP", "Interval_No": 1, "From_Depth_m": 0.0, "To_Depth_m": 16.03, "Thickness_m": 16.03, "Lithology": "Siltstone", "Stratigraphic_Unit": "Coal-bearing sequence", "Coal_Bearing": "NO", "Coal_Seam": "", "Weathering_Class": "Moderate", "Sample_ID": "DIPKA-002-S01", "Data_Type": "SYNTHETIC_DEMO", "Source_Provenance": "Synthetic borehole interval generated to match GeoVault demonstration corpus" }, "geometry": { "type": "Point", "coordinates": [ 82.542167, 22.316656 ] } },
{ "type": "Feature", "properties": { "Borehole_ID": "DIPKA-BH-002", "Mine_ID": "M-DIPKA", "Mine_Code": "DIPKA", "Mine_Name": "Dipka OCP", "Interval_No": 2, "From_Depth_m": 16.03, "To_Depth_m": 32.06, "Thickness_m": 16.03, "Lithology": "Shale", "Stratigraphic_Unit": "Overburden", "Coal_Bearing": "NO", "Coal_Seam": "", "Weathering_Class": "Slight", "Sample_ID": "DIPKA-002-S02", "Data_Type": "SYNTHETIC_DEMO", "Source_Provenance": "Synthetic borehole interval generated to match GeoVault demonstration corpus" }, "geometry": { "type": "Point", "coordinates": [ 82.542167, 22.316656 ] } },
{ "type": "Feature", "properties": { "Borehole_ID": "DIPKA-BH-002", "Mine_ID": "M-DIPKA", "Mine_Code": "DIPKA", "Mine_Name": "Dipka OCP", "Interval_No": 3, "From_Depth_m": 32.06, "To_Depth_m": 48.09, "Thickness_m": 16.03, "Lithology": "Siltstone", "Stratigraphic_Unit": "Overburden", "Coal_Bearing": "NO", "Coal_Seam": "", "Weathering_Class": "Fresh", "Sample_ID": "DIPKA-002-S03", "Data_Type": "SYNTHETIC_DEMO", "Source_Provenance": "Synthetic borehole interval generated to match GeoVault demonstration corpus" }, "geometry": { "type": "Point", "coordinates": [ 82.542167, 22.316656 ] } },
{ "type": "Feature", "properties": { "Borehole_ID": "DIPKA-BH-002", "Mine_ID": "M-DIPKA", "Mine_Code": "DIPKA", "Mine_Name": "Dipka OCP", "Interval_No": 4, "From_Depth_m": 48.09, "To_Depth_m": 64.12, "Thickness_m": 16.03, "Lithology": "Carbonaceous Shale", "Stratigraphic_Unit": "Barakar-equivalent demo unit", "Coal_Bearing": "NO", "Coal_Seam": "", "Weathering_Class": "Fresh", "Sample_ID": "DIPKA-002-S04", "Data_Type": "SYNTHETIC_DEMO", "Source_Provenance": "Synthetic borehole interval generated to match GeoVault demonstration corpus" }, "geometry": { "type": "Point", "coordinates": [ 82.542167, 22.316656 ] } },
{ "type": "Feature", "properties": { "Borehole_ID": "DIPKA-BH-002", "Mine_ID": "M-DIPKA", "Mine_Code": "DIPKA", "Mine_Name": "Dipka OCP", "Interval_No": 5, "From_Depth_m": 64.12, "To_Depth_m": 80.15, "Thickness_m": 16.03, "Lithology": "Coal", "Stratigraphic_Unit": "Barakar-equivalent demo unit", "Coal_Bearing": "YES", "Coal_Seam": "GV-DIP-S3", "Weathering_Class": "Fresh", "Sample_ID": "DIPKA-002-S05", "Data_Type": "SYNTHETIC_DEMO", "Source_Provenance": "Synthetic borehole interval generated to match GeoVault demonstration corpus" }, "geometry": { "type": "Point", "coordinates": [ 82.542167, 22.316656 ] } },
{ "type": "Feature", "properties": { "Borehole_ID": "DIPKA-BH-002", "Mine_ID": "M-DIPKA", "Mine_Code": "DIPKA", "Mine_Name": "Dipka OCP", "Interval_No": 6, "From_Depth_m": 80.15, "To_Depth_m": 96.18, "Thickness_m": 16.03, "Lithology": "Shale", "Stratigraphic_Unit": "Underlying sedimentary sequence", "Coal_Bearing": "NO", "Coal_Seam": "", "Weathering_Class": "Fresh", "Sample_ID": "DIPKA-002-S06", "Data_Type": "SYNTHETIC_DEMO", "Source_Provenance": "Synthetic borehole interval generated to match GeoVault demonstration corpus" }, "geometry": { "type": "Point", "coordinates": [ 82.542167, 22.316656 ] } },
{ "type": "Feature", "properties": { "Borehole_ID": "DIPKA-BH-002", "Mine_ID": "M-DIPKA", "Mine_Code": "DIPKA", "Mine_Name": "Dipka OCP", "Interval_No": 7, "From_Depth_m": 96.18, "To_Depth_m": 112.21, "Thickness_m": 16.03, "Lithology": "Siltstone", "Stratigraphic_Unit": "Coal-bearing sequence", "Coal_Bearing": "NO", "Coal_Seam": "", "Weathering_Class": "Fresh", "Sample_ID": "DIPKA-002-S07", "Data_Type": "SYNTHETIC_DEMO", "Source_Provenance": "Synthetic borehole interval generated to match GeoVault demonstration corpus" }, "geometry": { "type": "Point", "coordinates": [ 82.542167, 22.316656 ] } },
{ "type": "Feature", "properties": { "Borehole_ID": "DIPKA-BH-002", "Mine_ID": "M-DIPKA", "Mine_Code": "DIPKA", "Mine_Name": "Dipka OCP", "Interval_No": 8, "From_Depth_m": 112.21, "To_Depth_m": 128.24, "Thickness_m": 16.03, "Lithology": "Sandstone", "Stratigraphic_Unit": "Barakar-equivalent demo unit", "Coal_Bearing": "NO", "Coal_Seam": "", "Weathering_Class": "Fresh", "Sample_ID": "DIPKA-002-S08", "Data_Type": "SYNTHETIC_DEMO", "Source_Provenance": "Synthetic borehole interval generated to match GeoVault demonstration corpus" }, "geometry": { "type": "Point", "coordinates": [ 82.542167, 22.316656 ] } },
{ "type": "Feature", "properties": { "Borehole_ID": "DIPKA-BH-002", "Mine_ID": "M-DIPKA", "Mine_Code": "DIPKA", "Mine_Name": "Dipka OCP", "Interval_No": 9, "From_Depth_m": 128.24, "To_Depth_m": 144.27, "Thickness_m": 16.03, "Lithology": "Siltstone", "Stratigraphic_Unit": "Barakar-equivalent demo unit", "Coal_Bearing": "NO", "Coal_Seam": "", "Weathering_Class": "Fresh", "Sample_ID": "DIPKA-002-S09", "Data_Type": "SYNTHETIC_DEMO", "Source_Provenance": "Synthetic borehole interval generated to match GeoVault demonstration corpus" }, "geometry": { "type": "Point", "coordinates": [ 82.542167, 22.316656 ] } },
{ "type": "Feature", "properties": { "Borehole_ID": "DIPKA-BH-002", "Mine_ID": "M-DIPKA", "Mine_Code": "DIPKA", "Mine_Name": "Dipka OCP", "Interval_No": 10, "From_Depth_m": 144.27, "To_Depth_m": 160.3, "Thickness_m": 16.03, "Lithology": "Siltstone", "Stratigraphic_Unit": "Barakar-equivalent demo unit", "Coal_Bearing": "NO", "Coal_Seam": "", "Weathering_Class": "Fresh", "Sample_ID": "DIPKA-002-S10", "Data_Type": "SYNTHETIC_DEMO", "Source_Provenance": "Synthetic borehole interval generated to match GeoVault demonstration corpus" }, "geometry": { "type": "Point", "coordinates": [ 82.542167, 22.316656 ] } },
{ "type": "Feature", "properties": { "Borehole_ID": "DIPKA-BH-003", "Mine_ID": "M-DIPKA", "Mine_Code": "DIPKA", "Mine_Name": "Dipka OCP", "Interval_No": 1, "From_Depth_m": 0.0, "To_Depth_m": 17.07, "Thickness_m": 17.07, "Lithology": "Siltstone", "Stratigraphic_Unit": "Overburden", "Coal_Bearing": "NO", "Coal_Seam": "", "Weathering_Class": "Slight", "Sample_ID": "DIPKA-003-S01", "Data_Type": "SYNTHETIC_DEMO", "Source_Provenance": "Synthetic borehole interval generated to match GeoVault demonstration corpus" }, "geometry": { "type": "Point", "coordinates": [ 82.565798, 22.32222 ] } },
{ "type": "Feature", "properties": { "Borehole_ID": "DIPKA-BH-003", "Mine_ID": "M-DIPKA", "Mine_Code": "DIPKA", "Mine_Name": "Dipka OCP", "Interval_No": 2, "From_Depth_m": 17.07, "To_Depth_m": 34.14, "Thickness_m": 17.07, "Lithology": "Siltstone", "Stratigraphic_Unit": "Overburden", "Coal_Bearing": "NO", "Coal_Seam": "", "Weathering_Class": "Slight", "Sample_ID": "DIPKA-003-S02", "Data_Type": "SYNTHETIC_DEMO", "Source_Provenance": "Synthetic borehole interval generated to match GeoVault demonstration corpus" }, "geometry": { "type": "Point", "coordinates": [ 82.565798, 22.32222 ] } },
{ "type": "Feature", "properties": { "Borehole_ID": "DIPKA-BH-003", "Mine_ID": "M-DIPKA", "Mine_Code": "DIPKA", "Mine_Name": "Dipka OCP", "Interval_No": 3, "From_Depth_m": 34.14, "To_Depth_m": 51.21, "Thickness_m": 17.07, "Lithology": "Interbedded Sandstone-Shale", "Stratigraphic_Unit": "Coal-bearing sequence", "Coal_Bearing": "NO", "Coal_Seam": "", "Weathering_Class": "Fresh", "Sample_ID": "DIPKA-003-S03", "Data_Type": "SYNTHETIC_DEMO", "Source_Provenance": "Synthetic borehole interval generated to match GeoVault demonstration corpus" }, "geometry": { "type": "Point", "coordinates": [ 82.565798, 22.32222 ] } },
{ "type": "Feature", "properties": { "Borehole_ID": "DIPKA-BH-003", "Mine_ID": "M-DIPKA", "Mine_Code": "DIPKA", "Mine_Name": "Dipka OCP", "Interval_No": 4, "From_Depth_m": 51.21, "To_Depth_m": 68.28, "Thickness_m": 17.07, "Lithology": "Shale", "Stratigraphic_Unit": "Underlying sedimentary sequence", "Coal_Bearing": "NO", "Coal_Seam": "", "Weathering_Class": "Fresh", "Sample_ID": "DIPKA-003-S04", "Data_Type": "SYNTHETIC_DEMO", "Source_Provenance": "Synthetic borehole interval generated to match GeoVault demonstration corpus" }, "geometry": { "type": "Point", "coordinates": [ 82.565798, 22.32222 ] } },
{ "type": "Feature", "properties": { "Borehole_ID": "DIPKA-BH-003", "Mine_ID": "M-DIPKA", "Mine_Code": "DIPKA", "Mine_Name": "Dipka OCP", "Interval_No": 5, "From_Depth_m": 68.28, "To_Depth_m": 85.35, "Thickness_m": 17.07, "Lithology": "Carbonaceous Shale", "Stratigraphic_Unit": "Overburden", "Coal_Bearing": "NO", "Coal_Seam": "", "Weathering_Class": "Fresh", "Sample_ID": "DIPKA-003-S05", "Data_Type": "SYNTHETIC_DEMO", "Source_Provenance": "Synthetic borehole interval generated to match GeoVault demonstration corpus" }, "geometry": { "type": "Point", "coordinates": [ 82.565798, 22.32222 ] } },
{ "type": "Feature", "properties": { "Borehole_ID": "DIPKA-BH-003", "Mine_ID": "M-DIPKA", "Mine_Code": "DIPKA", "Mine_Name": "Dipka OCP", "Interval_No": 6, "From_Depth_m": 85.35, "To_Depth_m": 102.42, "Thickness_m": 17.07, "Lithology": "Coal", "Stratigraphic_Unit": "Overburden", "Coal_Bearing": "YES", "Coal_Seam": "GV-DIP-S3", "Weathering_Class": "Fresh", "Sample_ID": "DIPKA-003-S06", "Data_Type": "SYNTHETIC_DEMO", "Source_Provenance": "Synthetic borehole interval generated to match GeoVault demonstration corpus" }, "geometry": { "type": "Point", "coordinates": [ 82.565798, 22.32222 ] } },
{ "type": "Feature", "properties": { "Borehole_ID": "DIPKA-BH-003", "Mine_ID": "M-DIPKA", "Mine_Code": "DIPKA", "Mine_Name": "Dipka OCP", "Interval_No": 7, "From_Depth_m": 102.42, "To_Depth_m": 119.49, "Thickness_m": 17.07, "Lithology": "Interbedded Sandstone-Shale", "Stratigraphic_Unit": "Coal-bearing sequence", "Coal_Bearing": "NO", "Coal_Seam": "", "Weathering_Class": "Fresh", "Sample_ID": "DIPKA-003-S07", "Data_Type": "SYNTHETIC_DEMO", "Source_Provenance": "Synthetic borehole interval generated to match GeoVault demonstration corpus" }, "geometry": { "type": "Point", "coordinates": [ 82.565798, 22.32222 ] } },
{ "type": "Feature", "properties": { "Borehole_ID": "DIPKA-BH-003", "Mine_ID": "M-DIPKA", "Mine_Code": "DIPKA", "Mine_Name": "Dipka OCP", "Interval_No": 8, "From_Depth_m": 119.49, "To_Depth_m": 136.56, "Thickness_m": 17.07, "Lithology": "Mudstone", "Stratigraphic_Unit": "Underlying sedimentary sequence", "Coal_Bearing": "NO", "Coal_Seam": "", "Weathering_Class": "Fresh", "Sample_ID": "DIPKA-003-S08", "Data_Type": "SYNTHETIC_DEMO", "Source_Provenance": "Synthetic borehole interval generated to match GeoVault demonstration corpus" }, "geometry": { "type": "Point", "coordinates": [ 82.565798, 22.32222 ] } },
{ "type": "Feature", "properties": { "Borehole_ID": "DIPKA-BH-003", "Mine_ID": "M-DIPKA", "Mine_Code": "DIPKA", "Mine_Name": "Dipka OCP", "Interval_No": 9, "From_Depth_m": 136.56, "To_Depth_m": 153.63, "Thickness_m": 17.07, "Lithology": "Mudstone", "Stratigraphic_Unit": "Coal-bearing sequence", "Coal_Bearing": "NO", "Coal_Seam": "", "Weathering_Class": "Fresh", "Sample_ID": "DIPKA-003-S09", "Data_Type": "SYNTHETIC_DEMO", "Source_Provenance": "Synthetic borehole interval generated to match GeoVault demonstration corpus" }, "geometry": { "type": "Point", "coordinates": [ 82.565798, 22.32222 ] } },
{ "type": "Feature", "properties": { "Borehole_ID": "DIPKA-BH-003", "Mine_ID": "M-DIPKA", "Mine_Code": "DIPKA", "Mine_Name": "Dipka OCP", "Interval_No": 10, "From_Depth_m": 153.63, "To_Depth_m": 170.7, "Thickness_m": 17.07, "Lithology": "Shale", "Stratigraphic_Unit": "Overburden", "Coal_Bearing": "NO", "Coal_Seam": "", "Weathering_Class": "Fresh", "Sample_ID": "DIPKA-003-S10", "Data_Type": "SYNTHETIC_DEMO", "Source_Provenance": "Synthetic borehole interval generated to match GeoVault demonstration corpus" }, "geometry": { "type": "Point", "coordinates": [ 82.565798, 22.32222 ] } },
{ "type": "Feature", "properties": { "Borehole_ID": "DIPKA-BH-004", "Mine_ID": "M-DIPKA", "Mine_Code": "DIPKA", "Mine_Name": "Dipka OCP", "Interval_No": 1, "From_Depth_m": 0.0, "To_Depth_m": 23.01, "Thickness_m": 23.01, "Lithology": "Siltstone", "Stratigraphic_Unit": "Underlying sedimentary sequence", "Coal_Bearing": "NO", "Coal_Seam": "", "Weathering_Class": "Slight", "Sample_ID": "DIPKA-004-S01", "Data_Type": "SYNTHETIC_DEMO", "Source_Provenance": "Synthetic borehole interval generated to match GeoVault demonstration corpus" }, "geometry": { "type": "Point", "coordinates": [ 82.562701, 22.325141 ] } },
{ "type": "Feature", "properties": { "Borehole_ID": "DIPKA-BH-004", "Mine_ID": "M-DIPKA", "Mine_Code": "DIPKA", "Mine_Name": "Dipka OCP", "Interval_No": 2, "From_Depth_m": 23.01, "To_Depth_m": 46.02, "Thickness_m": 23.01, "Lithology": "Sandstone", "Stratigraphic_Unit": "Underlying sedimentary sequence", "Coal_Bearing": "NO", "Coal_Seam": "", "Weathering_Class": "Moderate", "Sample_ID": "DIPKA-004-S02", "Data_Type": "SYNTHETIC_DEMO", "Source_Provenance": "Synthetic borehole interval generated to match GeoVault demonstration corpus" }, "geometry": { "type": "Point", "coordinates": [ 82.562701, 22.325141 ] } },
{ "type": "Feature", "properties": { "Borehole_ID": "DIPKA-BH-004", "Mine_ID": "M-DIPKA", "Mine_Code": "DIPKA", "Mine_Name": "Dipka OCP", "Interval_No": 3, "From_Depth_m": 46.02, "To_Depth_m": 69.03, "Thickness_m": 23.01, "Lithology": "Sandstone", "Stratigraphic_Unit": "Overburden", "Coal_Bearing": "NO", "Coal_Seam": "", "Weathering_Class": "Fresh", "Sample_ID": "DIPKA-004-S03", "Data_Type": "SYNTHETIC_DEMO", "Source_Provenance": "Synthetic borehole interval generated to match GeoVault demonstration corpus" }, "geometry": { "type": "Point", "coordinates": [ 82.562701, 22.325141 ] } },
{ "type": "Feature", "properties": { "Borehole_ID": "DIPKA-BH-004", "Mine_ID": "M-DIPKA", "Mine_Code": "DIPKA", "Mine_Name": "Dipka OCP", "Interval_No": 4, "From_Depth_m": 69.03, "To_Depth_m": 92.04, "Thickness_m": 23.01, "Lithology": "Carbonaceous Shale", "Stratigraphic_Unit": "Barakar-equivalent demo unit", "Coal_Bearing": "NO", "Coal_Seam": "", "Weathering_Class": "Fresh", "Sample_ID": "DIPKA-004-S04", "Data_Type": "SYNTHETIC_DEMO", "Source_Provenance": "Synthetic borehole interval generated to match GeoVault demonstration corpus" }, "geometry": { "type": "Point", "coordinates": [ 82.562701, 22.325141 ] } },
{ "type": "Feature", "properties": { "Borehole_ID": "DIPKA-BH-004", "Mine_ID": "M-DIPKA", "Mine_Code": "DIPKA", "Mine_Name": "Dipka OCP", "Interval_No": 5, "From_Depth_m": 92.04, "To_Depth_m": 115.05, "Thickness_m": 23.01, "Lithology": "Coal", "Stratigraphic_Unit": "Barakar-equivalent demo unit", "Coal_Bearing": "YES", "Coal_Seam": "GV-DIP-S4", "Weathering_Class": "Fresh", "Sample_ID": "DIPKA-004-S05", "Data_Type": "SYNTHETIC_DEMO", "Source_Provenance": "Synthetic borehole interval generated to match GeoVault demonstration corpus" }, "geometry": { "type": "Point", "coordinates": [ 82.562701, 22.325141 ] } },
{ "type": "Feature", "properties": { "Borehole_ID": "DIPKA-BH-004", "Mine_ID": "M-DIPKA", "Mine_Code": "DIPKA", "Mine_Name": "Dipka OCP", "Interval_No": 6, "From_Depth_m": 115.05, "To_Depth_m": 138.06, "Thickness_m": 23.01, "Lithology": "Interbedded Sandstone-Shale", "Stratigraphic_Unit": "Coal-bearing sequence", "Coal_Bearing": "NO", "Coal_Seam": "", "Weathering_Class": "Fresh", "Sample_ID": "DIPKA-004-S06", "Data_Type": "SYNTHETIC_DEMO", "Source_Provenance": "Synthetic borehole interval generated to match GeoVault demonstration corpus" }, "geometry": { "type": "Point", "coordinates": [ 82.562701, 22.325141 ] } },
{ "type": "Feature", "properties": { "Borehole_ID": "DIPKA-BH-004", "Mine_ID": "M-DIPKA", "Mine_Code": "DIPKA", "Mine_Name": "Dipka OCP", "Interval_No": 7, "From_Depth_m": 138.06, "To_Depth_m": 161.07, "Thickness_m": 23.01, "Lithology": "Sandstone", "Stratigraphic_Unit": "Barakar-equivalent demo unit", "Coal_Bearing": "NO", "Coal_Seam": "", "Weathering_Class": "Fresh", "Sample_ID": "DIPKA-004-S07", "Data_Type": "SYNTHETIC_DEMO", "Source_Provenance": "Synthetic borehole interval generated to match GeoVault demonstration corpus" }, "geometry": { "type": "Point", "coordinates": [ 82.562701, 22.325141 ] } },
{ "type": "Feature", "properties": { "Borehole_ID": "DIPKA-BH-004", "Mine_ID": "M-DIPKA", "Mine_Code": "DIPKA", "Mine_Name": "Dipka OCP", "Interval_No": 8, "From_Depth_m": 161.07, "To_Depth_m": 184.08, "Thickness_m": 23.01, "Lithology": "Sandstone", "Stratigraphic_Unit": "Underlying sedimentary sequence", "Coal_Bearing": "NO", "Coal_Seam": "", "Weathering_Class": "Fresh", "Sample_ID": "DIPKA-004-S08", "Data_Type": "SYNTHETIC_DEMO", "Source_Provenance": "Synthetic borehole interval generated to match GeoVault demonstration corpus" }, "geometry": { "type": "Point", "coordinates": [ 82.562701, 22.325141 ] } },
{ "type": "Feature", "properties": { "Borehole_ID": "DIPKA-BH-004", "Mine_ID": "M-DIPKA", "Mine_Code": "DIPKA", "Mine_Name": "Dipka OCP", "Interval_No": 9, "From_Depth_m": 184.08, "To_Depth_m": 207.09, "Thickness_m": 23.01, "Lithology": "Interbedded Sandstone-Shale", "Stratigraphic_Unit": "Barakar-equivalent demo unit", "Coal_Bearing": "NO", "Coal_Seam": "", "Weathering_Class": "Fresh", "Sample_ID": "DIPKA-004-S09", "Data_Type": "SYNTHETIC_DEMO", "Source_Provenance": "Synthetic borehole interval generated to match GeoVault demonstration corpus" }, "geometry": { "type": "Point", "coordinates": [ 82.562701, 22.325141 ] } },
{ "type": "Feature", "properties": { "Borehole_ID": "DIPKA-BH-004", "Mine_ID": "M-DIPKA", "Mine_Code": "DIPKA", "Mine_Name": "Dipka OCP", "Interval_No": 10, "From_Depth_m": 207.09, "To_Depth_m": 230.1, "Thickness_m": 23.01, "Lithology": "Interbedded Sandstone-Shale", "Stratigraphic_Unit": "Underlying sedimentary sequence", "Coal_Bearing": "NO", "Coal_Seam": "", "Weathering_Class": "Fresh", "Sample_ID": "DIPKA-004-S10", "Data_Type": "SYNTHETIC_DEMO", "Source_Provenance": "Synthetic borehole interval generated to match GeoVault demonstration corpus" }, "geometry": { "type": "Point", "coordinates": [ 82.562701, 22.325141 ] } },
{ "type": "Feature", "properties": { "Borehole_ID": "DIPKA-BH-005", "Mine_ID": "M-DIPKA", "Mine_Code": "DIPKA", "Mine_Name": "Dipka OCP", "Interval_No": 1, "From_Depth_m": 0.0, "To_Depth_m": 17.2, "Thickness_m": 17.2, "Lithology": "Mudstone", "Stratigraphic_Unit": "Underlying sedimentary sequence", "Coal_Bearing": "NO", "Coal_Seam": "", "Weathering_Class": "Moderate", "Sample_ID": "DIPKA-005-S01", "Data_Type": "SYNTHETIC_DEMO", "Source_Provenance": "Synthetic borehole interval generated to match GeoVault demonstration corpus" }, "geometry": { "type": "Point", "coordinates": [ 82.545298, 22.311344 ] } },
{ "type": "Feature", "properties": { "Borehole_ID": "DIPKA-BH-005", "Mine_ID": "M-DIPKA", "Mine_Code": "DIPKA", "Mine_Name": "Dipka OCP", "Interval_No": 2, "From_Depth_m": 17.2, "To_Depth_m": 34.4, "Thickness_m": 17.2, "Lithology": "Interbedded Sandstone-Shale", "Stratigraphic_Unit": "Underlying sedimentary sequence", "Coal_Bearing": "NO", "Coal_Seam": "", "Weathering_Class": "Moderate", "Sample_ID": "DIPKA-005-S02", "Data_Type": "SYNTHETIC_DEMO", "Source_Provenance": "Synthetic borehole interval generated to match GeoVault demonstration corpus" }, "geometry": { "type": "Point", "coordinates": [ 82.545298, 22.311344 ] } },
{ "type": "Feature", "properties": { "Borehole_ID": "DIPKA-BH-005", "Mine_ID": "M-DIPKA", "Mine_Code": "DIPKA", "Mine_Name": "Dipka OCP", "Interval_No": 3, "From_Depth_m": 34.4, "To_Depth_m": 51.6, "Thickness_m": 17.2, "Lithology": "Carbonaceous Shale", "Stratigraphic_Unit": "Overburden", "Coal_Bearing": "NO", "Coal_Seam": "", "Weathering_Class": "Fresh", "Sample_ID": "DIPKA-005-S03", "Data_Type": "SYNTHETIC_DEMO", "Source_Provenance": "Synthetic borehole interval generated to match GeoVault demonstration corpus" }, "geometry": { "type": "Point", "coordinates": [ 82.545298, 22.311344 ] } },
{ "type": "Feature", "properties": { "Borehole_ID": "DIPKA-BH-005", "Mine_ID": "M-DIPKA", "Mine_Code": "DIPKA", "Mine_Name": "Dipka OCP", "Interval_No": 4, "From_Depth_m": 51.6, "To_Depth_m": 68.8, "Thickness_m": 17.2, "Lithology": "Coal", "Stratigraphic_Unit": "Overburden", "Coal_Bearing": "YES", "Coal_Seam": "GV-DIP-S1", "Weathering_Class": "Fresh", "Sample_ID": "DIPKA-005-S04", "Data_Type": "SYNTHETIC_DEMO", "Source_Provenance": "Synthetic borehole interval generated to match GeoVault demonstration corpus" }, "geometry": { "type": "Point", "coordinates": [ 82.545298, 22.311344 ] } },
{ "type": "Feature", "properties": { "Borehole_ID": "DIPKA-BH-005", "Mine_ID": "M-DIPKA", "Mine_Code": "DIPKA", "Mine_Name": "Dipka OCP", "Interval_No": 5, "From_Depth_m": 68.8, "To_Depth_m": 86.0, "Thickness_m": 17.2, "Lithology": "Shale", "Stratigraphic_Unit": "Barakar-equivalent demo unit", "Coal_Bearing": "NO", "Coal_Seam": "", "Weathering_Class": "Fresh", "Sample_ID": "DIPKA-005-S05", "Data_Type": "SYNTHETIC_DEMO", "Source_Provenance": "Synthetic borehole interval generated to match GeoVault demonstration corpus" }, "geometry": { "type": "Point", "coordinates": [ 82.545298, 22.311344 ] } },
{ "type": "Feature", "properties": { "Borehole_ID": "DIPKA-BH-005", "Mine_ID": "M-DIPKA", "Mine_Code": "DIPKA", "Mine_Name": "Dipka OCP", "Interval_No": 6, "From_Depth_m": 86.0, "To_Depth_m": 103.2, "Thickness_m": 17.2, "Lithology": "Siltstone", "Stratigraphic_Unit": "Overburden", "Coal_Bearing": "NO", "Coal_Seam": "", "Weathering_Class": "Fresh", "Sample_ID": "DIPKA-005-S06", "Data_Type": "SYNTHETIC_DEMO", "Source_Provenance": "Synthetic borehole interval generated to match GeoVault demonstration corpus" }, "geometry": { "type": "Point", "coordinates": [ 82.545298, 22.311344 ] } },
{ "type": "Feature", "properties": { "Borehole_ID": "DIPKA-BH-005", "Mine_ID": "M-DIPKA", "Mine_Code": "DIPKA", "Mine_Name": "Dipka OCP", "Interval_No": 7, "From_Depth_m": 103.2, "To_Depth_m": 120.4, "Thickness_m": 17.2, "Lithology": "Shale", "Stratigraphic_Unit": "Barakar-equivalent demo unit", "Coal_Bearing": "NO", "Coal_Seam": "", "Weathering_Class": "Fresh", "Sample_ID": "DIPKA-005-S07", "Data_Type": "SYNTHETIC_DEMO", "Source_Provenance": "Synthetic borehole interval generated to match GeoVault demonstration corpus" }, "geometry": { "type": "Point", "coordinates": [ 82.545298, 22.311344 ] } },
{ "type": "Feature", "properties": { "Borehole_ID": "DIPKA-BH-005", "Mine_ID": "M-DIPKA", "Mine_Code": "DIPKA", "Mine_Name": "Dipka OCP", "Interval_No": 8, "From_Depth_m": 120.4, "To_Depth_m": 137.6, "Thickness_m": 17.2, "Lithology": "Shale", "Stratigraphic_Unit": "Overburden", "Coal_Bearing": "NO", "Coal_Seam": "", "Weathering_Class": "Fresh", "Sample_ID": "DIPKA-005-S08", "Data_Type": "SYNTHETIC_DEMO", "Source_Provenance": "Synthetic borehole interval generated to match GeoVault demonstration corpus" }, "geometry": { "type": "Point", "coordinates": [ 82.545298, 22.311344 ] } },
{ "type": "Feature", "properties": { "Borehole_ID": "DIPKA-BH-005", "Mine_ID": "M-DIPKA", "Mine_Code": "DIPKA", "Mine_Name": "Dipka OCP", "Interval_No": 9, "From_Depth_m": 137.6, "To_Depth_m": 154.8, "Thickness_m": 17.2, "Lithology": "Shale", "Stratigraphic_Unit": "Overburden", "Coal_Bearing": "NO", "Coal_Seam": "", "Weathering_Class": "Fresh", "Sample_ID": "DIPKA-005-S09", "Data_Type": "SYNTHETIC_DEMO", "Source_Provenance": "Synthetic borehole interval generated to match GeoVault demonstration corpus" }, "geometry": { "type": "Point", "coordinates": [ 82.545298, 22.311344 ] } },
{ "type": "Feature", "properties": { "Borehole_ID": "DIPKA-BH-005", "Mine_ID": "M-DIPKA", "Mine_Code": "DIPKA", "Mine_Name": "Dipka OCP", "Interval_No": 10, "From_Depth_m": 154.8, "To_Depth_m": 172.0, "Thickness_m": 17.2, "Lithology": "Mudstone", "Stratigraphic_Unit": "Underlying sedimentary sequence", "Coal_Bearing": "NO", "Coal_Seam": "", "Weathering_Class": "Fresh", "Sample_ID": "DIPKA-005-S10", "Data_Type": "SYNTHETIC_DEMO", "Source_Provenance": "Synthetic borehole interval generated to match GeoVault demonstration corpus" }, "geometry": { "type": "Point", "coordinates": [ 82.545298, 22.311344 ] } },
{ "type": "Feature", "properties": { "Borehole_ID": "DIPKA-BH-006", "Mine_ID": "M-DIPKA", "Mine_Code": "DIPKA", "Mine_Name": "Dipka OCP", "Interval_No": 1, "From_Depth_m": 0.0, "To_Depth_m": 9.36, "Thickness_m": 9.36, "Lithology": "Interbedded Sandstone-Shale", "Stratigraphic_Unit": "Underlying sedimentary sequence", "Coal_Bearing": "NO", "Coal_Seam": "", "Weathering_Class": "Moderate", "Sample_ID": "DIPKA-006-S01", "Data_Type": "SYNTHETIC_DEMO", "Source_Provenance": "Synthetic borehole interval generated to match GeoVault demonstration corpus" }, "geometry": { "type": "Point", "coordinates": [ 82.549806, 22.326272 ] } },
{ "type": "Feature", "properties": { "Borehole_ID": "DIPKA-BH-006", "Mine_ID": "M-DIPKA", "Mine_Code": "DIPKA", "Mine_Name": "Dipka OCP", "Interval_No": 2, "From_Depth_m": 9.36, "To_Depth_m": 18.72, "Thickness_m": 9.36, "Lithology": "Sandstone", "Stratigraphic_Unit": "Barakar-equivalent demo unit", "Coal_Bearing": "NO", "Coal_Seam": "", "Weathering_Class": "Moderate", "Sample_ID": "DIPKA-006-S02", "Data_Type": "SYNTHETIC_DEMO", "Source_Provenance": "Synthetic borehole interval generated to match GeoVault demonstration corpus" }, "geometry": { "type": "Point", "coordinates": [ 82.549806, 22.326272 ] } },
{ "type": "Feature", "properties": { "Borehole_ID": "DIPKA-BH-006", "Mine_ID": "M-DIPKA", "Mine_Code": "DIPKA", "Mine_Name": "Dipka OCP", "Interval_No": 3, "From_Depth_m": 18.72, "To_Depth_m": 28.08, "Thickness_m": 9.36, "Lithology": "Siltstone", "Stratigraphic_Unit": "Underlying sedimentary sequence", "Coal_Bearing": "NO", "Coal_Seam": "", "Weathering_Class": "Slight", "Sample_ID": "DIPKA-006-S03", "Data_Type": "SYNTHETIC_DEMO", "Source_Provenance": "Synthetic borehole interval generated to match GeoVault demonstration corpus" }, "geometry": { "type": "Point", "coordinates": [ 82.549806, 22.326272 ] } },
{ "type": "Feature", "properties": { "Borehole_ID": "DIPKA-BH-006", "Mine_ID": "M-DIPKA", "Mine_Code": "DIPKA", "Mine_Name": "Dipka OCP", "Interval_No": 4, "From_Depth_m": 28.08, "To_Depth_m": 37.44, "Thickness_m": 9.36, "Lithology": "Shale", "Stratigraphic_Unit": "Coal-bearing sequence", "Coal_Bearing": "NO", "Coal_Seam": "", "Weathering_Class": "Fresh", "Sample_ID": "DIPKA-006-S04", "Data_Type": "SYNTHETIC_DEMO", "Source_Provenance": "Synthetic borehole interval generated to match GeoVault demonstration corpus" }, "geometry": { "type": "Point", "coordinates": [ 82.549806, 22.326272 ] } },
{ "type": "Feature", "properties": { "Borehole_ID": "DIPKA-BH-006", "Mine_ID": "M-DIPKA", "Mine_Code": "DIPKA", "Mine_Name": "Dipka OCP", "Interval_No": 5, "From_Depth_m": 37.44, "To_Depth_m": 46.8, "Thickness_m": 9.36, "Lithology": "Interbedded Sandstone-Shale", "Stratigraphic_Unit": "Barakar-equivalent demo unit", "Coal_Bearing": "NO", "Coal_Seam": "", "Weathering_Class": "Fresh", "Sample_ID": "DIPKA-006-S05", "Data_Type": "SYNTHETIC_DEMO", "Source_Provenance": "Synthetic borehole interval generated to match GeoVault demonstration corpus" }, "geometry": { "type": "Point", "coordinates": [ 82.549806, 22.326272 ] } },
{ "type": "Feature", "properties": { "Borehole_ID": "DIPKA-BH-006", "Mine_ID": "M-DIPKA", "Mine_Code": "DIPKA", "Mine_Name": "Dipka OCP", "Interval_No": 6, "From_Depth_m": 46.8, "To_Depth_m": 56.16, "Thickness_m": 9.36, "Lithology": "Mudstone", "Stratigraphic_Unit": "Overburden", "Coal_Bearing": "NO", "Coal_Seam": "", "Weathering_Class": "Fresh", "Sample_ID": "DIPKA-006-S06", "Data_Type": "SYNTHETIC_DEMO", "Source_Provenance": "Synthetic borehole interval generated to match GeoVault demonstration corpus" }, "geometry": { "type": "Point", "coordinates": [ 82.549806, 22.326272 ] } },
{ "type": "Feature", "properties": { "Borehole_ID": "DIPKA-BH-006", "Mine_ID": "M-DIPKA", "Mine_Code": "DIPKA", "Mine_Name": "Dipka OCP", "Interval_No": 7, "From_Depth_m": 56.16, "To_Depth_m": 65.52, "Thickness_m": 9.36, "Lithology": "Carbonaceous Shale", "Stratigraphic_Unit": "Barakar-equivalent demo unit", "Coal_Bearing": "NO", "Coal_Seam": "", "Weathering_Class": "Fresh", "Sample_ID": "DIPKA-006-S07", "Data_Type": "SYNTHETIC_DEMO", "Source_Provenance": "Synthetic borehole interval generated to match GeoVault demonstration corpus" }, "geometry": { "type": "Point", "coordinates": [ 82.549806, 22.326272 ] } },
{ "type": "Feature", "properties": { "Borehole_ID": "DIPKA-BH-006", "Mine_ID": "M-DIPKA", "Mine_Code": "DIPKA", "Mine_Name": "Dipka OCP", "Interval_No": 8, "From_Depth_m": 65.52, "To_Depth_m": 74.88, "Thickness_m": 9.36, "Lithology": "Coal", "Stratigraphic_Unit": "Barakar-equivalent demo unit", "Coal_Bearing": "YES", "Coal_Seam": "GV-DIP-S3", "Weathering_Class": "Fresh", "Sample_ID": "DIPKA-006-S08", "Data_Type": "SYNTHETIC_DEMO", "Source_Provenance": "Synthetic borehole interval generated to match GeoVault demonstration corpus" }, "geometry": { "type": "Point", "coordinates": [ 82.549806, 22.326272 ] } },
{ "type": "Feature", "properties": { "Borehole_ID": "DIPKA-BH-006", "Mine_ID": "M-DIPKA", "Mine_Code": "DIPKA", "Mine_Name": "Dipka OCP", "Interval_No": 9, "From_Depth_m": 74.88, "To_Depth_m": 84.24, "Thickness_m": 9.36, "Lithology": "Siltstone", "Stratigraphic_Unit": "Barakar-equivalent demo unit", "Coal_Bearing": "NO", "Coal_Seam": "", "Weathering_Class": "Fresh", "Sample_ID": "DIPKA-006-S09", "Data_Type": "SYNTHETIC_DEMO", "Source_Provenance": "Synthetic borehole interval generated to match GeoVault demonstration corpus" }, "geometry": { "type": "Point", "coordinates": [ 82.549806, 22.326272 ] } },
{ "type": "Feature", "properties": { "Borehole_ID": "DIPKA-BH-006", "Mine_ID": "M-DIPKA", "Mine_Code": "DIPKA", "Mine_Name": "Dipka OCP", "Interval_No": 10, "From_Depth_m": 84.24, "To_Depth_m": 93.6, "Thickness_m": 9.36, "Lithology": "Sandstone", "Stratigraphic_Unit": "Overburden", "Coal_Bearing": "NO", "Coal_Seam": "", "Weathering_Class": "Fresh", "Sample_ID": "DIPKA-006-S10", "Data_Type": "SYNTHETIC_DEMO", "Source_Provenance": "Synthetic borehole interval generated to match GeoVault demonstration corpus" }, "geometry": { "type": "Point", "coordinates": [ 82.549806, 22.326272 ] } },
{ "type": "Feature", "properties": { "Borehole_ID": "DIPKA-BH-007", "Mine_ID": "M-DIPKA", "Mine_Code": "DIPKA", "Mine_Name": "Dipka OCP", "Interval_No": 1, "From_Depth_m": 0.0, "To_Depth_m": 20.53, "Thickness_m": 20.53, "Lithology": "Shale", "Stratigraphic_Unit": "Coal-bearing sequence", "Coal_Bearing": "NO", "Coal_Seam": "", "Weathering_Class": "Moderate", "Sample_ID": "DIPKA-007-S01", "Data_Type": "SYNTHETIC_DEMO", "Source_Provenance": "Synthetic borehole interval generated to match GeoVault demonstration corpus" }, "geometry": { "type": "Point", "coordinates": [ 82.547744, 22.297021 ] } },
{ "type": "Feature", "properties": { "Borehole_ID": "DIPKA-BH-007", "Mine_ID": "M-DIPKA", "Mine_Code": "DIPKA", "Mine_Name": "Dipka OCP", "Interval_No": 2, "From_Depth_m": 20.53, "To_Depth_m": 41.06, "Thickness_m": 20.53, "Lithology": "Mudstone", "Stratigraphic_Unit": "Overburden", "Coal_Bearing": "NO", "Coal_Seam": "", "Weathering_Class": "Moderate", "Sample_ID": "DIPKA-007-S02", "Data_Type": "SYNTHETIC_DEMO", "Source_Provenance": "Synthetic borehole interval generated to match GeoVault demonstration corpus" }, "geometry": { "type": "Point", "coordinates": [ 82.547744, 22.297021 ] } },
{ "type": "Feature", "properties": { "Borehole_ID": "DIPKA-BH-007", "Mine_ID": "M-DIPKA", "Mine_Code": "DIPKA", "Mine_Name": "Dipka OCP", "Interval_No": 3, "From_Depth_m": 41.06, "To_Depth_m": 61.59, "Thickness_m": 20.53, "Lithology": "Siltstone", "Stratigraphic_Unit": "Underlying sedimentary sequence", "Coal_Bearing": "NO", "Coal_Seam": "", "Weathering_Class": "Fresh", "Sample_ID": "DIPKA-007-S03", "Data_Type": "SYNTHETIC_DEMO", "Source_Provenance": "Synthetic borehole interval generated to match GeoVault demonstration corpus" }, "geometry": { "type": "Point", "coordinates": [ 82.547744, 22.297021 ] } },
{ "type": "Feature", "properties": { "Borehole_ID": "DIPKA-BH-007", "Mine_ID": "M-DIPKA", "Mine_Code": "DIPKA", "Mine_Name": "Dipka OCP", "Interval_No": 4, "From_Depth_m": 61.59, "To_Depth_m": 82.12, "Thickness_m": 20.53, "Lithology": "Siltstone", "Stratigraphic_Unit": "Underlying sedimentary sequence", "Coal_Bearing": "NO", "Coal_Seam": "", "Weathering_Class": "Fresh", "Sample_ID": "DIPKA-007-S04", "Data_Type": "SYNTHETIC_DEMO", "Source_Provenance": "Synthetic borehole interval generated to match GeoVault demonstration corpus" }, "geometry": { "type": "Point", "coordinates": [ 82.547744, 22.297021 ] } },
{ "type": "Feature", "properties": { "Borehole_ID": "DIPKA-BH-007", "Mine_ID": "M-DIPKA", "Mine_Code": "DIPKA", "Mine_Name": "Dipka OCP", "Interval_No": 5, "From_Depth_m": 82.12, "To_Depth_m": 102.65, "Thickness_m": 20.53, "Lithology": "Mudstone", "Stratigraphic_Unit": "Overburden", "Coal_Bearing": "NO", "Coal_Seam": "", "Weathering_Class": "Fresh", "Sample_ID": "DIPKA-007-S05", "Data_Type": "SYNTHETIC_DEMO", "Source_Provenance": "Synthetic borehole interval generated to match GeoVault demonstration corpus" }, "geometry": { "type": "Point", "coordinates": [ 82.547744, 22.297021 ] } },
{ "type": "Feature", "properties": { "Borehole_ID": "DIPKA-BH-007", "Mine_ID": "M-DIPKA", "Mine_Code": "DIPKA", "Mine_Name": "Dipka OCP", "Interval_No": 6, "From_Depth_m": 102.65, "To_Depth_m": 123.18, "Thickness_m": 20.53, "Lithology": "Carbonaceous Shale", "Stratigraphic_Unit": "Overburden", "Coal_Bearing": "NO", "Coal_Seam": "", "Weathering_Class": "Fresh", "Sample_ID": "DIPKA-007-S06", "Data_Type": "SYNTHETIC_DEMO", "Source_Provenance": "Synthetic borehole interval generated to match GeoVault demonstration corpus" }, "geometry": { "type": "Point", "coordinates": [ 82.547744, 22.297021 ] } },
{ "type": "Feature", "properties": { "Borehole_ID": "DIPKA-BH-007", "Mine_ID": "M-DIPKA", "Mine_Code": "DIPKA", "Mine_Name": "Dipka OCP", "Interval_No": 7, "From_Depth_m": 123.18, "To_Depth_m": 143.71, "Thickness_m": 20.53, "Lithology": "Coal", "Stratigraphic_Unit": "Underlying sedimentary sequence", "Coal_Bearing": "YES", "Coal_Seam": "GV-DIP-S4", "Weathering_Class": "Fresh", "Sample_ID": "DIPKA-007-S07", "Data_Type": "SYNTHETIC_DEMO", "Source_Provenance": "Synthetic borehole interval generated to match GeoVault demonstration corpus" }, "geometry": { "type": "Point", "coordinates": [ 82.547744, 22.297021 ] } },
{ "type": "Feature", "properties": { "Borehole_ID": "DIPKA-BH-007", "Mine_ID": "M-DIPKA", "Mine_Code": "DIPKA", "Mine_Name": "Dipka OCP", "Interval_No": 8, "From_Depth_m": 143.71, "To_Depth_m": 164.24, "Thickness_m": 20.53, "Lithology": "Siltstone", "Stratigraphic_Unit": "Coal-bearing sequence", "Coal_Bearing": "NO", "Coal_Seam": "", "Weathering_Class": "Fresh", "Sample_ID": "DIPKA-007-S08", "Data_Type": "SYNTHETIC_DEMO", "Source_Provenance": "Synthetic borehole interval generated to match GeoVault demonstration corpus" }, "geometry": { "type": "Point", "coordinates": [ 82.547744, 22.297021 ] } },
{ "type": "Feature", "properties": { "Borehole_ID": "DIPKA-BH-007", "Mine_ID": "M-DIPKA", "Mine_Code": "DIPKA", "Mine_Name": "Dipka OCP", "Interval_No": 9, "From_Depth_m": 164.24, "To_Depth_m": 184.77, "Thickness_m": 20.53, "Lithology": "Sandstone", "Stratigraphic_Unit": "Overburden", "Coal_Bearing": "NO", "Coal_Seam": "", "Weathering_Class": "Fresh", "Sample_ID": "DIPKA-007-S09", "Data_Type": "SYNTHETIC_DEMO", "Source_Provenance": "Synthetic borehole interval generated to match GeoVault demonstration corpus" }, "geometry": { "type": "Point", "coordinates": [ 82.547744, 22.297021 ] } },
{ "type": "Feature", "properties": { "Borehole_ID": "DIPKA-BH-007", "Mine_ID": "M-DIPKA", "Mine_Code": "DIPKA", "Mine_Name": "Dipka OCP", "Interval_No": 10, "From_Depth_m": 184.77, "To_Depth_m": 205.3, "Thickness_m": 20.53, "Lithology": "Shale", "Stratigraphic_Unit": "Overburden", "Coal_Bearing": "NO", "Coal_Seam": "", "Weathering_Class": "Fresh", "Sample_ID": "DIPKA-007-S10", "Data_Type": "SYNTHETIC_DEMO", "Source_Provenance": "Synthetic borehole interval generated to match GeoVault demonstration corpus" }, "geometry": { "type": "Point", "coordinates": [ 82.547744, 22.297021 ] } },
{ "type": "Feature", "properties": { "Borehole_ID": "DIPKA-BH-008", "Mine_ID": "M-DIPKA", "Mine_Code": "DIPKA", "Mine_Name": "Dipka OCP", "Interval_No": 1, "From_Depth_m": 0.0, "To_Depth_m": 15.01, "Thickness_m": 15.01, "Lithology": "Siltstone", "Stratigraphic_Unit": "Overburden", "Coal_Bearing": "NO", "Coal_Seam": "", "Weathering_Class": "Slight", "Sample_ID": "DIPKA-008-S01", "Data_Type": "SYNTHETIC_DEMO", "Source_Provenance": "Synthetic borehole interval generated to match GeoVault demonstration corpus" }, "geometry": { "type": "Point", "coordinates": [ 82.51136, 22.330242 ] } },
{ "type": "Feature", "properties": { "Borehole_ID": "DIPKA-BH-008", "Mine_ID": "M-DIPKA", "Mine_Code": "DIPKA", "Mine_Name": "Dipka OCP", "Interval_No": 2, "From_Depth_m": 15.01, "To_Depth_m": 30.02, "Thickness_m": 15.01, "Lithology": "Mudstone", "Stratigraphic_Unit": "Underlying sedimentary sequence", "Coal_Bearing": "NO", "Coal_Seam": "", "Weathering_Class": "Moderate", "Sample_ID": "DIPKA-008-S02", "Data_Type": "SYNTHETIC_DEMO", "Source_Provenance": "Synthetic borehole interval generated to match GeoVault demonstration corpus" }, "geometry": { "type": "Point", "coordinates": [ 82.51136, 22.330242 ] } },
{ "type": "Feature", "properties": { "Borehole_ID": "DIPKA-BH-008", "Mine_ID": "M-DIPKA", "Mine_Code": "DIPKA", "Mine_Name": "Dipka OCP", "Interval_No": 3, "From_Depth_m": 30.02, "To_Depth_m": 45.03, "Thickness_m": 15.01, "Lithology": "Shale", "Stratigraphic_Unit": "Underlying sedimentary sequence", "Coal_Bearing": "NO", "Coal_Seam": "", "Weathering_Class": "Fresh", "Sample_ID": "DIPKA-008-S03", "Data_Type": "SYNTHETIC_DEMO", "Source_Provenance": "Synthetic borehole interval generated to match GeoVault demonstration corpus" }, "geometry": { "type": "Point", "coordinates": [ 82.51136, 22.330242 ] } },
{ "type": "Feature", "properties": { "Borehole_ID": "DIPKA-BH-008", "Mine_ID": "M-DIPKA", "Mine_Code": "DIPKA", "Mine_Name": "Dipka OCP", "Interval_No": 4, "From_Depth_m": 45.03, "To_Depth_m": 60.04, "Thickness_m": 15.01, "Lithology": "Carbonaceous Shale", "Stratigraphic_Unit": "Underlying sedimentary sequence", "Coal_Bearing": "NO", "Coal_Seam": "", "Weathering_Class": "Fresh", "Sample_ID": "DIPKA-008-S04", "Data_Type": "SYNTHETIC_DEMO", "Source_Provenance": "Synthetic borehole interval generated to match GeoVault demonstration corpus" }, "geometry": { "type": "Point", "coordinates": [ 82.51136, 22.330242 ] } },
{ "type": "Feature", "properties": { "Borehole_ID": "DIPKA-BH-008", "Mine_ID": "M-DIPKA", "Mine_Code": "DIPKA", "Mine_Name": "Dipka OCP", "Interval_No": 5, "From_Depth_m": 60.04, "To_Depth_m": 75.05, "Thickness_m": 15.01, "Lithology": "Coal", "Stratigraphic_Unit": "Overburden", "Coal_Bearing": "YES", "Coal_Seam": "GV-DIP-S2", "Weathering_Class": "Fresh", "Sample_ID": "DIPKA-008-S05", "Data_Type": "SYNTHETIC_DEMO", "Source_Provenance": "Synthetic borehole interval generated to match GeoVault demonstration corpus" }, "geometry": { "type": "Point", "coordinates": [ 82.51136, 22.330242 ] } },
{ "type": "Feature", "properties": { "Borehole_ID": "DIPKA-BH-008", "Mine_ID": "M-DIPKA", "Mine_Code": "DIPKA", "Mine_Name": "Dipka OCP", "Interval_No": 6, "From_Depth_m": 75.05, "To_Depth_m": 90.06, "Thickness_m": 15.01, "Lithology": "Mudstone", "Stratigraphic_Unit": "Coal-bearing sequence", "Coal_Bearing": "NO", "Coal_Seam": "", "Weathering_Class": "Fresh", "Sample_ID": "DIPKA-008-S06", "Data_Type": "SYNTHETIC_DEMO", "Source_Provenance": "Synthetic borehole interval generated to match GeoVault demonstration corpus" }, "geometry": { "type": "Point", "coordinates": [ 82.51136, 22.330242 ] } },
{ "type": "Feature", "properties": { "Borehole_ID": "DIPKA-BH-008", "Mine_ID": "M-DIPKA", "Mine_Code": "DIPKA", "Mine_Name": "Dipka OCP", "Interval_No": 7, "From_Depth_m": 90.06, "To_Depth_m": 105.07, "Thickness_m": 15.01, "Lithology": "Mudstone", "Stratigraphic_Unit": "Coal-bearing sequence", "Coal_Bearing": "NO", "Coal_Seam": "", "Weathering_Class": "Fresh", "Sample_ID": "DIPKA-008-S07", "Data_Type": "SYNTHETIC_DEMO", "Source_Provenance": "Synthetic borehole interval generated to match GeoVault demonstration corpus" }, "geometry": { "type": "Point", "coordinates": [ 82.51136, 22.330242 ] } },
{ "type": "Feature", "properties": { "Borehole_ID": "DIPKA-BH-008", "Mine_ID": "M-DIPKA", "Mine_Code": "DIPKA", "Mine_Name": "Dipka OCP", "Interval_No": 8, "From_Depth_m": 105.07, "To_Depth_m": 120.08, "Thickness_m": 15.01, "Lithology": "Siltstone", "Stratigraphic_Unit": "Overburden", "Coal_Bearing": "NO", "Coal_Seam": "", "Weathering_Class": "Fresh", "Sample_ID": "DIPKA-008-S08", "Data_Type": "SYNTHETIC_DEMO", "Source_Provenance": "Synthetic borehole interval generated to match GeoVault demonstration corpus" }, "geometry": { "type": "Point", "coordinates": [ 82.51136, 22.330242 ] } },
{ "type": "Feature", "properties": { "Borehole_ID": "DIPKA-BH-008", "Mine_ID": "M-DIPKA", "Mine_Code": "DIPKA", "Mine_Name": "Dipka OCP", "Interval_No": 9, "From_Depth_m": 120.08, "To_Depth_m": 135.09, "Thickness_m": 15.01, "Lithology": "Shale", "Stratigraphic_Unit": "Coal-bearing sequence", "Coal_Bearing": "NO", "Coal_Seam": "", "Weathering_Class": "Fresh", "Sample_ID": "DIPKA-008-S09", "Data_Type": "SYNTHETIC_DEMO", "Source_Provenance": "Synthetic borehole interval generated to match GeoVault demonstration corpus" }, "geometry": { "type": "Point", "coordinates": [ 82.51136, 22.330242 ] } },
{ "type": "Feature", "properties": { "Borehole_ID": "DIPKA-BH-008", "Mine_ID": "M-DIPKA", "Mine_Code": "DIPKA", "Mine_Name": "Dipka OCP", "Interval_No": 10, "From_Depth_m": 135.09, "To_Depth_m": 150.1, "Thickness_m": 15.01, "Lithology": "Mudstone", "Stratigraphic_Unit": "Underlying sedimentary sequence", "Coal_Bearing": "NO", "Coal_Seam": "", "Weathering_Class": "Fresh", "Sample_ID": "DIPKA-008-S10", "Data_Type": "SYNTHETIC_DEMO", "Source_Provenance": "Synthetic borehole interval generated to match GeoVault demonstration corpus" }, "geometry": { "type": "Point", "coordinates": [ 82.51136, 22.330242 ] } },
{ "type": "Feature", "properties": { "Borehole_ID": "DIPKA-BH-009", "Mine_ID": "M-DIPKA", "Mine_Code": "DIPKA", "Mine_Name": "Dipka OCP", "Interval_No": 1, "From_Depth_m": 0.0, "To_Depth_m": 17.3, "Thickness_m": 17.3, "Lithology": "Siltstone", "Stratigraphic_Unit": "Underlying sedimentary sequence", "Coal_Bearing": "NO", "Coal_Seam": "", "Weathering_Class": "Slight", "Sample_ID": "DIPKA-009-S01", "Data_Type": "SYNTHETIC_DEMO", "Source_Provenance": "Synthetic borehole interval generated to match GeoVault demonstration corpus" }, "geometry": { "type": "Point", "coordinates": [ 82.560431, 22.321697 ] } },
{ "type": "Feature", "properties": { "Borehole_ID": "DIPKA-BH-009", "Mine_ID": "M-DIPKA", "Mine_Code": "DIPKA", "Mine_Name": "Dipka OCP", "Interval_No": 2, "From_Depth_m": 17.3, "To_Depth_m": 34.6, "Thickness_m": 17.3, "Lithology": "Mudstone", "Stratigraphic_Unit": "Overburden", "Coal_Bearing": "NO", "Coal_Seam": "", "Weathering_Class": "Moderate", "Sample_ID": "DIPKA-009-S02", "Data_Type": "SYNTHETIC_DEMO", "Source_Provenance": "Synthetic borehole interval generated to match GeoVault demonstration corpus" }, "geometry": { "type": "Point", "coordinates": [ 82.560431, 22.321697 ] } },
{ "type": "Feature", "properties": { "Borehole_ID": "DIPKA-BH-009", "Mine_ID": "M-DIPKA", "Mine_Code": "DIPKA", "Mine_Name": "Dipka OCP", "Interval_No": 3, "From_Depth_m": 34.6, "To_Depth_m": 51.9, "Thickness_m": 17.3, "Lithology": "Carbonaceous Shale", "Stratigraphic_Unit": "Coal-bearing sequence", "Coal_Bearing": "NO", "Coal_Seam": "", "Weathering_Class": "Fresh", "Sample_ID": "DIPKA-009-S03", "Data_Type": "SYNTHETIC_DEMO", "Source_Provenance": "Synthetic borehole interval generated to match GeoVault demonstration corpus" }, "geometry": { "type": "Point", "coordinates": [ 82.560431, 22.321697 ] } },
{ "type": "Feature", "properties": { "Borehole_ID": "DIPKA-BH-009", "Mine_ID": "M-DIPKA", "Mine_Code": "DIPKA", "Mine_Name": "Dipka OCP", "Interval_No": 4, "From_Depth_m": 51.9, "To_Depth_m": 69.2, "Thickness_m": 17.3, "Lithology": "Coal", "Stratigraphic_Unit": "Coal-bearing sequence", "Coal_Bearing": "YES", "Coal_Seam": "GV-DIP-S4", "Weathering_Class": "Fresh", "Sample_ID": "DIPKA-009-S04", "Data_Type": "SYNTHETIC_DEMO", "Source_Provenance": "Synthetic borehole interval generated to match GeoVault demonstration corpus" }, "geometry": { "type": "Point", "coordinates": [ 82.560431, 22.321697 ] } },
{ "type": "Feature", "properties": { "Borehole_ID": "DIPKA-BH-009", "Mine_ID": "M-DIPKA", "Mine_Code": "DIPKA", "Mine_Name": "Dipka OCP", "Interval_No": 5, "From_Depth_m": 69.2, "To_Depth_m": 86.5, "Thickness_m": 17.3, "Lithology": "Sandstone", "Stratigraphic_Unit": "Underlying sedimentary sequence", "Coal_Bearing": "NO", "Coal_Seam": "", "Weathering_Class": "Fresh", "Sample_ID": "DIPKA-009-S05", "Data_Type": "SYNTHETIC_DEMO", "Source_Provenance": "Synthetic borehole interval generated to match GeoVault demonstration corpus" }, "geometry": { "type": "Point", "coordinates": [ 82.560431, 22.321697 ] } },
{ "type": "Feature", "properties": { "Borehole_ID": "DIPKA-BH-009", "Mine_ID": "M-DIPKA", "Mine_Code": "DIPKA", "Mine_Name": "Dipka OCP", "Interval_No": 6, "From_Depth_m": 86.5, "To_Depth_m": 103.8, "Thickness_m": 17.3, "Lithology": "Interbedded Sandstone-Shale", "Stratigraphic_Unit": "Overburden", "Coal_Bearing": "NO", "Coal_Seam": "", "Weathering_Class": "Fresh", "Sample_ID": "DIPKA-009-S06", "Data_Type": "SYNTHETIC_DEMO", "Source_Provenance": "Synthetic borehole interval generated to match GeoVault demonstration corpus" }, "geometry": { "type": "Point", "coordinates": [ 82.560431, 22.321697 ] } },
{ "type": "Feature", "properties": { "Borehole_ID": "DIPKA-BH-009", "Mine_ID": "M-DIPKA", "Mine_Code": "DIPKA", "Mine_Name": "Dipka OCP", "Interval_No": 7, "From_Depth_m": 103.8, "To_Depth_m": 121.1, "Thickness_m": 17.3, "Lithology": "Interbedded Sandstone-Shale", "Stratigraphic_Unit": "Underlying sedimentary sequence", "Coal_Bearing": "NO", "Coal_Seam": "", "Weathering_Class": "Fresh", "Sample_ID": "DIPKA-009-S07", "Data_Type": "SYNTHETIC_DEMO", "Source_Provenance": "Synthetic borehole interval generated to match GeoVault demonstration corpus" }, "geometry": { "type": "Point", "coordinates": [ 82.560431, 22.321697 ] } },
{ "type": "Feature", "properties": { "Borehole_ID": "DIPKA-BH-009", "Mine_ID": "M-DIPKA", "Mine_Code": "DIPKA", "Mine_Name": "Dipka OCP", "Interval_No": 8, "From_Depth_m": 121.1, "To_Depth_m": 138.4, "Thickness_m": 17.3, "Lithology": "Mudstone", "Stratigraphic_Unit": "Overburden", "Coal_Bearing": "NO", "Coal_Seam": "", "Weathering_Class": "Fresh", "Sample_ID": "DIPKA-009-S08", "Data_Type": "SYNTHETIC_DEMO", "Source_Provenance": "Synthetic borehole interval generated to match GeoVault demonstration corpus" }, "geometry": { "type": "Point", "coordinates": [ 82.560431, 22.321697 ] } },
{ "type": "Feature", "properties": { "Borehole_ID": "DIPKA-BH-009", "Mine_ID": "M-DIPKA", "Mine_Code": "DIPKA", "Mine_Name": "Dipka OCP", "Interval_No": 9, "From_Depth_m": 138.4, "To_Depth_m": 155.7, "Thickness_m": 17.3, "Lithology": "Shale", "Stratigraphic_Unit": "Coal-bearing sequence", "Coal_Bearing": "NO", "Coal_Seam": "", "Weathering_Class": "Fresh", "Sample_ID": "DIPKA-009-S09", "Data_Type": "SYNTHETIC_DEMO", "Source_Provenance": "Synthetic borehole interval generated to match GeoVault demonstration corpus" }, "geometry": { "type": "Point", "coordinates": [ 82.560431, 22.321697 ] } },
{ "type": "Feature", "properties": { "Borehole_ID": "DIPKA-BH-009", "Mine_ID": "M-DIPKA", "Mine_Code": "DIPKA", "Mine_Name": "Dipka OCP", "Interval_No": 10, "From_Depth_m": 155.7, "To_Depth_m": 173.0, "Thickness_m": 17.3, "Lithology": "Interbedded Sandstone-Shale", "Stratigraphic_Unit": "Underlying sedimentary sequence", "Coal_Bearing": "NO", "Coal_Seam": "", "Weathering_Class": "Fresh", "Sample_ID": "DIPKA-009-S10", "Data_Type": "SYNTHETIC_DEMO", "Source_Provenance": "Synthetic borehole interval generated to match GeoVault demonstration corpus" }, "geometry": { "type": "Point", "coordinates": [ 82.560431, 22.321697 ] } },
{ "type": "Feature", "properties": { "Borehole_ID": "DIPKA-BH-010", "Mine_ID": "M-DIPKA", "Mine_Code": "DIPKA", "Mine_Name": "Dipka OCP", "Interval_No": 1, "From_Depth_m": 0.0, "To_Depth_m": 14.01, "Thickness_m": 14.01, "Lithology": "Mudstone", "Stratigraphic_Unit": "Overburden", "Coal_Bearing": "NO", "Coal_Seam": "", "Weathering_Class": "Slight", "Sample_ID": "DIPKA-010-S01", "Data_Type": "SYNTHETIC_DEMO", "Source_Provenance": "Synthetic borehole interval generated to match GeoVault demonstration corpus" }, "geometry": { "type": "Point", "coordinates": [ 82.554109, 22.314936 ] } },
{ "type": "Feature", "properties": { "Borehole_ID": "DIPKA-BH-010", "Mine_ID": "M-DIPKA", "Mine_Code": "DIPKA", "Mine_Name": "Dipka OCP", "Interval_No": 2, "From_Depth_m": 14.01, "To_Depth_m": 28.02, "Thickness_m": 14.01, "Lithology": "Siltstone", "Stratigraphic_Unit": "Barakar-equivalent demo unit", "Coal_Bearing": "NO", "Coal_Seam": "", "Weathering_Class": "Moderate", "Sample_ID": "DIPKA-010-S02", "Data_Type": "SYNTHETIC_DEMO", "Source_Provenance": "Synthetic borehole interval generated to match GeoVault demonstration corpus" }, "geometry": { "type": "Point", "coordinates": [ 82.554109, 22.314936 ] } },
{ "type": "Feature", "properties": { "Borehole_ID": "DIPKA-BH-010", "Mine_ID": "M-DIPKA", "Mine_Code": "DIPKA", "Mine_Name": "Dipka OCP", "Interval_No": 3, "From_Depth_m": 28.02, "To_Depth_m": 42.03, "Thickness_m": 14.01, "Lithology": "Mudstone", "Stratigraphic_Unit": "Underlying sedimentary sequence", "Coal_Bearing": "NO", "Coal_Seam": "", "Weathering_Class": "Fresh", "Sample_ID": "DIPKA-010-S03", "Data_Type": "SYNTHETIC_DEMO", "Source_Provenance": "Synthetic borehole interval generated to match GeoVault demonstration corpus" }, "geometry": { "type": "Point", "coordinates": [ 82.554109, 22.314936 ] } },
{ "type": "Feature", "properties": { "Borehole_ID": "DIPKA-BH-010", "Mine_ID": "M-DIPKA", "Mine_Code": "DIPKA", "Mine_Name": "Dipka OCP", "Interval_No": 4, "From_Depth_m": 42.03, "To_Depth_m": 56.04, "Thickness_m": 14.01, "Lithology": "Sandstone", "Stratigraphic_Unit": "Overburden", "Coal_Bearing": "NO", "Coal_Seam": "", "Weathering_Class": "Fresh", "Sample_ID": "DIPKA-010-S04", "Data_Type": "SYNTHETIC_DEMO", "Source_Provenance": "Synthetic borehole interval generated to match GeoVault demonstration corpus" }, "geometry": { "type": "Point", "coordinates": [ 82.554109, 22.314936 ] } },
{ "type": "Feature", "properties": { "Borehole_ID": "DIPKA-BH-010", "Mine_ID": "M-DIPKA", "Mine_Code": "DIPKA", "Mine_Name": "Dipka OCP", "Interval_No": 5, "From_Depth_m": 56.04, "To_Depth_m": 70.05, "Thickness_m": 14.01, "Lithology": "Interbedded Sandstone-Shale", "Stratigraphic_Unit": "Barakar-equivalent demo unit", "Coal_Bearing": "NO", "Coal_Seam": "", "Weathering_Class": "Fresh", "Sample_ID": "DIPKA-010-S05", "Data_Type": "SYNTHETIC_DEMO", "Source_Provenance": "Synthetic borehole interval generated to match GeoVault demonstration corpus" }, "geometry": { "type": "Point", "coordinates": [ 82.554109, 22.314936 ] } },
{ "type": "Feature", "properties": { "Borehole_ID": "DIPKA-BH-010", "Mine_ID": "M-DIPKA", "Mine_Code": "DIPKA", "Mine_Name": "Dipka OCP", "Interval_No": 6, "From_Depth_m": 70.05, "To_Depth_m": 84.06, "Thickness_m": 14.01, "Lithology": "Carbonaceous Shale", "Stratigraphic_Unit": "Barakar-equivalent demo unit", "Coal_Bearing": "NO", "Coal_Seam": "", "Weathering_Class": "Fresh", "Sample_ID": "DIPKA-010-S06", "Data_Type": "SYNTHETIC_DEMO", "Source_Provenance": "Synthetic borehole interval generated to match GeoVault demonstration corpus" }, "geometry": { "type": "Point", "coordinates": [ 82.554109, 22.314936 ] } },
{ "type": "Feature", "properties": { "Borehole_ID": "DIPKA-BH-010", "Mine_ID": "M-DIPKA", "Mine_Code": "DIPKA", "Mine_Name": "Dipka OCP", "Interval_No": 7, "From_Depth_m": 84.06, "To_Depth_m": 98.07, "Thickness_m": 14.01, "Lithology": "Coal", "Stratigraphic_Unit": "Coal-bearing sequence", "Coal_Bearing": "YES", "Coal_Seam": "GV-DIP-S4", "Weathering_Class": "Fresh", "Sample_ID": "DIPKA-010-S07", "Data_Type": "SYNTHETIC_DEMO", "Source_Provenance": "Synthetic borehole interval generated to match GeoVault demonstration corpus" }, "geometry": { "type": "Point", "coordinates": [ 82.554109, 22.314936 ] } },
{ "type": "Feature", "properties": { "Borehole_ID": "DIPKA-BH-010", "Mine_ID": "M-DIPKA", "Mine_Code": "DIPKA", "Mine_Name": "Dipka OCP", "Interval_No": 8, "From_Depth_m": 98.07, "To_Depth_m": 112.08, "Thickness_m": 14.01, "Lithology": "Interbedded Sandstone-Shale", "Stratigraphic_Unit": "Overburden", "Coal_Bearing": "NO", "Coal_Seam": "", "Weathering_Class": "Fresh", "Sample_ID": "DIPKA-010-S08", "Data_Type": "SYNTHETIC_DEMO", "Source_Provenance": "Synthetic borehole interval generated to match GeoVault demonstration corpus" }, "geometry": { "type": "Point", "coordinates": [ 82.554109, 22.314936 ] } },
{ "type": "Feature", "properties": { "Borehole_ID": "DIPKA-BH-010", "Mine_ID": "M-DIPKA", "Mine_Code": "DIPKA", "Mine_Name": "Dipka OCP", "Interval_No": 9, "From_Depth_m": 112.08, "To_Depth_m": 126.09, "Thickness_m": 14.01, "Lithology": "Interbedded Sandstone-Shale", "Stratigraphic_Unit": "Underlying sedimentary sequence", "Coal_Bearing": "NO", "Coal_Seam": "", "Weathering_Class": "Fresh", "Sample_ID": "DIPKA-010-S09", "Data_Type": "SYNTHETIC_DEMO", "Source_Provenance": "Synthetic borehole interval generated to match GeoVault demonstration corpus" }, "geometry": { "type": "Point", "coordinates": [ 82.554109, 22.314936 ] } },
{ "type": "Feature", "properties": { "Borehole_ID": "DIPKA-BH-010", "Mine_ID": "M-DIPKA", "Mine_Code": "DIPKA", "Mine_Name": "Dipka OCP", "Interval_No": 10, "From_Depth_m": 126.09, "To_Depth_m": 140.1, "Thickness_m": 14.01, "Lithology": "Sandstone", "Stratigraphic_Unit": "Barakar-equivalent demo unit", "Coal_Bearing": "NO", "Coal_Seam": "", "Weathering_Class": "Fresh", "Sample_ID": "DIPKA-010-S10", "Data_Type": "SYNTHETIC_DEMO", "Source_Provenance": "Synthetic borehole interval generated to match GeoVault demonstration corpus" }, "geometry": { "type": "Point", "coordinates": [ 82.554109, 22.314936 ] } },
{ "type": "Feature", "properties": { "Borehole_ID": "DIPKA-BH-011", "Mine_ID": "M-DIPKA", "Mine_Code": "DIPKA", "Mine_Name": "Dipka OCP", "Interval_No": 1, "From_Depth_m": 0.0, "To_Depth_m": 9.82, "Thickness_m": 9.82, "Lithology": "Sandstone", "Stratigraphic_Unit": "Underlying sedimentary sequence", "Coal_Bearing": "NO", "Coal_Seam": "", "Weathering_Class": "Slight", "Sample_ID": "DIPKA-011-S01", "Data_Type": "SYNTHETIC_DEMO", "Source_Provenance": "Synthetic borehole interval generated to match GeoVault demonstration corpus" }, "geometry": { "type": "Point", "coordinates": [ 82.537869, 22.330122 ] } },
{ "type": "Feature", "properties": { "Borehole_ID": "DIPKA-BH-011", "Mine_ID": "M-DIPKA", "Mine_Code": "DIPKA", "Mine_Name": "Dipka OCP", "Interval_No": 2, "From_Depth_m": 9.82, "To_Depth_m": 19.64, "Thickness_m": 9.82, "Lithology": "Shale", "Stratigraphic_Unit": "Underlying sedimentary sequence", "Coal_Bearing": "NO", "Coal_Seam": "", "Weathering_Class": "Moderate", "Sample_ID": "DIPKA-011-S02", "Data_Type": "SYNTHETIC_DEMO", "Source_Provenance": "Synthetic borehole interval generated to match GeoVault demonstration corpus" }, "geometry": { "type": "Point", "coordinates": [ 82.537869, 22.330122 ] } },
{ "type": "Feature", "properties": { "Borehole_ID": "DIPKA-BH-011", "Mine_ID": "M-DIPKA", "Mine_Code": "DIPKA", "Mine_Name": "Dipka OCP", "Interval_No": 3, "From_Depth_m": 19.64, "To_Depth_m": 29.46, "Thickness_m": 9.82, "Lithology": "Interbedded Sandstone-Shale", "Stratigraphic_Unit": "Coal-bearing sequence", "Coal_Bearing": "NO", "Coal_Seam": "", "Weathering_Class": "Moderate", "Sample_ID": "DIPKA-011-S03", "Data_Type": "SYNTHETIC_DEMO", "Source_Provenance": "Synthetic borehole interval generated to match GeoVault demonstration corpus" }, "geometry": { "type": "Point", "coordinates": [ 82.537869, 22.330122 ] } },
{ "type": "Feature", "properties": { "Borehole_ID": "DIPKA-BH-011", "Mine_ID": "M-DIPKA", "Mine_Code": "DIPKA", "Mine_Name": "Dipka OCP", "Interval_No": 4, "From_Depth_m": 29.46, "To_Depth_m": 39.28, "Thickness_m": 9.82, "Lithology": "Mudstone", "Stratigraphic_Unit": "Underlying sedimentary sequence", "Coal_Bearing": "NO", "Coal_Seam": "", "Weathering_Class": "Fresh", "Sample_ID": "DIPKA-011-S04", "Data_Type": "SYNTHETIC_DEMO", "Source_Provenance": "Synthetic borehole interval generated to match GeoVault demonstration corpus" }, "geometry": { "type": "Point", "coordinates": [ 82.537869, 22.330122 ] } },
{ "type": "Feature", "properties": { "Borehole_ID": "DIPKA-BH-011", "Mine_ID": "M-DIPKA", "Mine_Code": "DIPKA", "Mine_Name": "Dipka OCP", "Interval_No": 5, "From_Depth_m": 39.28, "To_Depth_m": 49.1, "Thickness_m": 9.82, "Lithology": "Shale", "Stratigraphic_Unit": "Underlying sedimentary sequence", "Coal_Bearing": "NO", "Coal_Seam": "", "Weathering_Class": "Fresh", "Sample_ID": "DIPKA-011-S05", "Data_Type": "SYNTHETIC_DEMO", "Source_Provenance": "Synthetic borehole interval generated to match GeoVault demonstration corpus" }, "geometry": { "type": "Point", "coordinates": [ 82.537869, 22.330122 ] } },
{ "type": "Feature", "properties": { "Borehole_ID": "DIPKA-BH-011", "Mine_ID": "M-DIPKA", "Mine_Code": "DIPKA", "Mine_Name": "Dipka OCP", "Interval_No": 6, "From_Depth_m": 49.1, "To_Depth_m": 58.92, "Thickness_m": 9.82, "Lithology": "Interbedded Sandstone-Shale", "Stratigraphic_Unit": "Barakar-equivalent demo unit", "Coal_Bearing": "NO", "Coal_Seam": "", "Weathering_Class": "Fresh", "Sample_ID": "DIPKA-011-S06", "Data_Type": "SYNTHETIC_DEMO", "Source_Provenance": "Synthetic borehole interval generated to match GeoVault demonstration corpus" }, "geometry": { "type": "Point", "coordinates": [ 82.537869, 22.330122 ] } },
{ "type": "Feature", "properties": { "Borehole_ID": "DIPKA-BH-011", "Mine_ID": "M-DIPKA", "Mine_Code": "DIPKA", "Mine_Name": "Dipka OCP", "Interval_No": 7, "From_Depth_m": 58.92, "To_Depth_m": 68.74, "Thickness_m": 9.82, "Lithology": "Carbonaceous Shale", "Stratigraphic_Unit": "Underlying sedimentary sequence", "Coal_Bearing": "NO", "Coal_Seam": "", "Weathering_Class": "Fresh", "Sample_ID": "DIPKA-011-S07", "Data_Type": "SYNTHETIC_DEMO", "Source_Provenance": "Synthetic borehole interval generated to match GeoVault demonstration corpus" }, "geometry": { "type": "Point", "coordinates": [ 82.537869, 22.330122 ] } },
{ "type": "Feature", "properties": { "Borehole_ID": "DIPKA-BH-011", "Mine_ID": "M-DIPKA", "Mine_Code": "DIPKA", "Mine_Name": "Dipka OCP", "Interval_No": 8, "From_Depth_m": 68.74, "To_Depth_m": 78.56, "Thickness_m": 9.82, "Lithology": "Coal", "Stratigraphic_Unit": "Barakar-equivalent demo unit", "Coal_Bearing": "YES", "Coal_Seam": "GV-DIP-S3", "Weathering_Class": "Fresh", "Sample_ID": "DIPKA-011-S08", "Data_Type": "SYNTHETIC_DEMO", "Source_Provenance": "Synthetic borehole interval generated to match GeoVault demonstration corpus" }, "geometry": { "type": "Point", "coordinates": [ 82.537869, 22.330122 ] } },
{ "type": "Feature", "properties": { "Borehole_ID": "DIPKA-BH-011", "Mine_ID": "M-DIPKA", "Mine_Code": "DIPKA", "Mine_Name": "Dipka OCP", "Interval_No": 9, "From_Depth_m": 78.56, "To_Depth_m": 88.38, "Thickness_m": 9.82, "Lithology": "Interbedded Sandstone-Shale", "Stratigraphic_Unit": "Barakar-equivalent demo unit", "Coal_Bearing": "NO", "Coal_Seam": "", "Weathering_Class": "Fresh", "Sample_ID": "DIPKA-011-S09", "Data_Type": "SYNTHETIC_DEMO", "Source_Provenance": "Synthetic borehole interval generated to match GeoVault demonstration corpus" }, "geometry": { "type": "Point", "coordinates": [ 82.537869, 22.330122 ] } },
{ "type": "Feature", "properties": { "Borehole_ID": "DIPKA-BH-011", "Mine_ID": "M-DIPKA", "Mine_Code": "DIPKA", "Mine_Name": "Dipka OCP", "Interval_No": 10, "From_Depth_m": 88.38, "To_Depth_m": 98.2, "Thickness_m": 9.82, "Lithology": "Sandstone", "Stratigraphic_Unit": "Coal-bearing sequence", "Coal_Bearing": "NO", "Coal_Seam": "", "Weathering_Class": "Fresh", "Sample_ID": "DIPKA-011-S10", "Data_Type": "SYNTHETIC_DEMO", "Source_Provenance": "Synthetic borehole interval generated to match GeoVault demonstration corpus" }, "geometry": { "type": "Point", "coordinates": [ 82.537869, 22.330122 ] } },
{ "type": "Feature", "properties": { "Borehole_ID": "DIPKA-BH-012", "Mine_ID": "M-DIPKA", "Mine_Code": "DIPKA", "Mine_Name": "Dipka OCP", "Interval_No": 1, "From_Depth_m": 0.0, "To_Depth_m": 21.48, "Thickness_m": 21.48, "Lithology": "Mudstone", "Stratigraphic_Unit": "Coal-bearing sequence", "Coal_Bearing": "NO", "Coal_Seam": "", "Weathering_Class": "Moderate", "Sample_ID": "DIPKA-012-S01", "Data_Type": "SYNTHETIC_DEMO", "Source_Provenance": "Synthetic borehole interval generated to match GeoVault demonstration corpus" }, "geometry": { "type": "Point", "coordinates": [ 82.554206, 22.29852 ] } },
{ "type": "Feature", "properties": { "Borehole_ID": "DIPKA-BH-012", "Mine_ID": "M-DIPKA", "Mine_Code": "DIPKA", "Mine_Name": "Dipka OCP", "Interval_No": 2, "From_Depth_m": 21.48, "To_Depth_m": 42.96, "Thickness_m": 21.48, "Lithology": "Sandstone", "Stratigraphic_Unit": "Coal-bearing sequence", "Coal_Bearing": "NO", "Coal_Seam": "", "Weathering_Class": "Moderate", "Sample_ID": "DIPKA-012-S02", "Data_Type": "SYNTHETIC_DEMO", "Source_Provenance": "Synthetic borehole interval generated to match GeoVault demonstration corpus" }, "geometry": { "type": "Point", "coordinates": [ 82.554206, 22.29852 ] } },
{ "type": "Feature", "properties": { "Borehole_ID": "DIPKA-BH-012", "Mine_ID": "M-DIPKA", "Mine_Code": "DIPKA", "Mine_Name": "Dipka OCP", "Interval_No": 3, "From_Depth_m": 42.96, "To_Depth_m": 64.44, "Thickness_m": 21.48, "Lithology": "Interbedded Sandstone-Shale", "Stratigraphic_Unit": "Underlying sedimentary sequence", "Coal_Bearing": "NO", "Coal_Seam": "", "Weathering_Class": "Fresh", "Sample_ID": "DIPKA-012-S03", "Data_Type": "SYNTHETIC_DEMO", "Source_Provenance": "Synthetic borehole interval generated to match GeoVault demonstration corpus" }, "geometry": { "type": "Point", "coordinates": [ 82.554206, 22.29852 ] } },
{ "type": "Feature", "properties": { "Borehole_ID": "DIPKA-BH-012", "Mine_ID": "M-DIPKA", "Mine_Code": "DIPKA", "Mine_Name": "Dipka OCP", "Interval_No": 4, "From_Depth_m": 64.44, "To_Depth_m": 85.92, "Thickness_m": 21.48, "Lithology": "Shale", "Stratigraphic_Unit": "Underlying sedimentary sequence", "Coal_Bearing": "NO", "Coal_Seam": "", "Weathering_Class": "Fresh", "Sample_ID": "DIPKA-012-S04", "Data_Type": "SYNTHETIC_DEMO", "Source_Provenance": "Synthetic borehole interval generated to match GeoVault demonstration corpus" }, "geometry": { "type": "Point", "coordinates": [ 82.554206, 22.29852 ] } },
{ "type": "Feature", "properties": { "Borehole_ID": "DIPKA-BH-012", "Mine_ID": "M-DIPKA", "Mine_Code": "DIPKA", "Mine_Name": "Dipka OCP", "Interval_No": 5, "From_Depth_m": 85.92, "To_Depth_m": 107.4, "Thickness_m": 21.48, "Lithology": "Interbedded Sandstone-Shale", "Stratigraphic_Unit": "Underlying sedimentary sequence", "Coal_Bearing": "NO", "Coal_Seam": "", "Weathering_Class": "Fresh", "Sample_ID": "DIPKA-012-S05", "Data_Type": "SYNTHETIC_DEMO", "Source_Provenance": "Synthetic borehole interval generated to match GeoVault demonstration corpus" }, "geometry": { "type": "Point", "coordinates": [ 82.554206, 22.29852 ] } },
{ "type": "Feature", "properties": { "Borehole_ID": "DIPKA-BH-012", "Mine_ID": "M-DIPKA", "Mine_Code": "DIPKA", "Mine_Name": "Dipka OCP", "Interval_No": 6, "From_Depth_m": 107.4, "To_Depth_m": 128.88, "Thickness_m": 21.48, "Lithology": "Carbonaceous Shale", "Stratigraphic_Unit": "Coal-bearing sequence", "Coal_Bearing": "NO", "Coal_Seam": "", "Weathering_Class": "Fresh", "Sample_ID": "DIPKA-012-S06", "Data_Type": "SYNTHETIC_DEMO", "Source_Provenance": "Synthetic borehole interval generated to match GeoVault demonstration corpus" }, "geometry": { "type": "Point", "coordinates": [ 82.554206, 22.29852 ] } },
{ "type": "Feature", "properties": { "Borehole_ID": "DIPKA-BH-012", "Mine_ID": "M-DIPKA", "Mine_Code": "DIPKA", "Mine_Name": "Dipka OCP", "Interval_No": 7, "From_Depth_m": 128.88, "To_Depth_m": 150.36, "Thickness_m": 21.48, "Lithology": "Coal", "Stratigraphic_Unit": "Coal-bearing sequence", "Coal_Bearing": "YES", "Coal_Seam": "GV-DIP-S2", "Weathering_Class": "Fresh", "Sample_ID": "DIPKA-012-S07", "Data_Type": "SYNTHETIC_DEMO", "Source_Provenance": "Synthetic borehole interval generated to match GeoVault demonstration corpus" }, "geometry": { "type": "Point", "coordinates": [ 82.554206, 22.29852 ] } },
{ "type": "Feature", "properties": { "Borehole_ID": "DIPKA-BH-012", "Mine_ID": "M-DIPKA", "Mine_Code": "DIPKA", "Mine_Name": "Dipka OCP", "Interval_No": 8, "From_Depth_m": 150.36, "To_Depth_m": 171.84, "Thickness_m": 21.48, "Lithology": "Interbedded Sandstone-Shale", "Stratigraphic_Unit": "Underlying sedimentary sequence", "Coal_Bearing": "NO", "Coal_Seam": "", "Weathering_Class": "Fresh", "Sample_ID": "DIPKA-012-S08", "Data_Type": "SYNTHETIC_DEMO", "Source_Provenance": "Synthetic borehole interval generated to match GeoVault demonstration corpus" }, "geometry": { "type": "Point", "coordinates": [ 82.554206, 22.29852 ] } },
{ "type": "Feature", "properties": { "Borehole_ID": "DIPKA-BH-012", "Mine_ID": "M-DIPKA", "Mine_Code": "DIPKA", "Mine_Name": "Dipka OCP", "Interval_No": 9, "From_Depth_m": 171.84, "To_Depth_m": 193.32, "Thickness_m": 21.48, "Lithology": "Mudstone", "Stratigraphic_Unit": "Coal-bearing sequence", "Coal_Bearing": "NO", "Coal_Seam": "", "Weathering_Class": "Fresh", "Sample_ID": "DIPKA-012-S09", "Data_Type": "SYNTHETIC_DEMO", "Source_Provenance": "Synthetic borehole interval generated to match GeoVault demonstration corpus" }, "geometry": { "type": "Point", "coordinates": [ 82.554206, 22.29852 ] } },
{ "type": "Feature", "properties": { "Borehole_ID": "DIPKA-BH-012", "Mine_ID": "M-DIPKA", "Mine_Code": "DIPKA", "Mine_Name": "Dipka OCP", "Interval_No": 10, "From_Depth_m": 193.32, "To_Depth_m": 214.8, "Thickness_m": 21.48, "Lithology": "Shale", "Stratigraphic_Unit": "Barakar-equivalent demo unit", "Coal_Bearing": "NO", "Coal_Seam": "", "Weathering_Class": "Fresh", "Sample_ID": "DIPKA-012-S10", "Data_Type": "SYNTHETIC_DEMO", "Source_Provenance": "Synthetic borehole interval generated to match GeoVault demonstration corpus" }, "geometry": { "type": "Point", "coordinates": [ 82.554206, 22.29852 ] } }
]
}
