{
"type": "FeatureCollection",
"name": "borehole_traces",
"crs": { "type": "name", "properties": { "name": "urn:ogc:def:crs:OGC:1.3:CRS84" } },
"features": [
{ "type": "Feature", "properties": { "Trace_ID": "DIPKA-BH-001-TRACE", "Borehole_ID": "DIPKA-BH-001", "Mine_ID": "M-DIPKA", "Mine_Code": "DIPKA", "Azimuth_deg": 28.4, "Inclination_deg": 87.4, "Total_Depth_m": 149.9, "Data_Type": "SYNTHETIC_DEMO", "Source_Provenance": "Synthetic borehole trace; 2D plan-view representation" }, "geometry": { "type": "LineString", "coordinates": [ [ 82.52091, 22.325916 ], [ 82.525745881071941, 22.328533872276868 ] ] } },
{ "type": "Feature", "properties": { "Trace_ID": "DIPKA-BH-002-TRACE", "Borehole_ID": "DIPKA-BH-002", "Mine_ID": "M-DIPKA", "Mine_Code": "DIPKA", "Azimuth_deg": 223.1, "Inclination_deg": 74.8, "Total_Depth_m": 160.3, "Data_Type": "SYNTHETIC_DEMO", "Source_Provenance": "Synthetic borehole trace; 2D plan-view representation" }, "geometry": { "type": "LineString", "coordinates": [ [ 82.542167, 22.316656 ], [ 82.538075615641702, 22.312827921757247 ] ] } },
{ "type": "Feature", "properties": { "Trace_ID": "DIPKA-BH-003-TRACE", "Borehole_ID": "DIPKA-BH-003", "Mine_ID": "M-DIPKA", "Mine_Code": "DIPKA", "Azimuth_deg": 328.6, "Inclination_deg": 72.9, "Total_Depth_m": 170.7, "Data_Type": "SYNTHETIC_DEMO", "Source_Provenance": "Synthetic borehole trace; 2D plan-view representation" }, "geometry": { "type": "LineString", "coordinates": [ [ 82.565798, 22.32222 ], [ 82.570670171402824, 22.319248166420955 ] ] } },
{ "type": "Feature", "properties": { "Trace_ID": "DIPKA-BH-004-TRACE", "Borehole_ID": "DIPKA-BH-004", "Mine_ID": "M-DIPKA", "Mine_Code": "DIPKA", "Azimuth_deg": 166.0, "Inclination_deg": 75.1, "Total_Depth_m": 230.1, "Data_Type": "SYNTHETIC_DEMO", "Source_Provenance": "Synthetic borehole trace; 2D plan-view representation" }, "geometry": { "type": "LineString", "coordinates": [ [ 82.562701, 22.325141 ], [ 82.55658679517137, 22.326663859255984 ] ] } },
{ "type": "Feature", "properties": { "Trace_ID": "DIPKA-BH-005-TRACE", "Borehole_ID": "DIPKA-BH-005", "Mine_ID": "M-DIPKA", "Mine_Code": "DIPKA", "Azimuth_deg": 91.9, "Inclination_deg": 70.2, "Total_Depth_m": 172.0, "Data_Type": "SYNTHETIC_DEMO", "Source_Provenance": "Synthetic borehole trace; 2D plan-view representation" }, "geometry": { "type": "LineString", "coordinates": [ [ 82.545298, 22.311344 ], [ 82.545106594806342, 22.317060796660002 ] ] } },
{ "type": "Feature", "properties": { "Trace_ID": "DIPKA-BH-006-TRACE", "Borehole_ID": "DIPKA-BH-006", "Mine_ID": "M-DIPKA", "Mine_Code": "DIPKA", "Azimuth_deg": 289.7, "Inclination_deg": 88.0, "Total_Depth_m": 93.6, "Data_Type": "SYNTHETIC_DEMO", "Source_Provenance": "Synthetic borehole trace; 2D plan-view representation" }, "geometry": { "type": "LineString", "coordinates": [ [ 82.549806, 22.326272 ], [ 82.551467299019933, 22.321623970141403 ] ] } },
{ "type": "Feature", "properties": { "Trace_ID": "DIPKA-BH-007-TRACE", "Borehole_ID": "DIPKA-BH-007", "Mine_ID": "M-DIPKA", "Mine_Code": "DIPKA", "Azimuth_deg": 243.9, "Inclination_deg": 73.2, "Total_Depth_m": 205.3, "Data_Type": "SYNTHETIC_DEMO", "Source_Provenance": "Synthetic borehole trace; 2D plan-view representation" }, "geometry": { "type": "LineString", "coordinates": [ [ 82.547744, 22.297021 ], [ 82.545084836029176, 22.291583385083854 ] ] } },
{ "type": "Feature", "properties": { "Trace_ID": "DIPKA-BH-008-TRACE", "Borehole_ID": "DIPKA-BH-008", "Mine_ID": "M-DIPKA", "Mine_Code": "DIPKA", "Azimuth_deg": 159.0, "Inclination_deg": 76.9, "Total_Depth_m": 150.1, "Data_Type": "SYNTHETIC_DEMO", "Source_Provenance": "Synthetic borehole trace; 2D plan-view representation" }, "geometry": { "type": "LineString", "coordinates": [ [ 82.51136, 22.330242 ], [ 82.506223592676037, 22.332211345272512 ] ] } },
{ "type": "Feature", "properties": { "Trace_ID": "DIPKA-BH-009-TRACE", "Borehole_ID": "DIPKA-BH-009", "Mine_ID": "M-DIPKA", "Mine_Code": "DIPKA", "Azimuth_deg": 211.5, "Inclination_deg": 82.8, "Total_Depth_m": 173.0, "Data_Type": "SYNTHETIC_DEMO", "Source_Provenance": "Synthetic borehole trace; 2D plan-view representation" }, "geometry": { "type": "LineString", "coordinates": [ [ 82.560431, 22.321697 ], [ 82.555546721223124, 22.318700882373832 ] ] } },
{ "type": "Feature", "properties": { "Trace_ID": "DIPKA-BH-010-TRACE", "Borehole_ID": "DIPKA-BH-010", "Mine_ID": "M-DIPKA", "Mine_Code": "DIPKA", "Azimuth_deg": 152.8, "Inclination_deg": 75.0, "Total_Depth_m": 140.1, "Data_Type": "SYNTHETIC_DEMO", "Source_Provenance": "Synthetic borehole trace; 2D plan-view representation" }, "geometry": { "type": "LineString", "coordinates": [ [ 82.554109, 22.314936 ], [ 82.549307365855753, 22.317408874955348 ] ] } },
{ "type": "Feature", "properties": { "Trace_ID": "DIPKA-BH-011-TRACE", "Borehole_ID": "DIPKA-BH-011", "Mine_ID": "M-DIPKA", "Mine_Code": "DIPKA", "Azimuth_deg": 304.3, "Inclination_deg": 74.0, "Total_Depth_m": 98.2, "Data_Type": "SYNTHETIC_DEMO", "Source_Provenance": "Synthetic borehole trace; 2D plan-view representation" }, "geometry": { "type": "LineString", "coordinates": [ [ 82.537869, 22.330122 ], [ 82.540677162888215, 22.326006839590821 ] ] } },
{ "type": "Feature", "properties": { "Trace_ID": "DIPKA-BH-012-TRACE", "Borehole_ID": "DIPKA-BH-012", "Mine_ID": "M-DIPKA", "Mine_Code": "DIPKA", "Azimuth_deg": 138.5, "Inclination_deg": 79.7, "Total_Depth_m": 214.8, "Data_Type": "SYNTHETIC_DEMO", "Source_Provenance": "Synthetic borehole trace; 2D plan-view representation" }, "geometry": { "type": "LineString", "coordinates": [ [ 82.554206, 22.29852 ], [ 82.549602161914891, 22.302594626226558 ] ] } }
]
}
