{
"type": "FeatureCollection",
"name": "coal_seam_belts",
"crs": { "type": "name", "properties": { "name": "urn:ogc:def:crs:OGC:1.3:CRS84" } },
"features": [
{ "type": "Feature", "properties": { "Seam_ID": "GV-DIP-S1", "Mine_ID": "M-DIPKA", "Mine_Code": "DIPKA", "Feature_Type": "SYNTHETIC_SEAM_BELT", "Width_m": 100, "Data_Type": "SYNTHETIC_DEMO", "Source_Provenance": "Buffered demonstration representation of seam trace" }, "geometry": { "type": "Polygon", "coordinates": [ [ [ 82.525040593892427, 22.311108310618643 ], [ 82.525145386141503, 22.311129341607074 ], [ 82.525251824449697, 22.311139068091048 ], [ 82.525358692895793, 22.311137378957955 ], [ 82.544643210283709, 22.309799384723931 ], [ 82.561988098265644, 22.313365071491702 ], [ 82.562085077281893, 22.313380092046405 ], [ 82.562183061589479, 22.313385534667191 ], [ 82.562281107545985, 22.313381346938638 ], [ 82.562378270915218, 22.31336756919087 ], [ 82.56247361596084, 22.313344334111122 ], [ 82.562566224457939, 22.31331186546592 ], [ 82.562655204536057, 22.313270475946062 ], [ 82.562739699268406, 22.313220564155255 ], [ 82.562818894924504, 22.313162610771322 ], [ 82.562892028806928, 22.313097173917036 ], [ 82.562958396596372, 22.313024883785072 ], [ 82.563017359134761, 22.312946436568925 ], [ 82.563068348580629, 22.312862587758161 ], [ 82.563110873877719, 22.312774144862672 ], [ 82.563144525484191, 22.312681959635885 ], [ 82.563168979316657, 22.312586919871926 ], [ 82.56318399987137, 22.312489940855681 ], [ 82.563189442492146, 22.312391956548087 ], [ 82.563185254763596, 22.312293910591592 ], [ 82.563171477015828, 22.312196747222352 ], [ 82.563148241936076, 22.312101402176729 ], [ 82.563115773290875, 22.312008793679635 ], [ 82.563074383771024, 22.311919813601516 ], [ 82.563024471980214, 22.311835318869175 ], [ 82.562966518596284, 22.311756123213065 ], [ 82.562901081741998, 22.311682989330652 ], [ 82.562828791610031, 22.311616621541202 ], [ 82.562750344393876, 22.311557659002808 ], [ 82.562666495583116, 22.311506669556945 ], [ 82.562578052687627, 22.311464144259851 ], [ 82.562485867460836, 22.311430492653386 ], [ 82.562390827696888, 22.311406038820913 ], [ 82.544911887208926, 22.307812794120949 ], [ 82.544822365061734, 22.307798584518327 ], [ 82.544731924001738, 22.307792539494855 ], [ 82.5446413071042, 22.307794708717218 ], [ 82.525381663087785, 22.309130977192332 ], [ 82.508059420632989, 22.304679687944063 ], [ 82.507963289316194, 22.304659956836964 ], [ 82.507865686911273, 22.304649743257311 ], [ 82.507767553382735, 22.304649145567453 ], [ 82.507669833810112, 22.304658169523471 ], [ 82.507573469286314, 22.304676728219739 ], [ 82.50747938785436, 22.304704642925863 ], [ 82.507388495569884, 22.304741644807965 ], [ 82.50730166777528, 22.304787377517695 ], [ 82.507219740669669, 22.304841400624056 ], [ 82.507143503255847, 22.304903193855001 ], [ 82.507073689741816, 22.304972162107937 ], [ 82.507010972469843, 22.305047641180884 ], [ 82.506955955441583, 22.305128904169116 ], [ 82.506909168501068, 22.305215168465626 ], [ 82.506871062232108, 22.305305603298084 ], [ 82.506842003618914, 22.305399337729618 ], [ 82.506822272511812, 22.305495469046413 ], [ 82.506812058932155, 22.305593071451334 ], [ 82.506811461242307, 22.305691204979865 ], [ 82.506820485198318, 22.305788924552488 ], [ 82.506839043894587, 22.305885289076294 ], [ 82.50686695860071, 22.305979370508243 ], [ 82.506903960482816, 22.306070262792716 ], [ 82.506949693192553, 22.306157090587323 ], [ 82.507003716298911, 22.306239017692942 ], [ 82.507065509529852, 22.306315255106753 ], [ 82.507134477782785, 22.306385068620795 ], [ 82.507209956855732, 22.306447785892754 ], [ 82.507291219843964, 22.306502802921024 ], [ 82.507377484140477, 22.306549589861543 ], [ 82.507467918972935, 22.306587696130499 ], [ 82.507561653404466, 22.30661675474369 ], [ 82.525040593892427, 22.311108310618643 ] ] ] } },
{ "type": "Feature", "properties": { "Seam_ID": "GV-DIP-S2", "Mine_ID": "M-DIPKA", "Mine_Code": "DIPKA", "Feature_Type": "SYNTHETIC_SEAM_BELT", "Width_m": 100, "Data_Type": "SYNTHETIC_DEMO", "Source_Provenance": "Buffered demonstration representation of seam trace" }, "geometry": { "type": "Polygon", "coordinates": [ [ [ 82.525040593892427, 22.316947333256085 ], [ 82.525145386141503, 22.316968364244516 ], [ 82.525251824449697, 22.31697809072849 ], [ 82.525358692895793, 22.316976401595397 ], [ 82.544643210283709, 22.315638407361373 ], [ 82.561988098265644, 22.319204094129145 ], [ 82.562085077281893, 22.319219114683847 ], [ 82.562183061589479, 22.319224557304633 ], [ 82.562281107545985, 22.31922036957608 ], [ 82.562378270915218, 22.319206591828312 ], [ 82.56247361596084, 22.319183356748564 ], [ 82.562566224457939, 22.319150888103362 ], [ 82.562655204536057, 22.319109498583504 ], [ 82.562739699268406, 22.319059586792697 ], [ 82.562818894924504, 22.319001633408764 ], [ 82.562892028806928, 22.318936196554478 ], [ 82.562958396596372, 22.318863906422514 ], [ 82.563017359134761, 22.318785459206367 ], [ 82.563068348580629, 22.318701610395603 ], [ 82.563110873877719, 22.318613167500114 ], [ 82.563144525484191, 22.318520982273327 ], [ 82.563168979316657, 22.318425942509368 ], [ 82.56318399987137, 22.318328963493123 ], [ 82.563189442492146, 22.318230979185529 ], [ 82.563185254763596, 22.318132933229034 ], [ 82.563171477015828, 22.318035769859794 ], [ 82.563148241936076, 22.317940424814172 ], [ 82.563115773290875, 22.317847816317077 ], [ 82.563074383771024, 22.317758836238959 ], [ 82.563024471980214, 22.317674341506617 ], [ 82.562966518596284, 22.317595145850508 ], [ 82.562901081741998, 22.317522011968094 ], [ 82.562828791610031, 22.317455644178644 ], [ 82.562750344393876, 22.31739668164025 ], [ 82.562666495583116, 22.317345692194387 ], [ 82.562578052687627, 22.317303166897293 ], [ 82.562485867460836, 22.317269515290828 ], [ 82.562390827696888, 22.317245061458355 ], [ 82.544911887208926, 22.313651816758391 ], [ 82.544822365061734, 22.313637607155769 ], [ 82.544731924001738, 22.313631562132297 ], [ 82.5446413071042, 22.31363373135466 ], [ 82.525381663087785, 22.314969999829774 ], [ 82.508059420632989, 22.310518710581501 ], [ 82.507963289316194, 22.310498979474403 ], [ 82.507865686911273, 22.31048876589475 ], [ 82.507767553382735, 22.310488168204891 ], [ 82.507669833810112, 22.310497192160909 ], [ 82.507573469286314, 22.310515750857178 ], [ 82.50747938785436, 22.310543665563301 ], [ 82.507388495569884, 22.310580667445404 ], [ 82.50730166777528, 22.310626400155133 ], [ 82.507219740669669, 22.310680423261495 ], [ 82.507143503255847, 22.310742216492439 ], [ 82.507073689741816, 22.310811184745376 ], [ 82.507010972469843, 22.310886663818323 ], [ 82.506955955441583, 22.310967926806555 ], [ 82.506909168501068, 22.311054191103064 ], [ 82.506871062232108, 22.311144625935523 ], [ 82.506842003618914, 22.311238360367057 ], [ 82.506822272511812, 22.311334491683851 ], [ 82.506812058932155, 22.311432094088772 ], [ 82.506811461242307, 22.311530227617304 ], [ 82.506820485198318, 22.311627947189926 ], [ 82.506839043894587, 22.311724311713732 ], [ 82.50686695860071, 22.311818393145682 ], [ 82.506903960482816, 22.311909285430154 ], [ 82.506949693192553, 22.311996113224762 ], [ 82.507003716298911, 22.31207804033038 ], [ 82.507065509529852, 22.312154277744192 ], [ 82.507134477782785, 22.312224091258233 ], [ 82.507209956855732, 22.312286808530192 ], [ 82.507291219843964, 22.312341825558462 ], [ 82.507377484140477, 22.312388612498982 ], [ 82.507467918972935, 22.312426718767938 ], [ 82.507561653404466, 22.312455777381128 ], [ 82.525040593892427, 22.316947333256085 ] ] ] } },
{ "type": "Feature", "properties": { "Seam_ID": "GV-DIP-S3", "Mine_ID": "M-DIPKA", "Mine_Code": "DIPKA", "Feature_Type": "SYNTHETIC_SEAM_BELT", "Width_m": 100, "Data_Type": "SYNTHETIC_DEMO", "Source_Provenance": "Buffered demonstration representation of seam trace" }, "geometry": { "type": "Polygon", "coordinates": [ [ [ 82.525040593892427, 22.322786355893527 ], [ 82.525145386141503, 22.322807386881959 ], [ 82.525251824449697, 22.322817113365932 ], [ 82.525358692895793, 22.322815424232839 ], [ 82.544643210283709, 22.321477429998815 ], [ 82.561988098265644, 22.325043116766587 ], [ 82.562085077281893, 22.325058137321289 ], [ 82.562183061589479, 22.325063579942075 ], [ 82.562281107545985, 22.325059392213522 ], [ 82.562378270915218, 22.325045614465754 ], [ 82.56247361596084, 22.325022379386006 ], [ 82.562566224457939, 22.324989910740804 ], [ 82.562655204536057, 22.324948521220946 ], [ 82.562739699268406, 22.324898609430139 ], [ 82.562818894924504, 22.324840656046206 ], [ 82.562892028806928, 22.32477521919192 ], [ 82.562958396596372, 22.324702929059956 ], [ 82.563017359134761, 22.324624481843809 ], [ 82.563068348580629, 22.324540633033045 ], [ 82.563110873877719, 22.324452190137556 ], [ 82.563144525484191, 22.324360004910769 ], [ 82.563168979316657, 22.32426496514681 ], [ 82.56318399987137, 22.324167986130565 ], [ 82.563189442492146, 22.324070001822971 ], [ 82.563185254763596, 22.323971955866476 ], [ 82.563171477015828, 22.323874792497236 ], [ 82.563148241936076, 22.323779447451614 ], [ 82.563115773290875, 22.323686838954519 ], [ 82.563074383771024, 22.323597858876401 ], [ 82.563024471980214, 22.323513364144059 ], [ 82.562966518596284, 22.32343416848795 ], [ 82.562901081741998, 22.323361034605536 ], [ 82.562828791610031, 22.323294666816086 ], [ 82.562750344393876, 22.323235704277693 ], [ 82.562666495583116, 22.323184714831829 ], [ 82.562578052687627, 22.323142189534735 ], [ 82.562485867460836, 22.32310853792827 ], [ 82.562390827696888, 22.323084084095797 ], [ 82.544911887208926, 22.319490839395833 ], [ 82.544822365061734, 22.319476629793211 ], [ 82.544731924001738, 22.319470584769739 ], [ 82.5446413071042, 22.319472753992102 ], [ 82.525381663087785, 22.320809022467216 ], [ 82.508059420632989, 22.316357733218943 ], [ 82.507963289316194, 22.316338002111845 ], [ 82.507865686911273, 22.316327788532192 ], [ 82.507767553382735, 22.316327190842333 ], [ 82.507669833810112, 22.316336214798351 ], [ 82.507573469286314, 22.31635477349462 ], [ 82.50747938785436, 22.316382688200743 ], [ 82.507388495569884, 22.316419690082846 ], [ 82.50730166777528, 22.316465422792575 ], [ 82.507219740669669, 22.316519445898937 ], [ 82.507143503255847, 22.316581239129881 ], [ 82.507073689741816, 22.316650207382818 ], [ 82.507010972469843, 22.316725686455765 ], [ 82.506955955441583, 22.316806949443997 ], [ 82.506909168501068, 22.316893213740506 ], [ 82.506871062232108, 22.316983648572965 ], [ 82.506842003618914, 22.317077383004499 ], [ 82.506822272511812, 22.317173514321293 ], [ 82.506812058932155, 22.317271116726214 ], [ 82.506811461242307, 22.317369250254746 ], [ 82.506820485198318, 22.317466969827368 ], [ 82.506839043894587, 22.317563334351174 ], [ 82.50686695860071, 22.317657415783124 ], [ 82.506903960482816, 22.317748308067596 ], [ 82.506949693192553, 22.317835135862204 ], [ 82.507003716298911, 22.317917062967823 ], [ 82.507065509529852, 22.317993300381634 ], [ 82.507134477782785, 22.318063113895676 ], [ 82.507209956855732, 22.318125831167634 ], [ 82.507291219843964, 22.318180848195905 ], [ 82.507377484140477, 22.318227635136424 ], [ 82.507467918972935, 22.31826574140538 ], [ 82.507561653404466, 22.31829480001857 ], [ 82.525040593892427, 22.322786355893527 ] ] ] } },
{ "type": "Feature", "properties": { "Seam_ID": "GV-DIP-S4", "Mine_ID": "M-DIPKA", "Mine_Code": "DIPKA", "Feature_Type": "SYNTHETIC_SEAM_BELT", "Width_m": 100, "Data_Type": "SYNTHETIC_DEMO", "Source_Provenance": "Buffered demonstration representation of seam trace" }, "geometry": { "type": "Polygon", "coordinates": [ [ [ 82.525040593892427, 22.328625378530969 ], [ 82.525145386141503, 22.328646409519401 ], [ 82.525251824449697, 22.328656136003374 ], [ 82.525358692895793, 22.328654446870281 ], [ 82.544643210283709, 22.327316452636257 ], [ 82.561988098265644, 22.330882139404029 ], [ 82.562085077281893, 22.330897159958731 ], [ 82.562183061589479, 22.330902602579517 ], [ 82.562281107545985, 22.330898414850964 ], [ 82.562378270915218, 22.330884637103196 ], [ 82.56247361596084, 22.330861402023448 ], [ 82.562566224457939, 22.330828933378246 ], [ 82.562655204536057, 22.330787543858388 ], [ 82.562739699268406, 22.330737632067581 ], [ 82.562818894924504, 22.330679678683648 ], [ 82.562892028806928, 22.330614241829362 ], [ 82.562958396596372, 22.330541951697398 ], [ 82.563017359134761, 22.330463504481251 ], [ 82.563068348580629, 22.330379655670487 ], [ 82.563110873877719, 22.330291212774998 ], [ 82.563144525484191, 22.330199027548211 ], [ 82.563168979316657, 22.330103987784252 ], [ 82.56318399987137, 22.330007008768007 ], [ 82.563189442492146, 22.329909024460413 ], [ 82.563185254763596, 22.329810978503918 ], [ 82.563171477015828, 22.329713815134678 ], [ 82.563148241936076, 22.329618470089056 ], [ 82.563115773290875, 22.329525861591961 ], [ 82.563074383771024, 22.329436881513843 ], [ 82.563024471980214, 22.329352386781501 ], [ 82.562966518596284, 22.329273191125392 ], [ 82.562901081741998, 22.329200057242979 ], [ 82.562828791610031, 22.329133689453528 ], [ 82.562750344393876, 22.329074726915135 ], [ 82.562666495583116, 22.329023737469271 ], [ 82.562578052687627, 22.328981212172177 ], [ 82.562485867460836, 22.328947560565712 ], [ 82.562390827696888, 22.328923106733239 ], [ 82.544911887208926, 22.325329862033275 ], [ 82.544822365061734, 22.325315652430653 ], [ 82.544731924001738, 22.325309607407181 ], [ 82.5446413071042, 22.325311776629544 ], [ 82.525381663087785, 22.326648045104658 ], [ 82.508059420632989, 22.322196755856385 ], [ 82.507963289316194, 22.322177024749287 ], [ 82.507865686911273, 22.322166811169634 ], [ 82.507767553382735, 22.322166213479775 ], [ 82.507669833810112, 22.322175237435793 ], [ 82.507573469286314, 22.322193796132062 ], [ 82.50747938785436, 22.322221710838186 ], [ 82.507388495569884, 22.322258712720288 ], [ 82.50730166777528, 22.322304445430017 ], [ 82.507219740669669, 22.322358468536379 ], [ 82.507143503255847, 22.322420261767324 ], [ 82.507073689741816, 22.32248923002026 ], [ 82.507010972469843, 22.322564709093207 ], [ 82.506955955441583, 22.322645972081439 ], [ 82.506909168501068, 22.322732236377949 ], [ 82.506871062232108, 22.322822671210407 ], [ 82.506842003618914, 22.322916405641941 ], [ 82.506822272511812, 22.323012536958736 ], [ 82.506812058932155, 22.323110139363656 ], [ 82.506811461242307, 22.323208272892188 ], [ 82.506820485198318, 22.32330599246481 ], [ 82.506839043894587, 22.323402356988616 ], [ 82.50686695860071, 22.323496438420566 ], [ 82.506903960482816, 22.323587330705038 ], [ 82.506949693192553, 22.323674158499646 ], [ 82.507003716298911, 22.323756085605265 ], [ 82.507065509529852, 22.323832323019076 ], [ 82.507134477782785, 22.323902136533118 ], [ 82.507209956855732, 22.323964853805077 ], [ 82.507291219843964, 22.324019870833347 ], [ 82.507377484140477, 22.324066657773866 ], [ 82.507467918972935, 22.324104764042822 ], [ 82.507561653404466, 22.324133822656012 ], [ 82.525040593892427, 22.328625378530969 ] ] ] } }
]
}
