{
"type": "FeatureCollection",
"name": "geological_contacts",
"crs": { "type": "name", "properties": { "name": "urn:ogc:def:crs:OGC:1.3:CRS84" } },
"features": [
{ "type": "Feature", "properties": { "Contact_ID": "DIPKA-GC-01", "Mine_ID": "M-DIPKA", "Mine_Code": "DIPKA", "Contact_Type": "STRATIGRAPHIC_CONTACT", "Unit_A": "Sandstone", "Unit_B": "Shale", "Confidence": "DEMO", "Data_Type": "SYNTHETIC_DEMO", "Source_Provenance": "Synthetic geological contact" }, "geometry": { "type": "LineString", "coordinates": [ [ 82.495, 22.288 ], [ 82.515, 22.348 ] ] } },
{ "type": "Feature", "properties": { "Contact_ID": "DIPKA-GC-02", "Mine_ID": "M-DIPKA", "Mine_Code": "DIPKA", "Contact_Type": "STRATIGRAPHIC_CONTACT", "Unit_A": "Sandstone", "Unit_B": "Shale", "Confidence": "DEMO", "Data_Type": "SYNTHETIC_DEMO", "Source_Provenance": "Synthetic geological contact" }, "geometry": { "type": "LineString", "coordinates": [ [ 82.525, 22.288 ], [ 82.545, 22.348 ] ] } },
{ "type": "Feature", "properties": { "Contact_ID": "DIPKA-GC-03", "Mine_ID": "M-DIPKA", "Mine_Code": "DIPKA", "Contact_Type": "STRATIGRAPHIC_CONTACT", "Unit_A": "Sandstone", "Unit_B": "Shale", "Confidence": "DEMO", "Data_Type": "SYNTHETIC_DEMO", "Source_Provenance": "Synthetic geological contact" }, "geometry": { "type": "LineString", "coordinates": [ [ 82.555, 22.288 ], [ 82.575, 22.348 ] ] } }
]
}
