{
"type": "FeatureCollection",
"name": "geological_events_spatial",
"crs": { "type": "name", "properties": { "name": "urn:ogc:def:crs:OGC:1.3:CRS84" } },
"features": [
{ "type": "Feature", "properties": { "Event_ID": "EV-DIPKA-GEO-01", "Mine_ID": "M-DIPKA", "Mine_Code": "DIPKA", "Financial_Year": "FY 2023-24", "Event_Type": "Geotechnical", "Severity": "Moderate", "Area": "Central working block", "Description": "Localized synthetic bench movement triggered additional inspection and monitoring.", "Action": "Increase inspection frequency; review haulage alignment.", "Data_Type": "SYNTHETIC_DEMO", "Source_Provenance": "Synthetic event location linked to geological event record" }, "geometry": { "type": "Point", "coordinates": [ 82.546817687741978, 22.342862776738421 ] } },
{ "type": "Feature", "properties": { "Event_ID": "EV-DIPKA-WAT-01", "Mine_ID": "M-DIPKA", "Mine_Code": "DIPKA", "Financial_Year": "FY 2021-22", "Event_Type": "Hydrology", "Severity": "Moderate", "Area": "Pit floor / drainage", "Description": "Synthetic monsoon water accumulation affected selected working areas.", "Action": "Temporary pumping and drainage-channel maintenance.", "Data_Type": "SYNTHETIC_DEMO", "Source_Provenance": "Synthetic event location linked to geological event record" }, "geometry": { "type": "Point", "coordinates": [ 82.558796615778434, 22.321799920890285 ] } }
]
}
