{
"type": "FeatureCollection",
"name": "geological_units",
"crs": { "type": "name", "properties": { "name": "urn:ogc:def:crs:OGC:1.3:CRS84" } },
"features": [
{ "type": "Feature", "properties": { "Geology_Unit_ID": "DIPKA-GU-01", "Mine_ID": "M-DIPKA", "Mine_Code": "DIPKA", "Unit_Name": "Sandstone", "Unit_Type": "LITHOLOGY", "Age": "SYNTHETIC", "Description": "Synthetic sandstone unit for demonstration spatial queries", "Relative_Order": 1, "Data_Type": "SYNTHETIC_DEMO", "Source_Provenance": "Synthetic geometry; not an official geological map" }, "geometry": { "type": "Polygon", "coordinates": [ [ [ 82.47, 22.293 ], [ 82.5, 22.288 ], [ 82.53, 22.343 ], [ 82.5, 22.348 ], [ 82.47, 22.293 ] ] ] } },
{ "type": "Feature", "properties": { "Geology_Unit_ID": "DIPKA-GU-02", "Mine_ID": "M-DIPKA", "Mine_Code": "DIPKA", "Unit_Name": "Shale", "Unit_Type": "LITHOLOGY", "Age": "SYNTHETIC", "Description": "Synthetic shale unit for demonstration spatial queries", "Relative_Order": 2, "Data_Type": "SYNTHETIC_DEMO", "Source_Provenance": "Synthetic geometry; not an official geological map" }, "geometry": { "type": "Polygon", "coordinates": [ [ [ 82.482, 22.293 ], [ 82.512, 22.288 ], [ 82.542, 22.343 ], [ 82.512, 22.348 ], [ 82.482, 22.293 ] ] ] } },
{ "type": "Feature", "properties": { "Geology_Unit_ID": "DIPKA-GU-03", "Mine_ID": "M-DIPKA", "Mine_Code": "DIPKA", "Unit_Name": "Coal-bearing sequence", "Unit_Type": "LITHOLOGY", "Age": "SYNTHETIC", "Description": "Synthetic coal-bearing sequence unit for demonstration spatial queries", "Relative_Order": 3, "Data_Type": "SYNTHETIC_DEMO", "Source_Provenance": "Synthetic geometry; not an official geological map" }, "geometry": { "type": "Polygon", "coordinates": [ [ [ 82.494, 22.293 ], [ 82.524, 22.288 ], [ 82.554, 22.343 ], [ 82.524, 22.348 ], [ 82.494, 22.293 ] ] ] } },
{ "type": "Feature", "properties": { "Geology_Unit_ID": "DIPKA-GU-04", "Mine_ID": "M-DIPKA", "Mine_Code": "DIPKA", "Unit_Name": "Siltstone", "Unit_Type": "LITHOLOGY", "Age": "SYNTHETIC", "Description": "Synthetic siltstone unit for demonstration spatial queries", "Relative_Order": 4, "Data_Type": "SYNTHETIC_DEMO", "Source_Provenance": "Synthetic geometry; not an official geological map" }, "geometry": { "type": "Polygon", "coordinates": [ [ [ 82.506, 22.293 ], [ 82.536, 22.288 ], [ 82.566, 22.343 ], [ 82.536, 22.348 ], [ 82.506, 22.293 ] ] ] } },
{ "type": "Feature", "properties": { "Geology_Unit_ID": "DIPKA-GU-05", "Mine_ID": "M-DIPKA", "Mine_Code": "DIPKA", "Unit_Name": "Mudstone", "Unit_Type": "LITHOLOGY", "Age": "SYNTHETIC", "Description": "Synthetic mudstone unit for demonstration spatial queries", "Relative_Order": 5, "Data_Type": "SYNTHETIC_DEMO", "Source_Provenance": "Synthetic geometry; not an official geological map" }, "geometry": { "type": "Polygon", "coordinates": [ [ [ 82.518, 22.293 ], [ 82.548, 22.288 ], [ 82.578, 22.343 ], [ 82.548, 22.348 ], [ 82.518, 22.293 ] ] ] } },
{ "type": "Feature", "properties": { "Geology_Unit_ID": "DIPKA-GU-06", "Mine_ID": "M-DIPKA", "Mine_Code": "DIPKA", "Unit_Name": "Weathered zone", "Unit_Type": "LITHOLOGY", "Age": "SYNTHETIC", "Description": "Synthetic weathered zone unit for demonstration spatial queries", "Relative_Order": 6, "Data_Type": "SYNTHETIC_DEMO", "Source_Provenance": "Synthetic geometry; not an official geological map" }, "geometry": { "type": "Polygon", "coordinates": [ [ [ 82.53, 22.293 ], [ 82.56, 22.288 ], [ 82.59, 22.343 ], [ 82.56, 22.348 ], [ 82.53, 22.293 ] ] ] } }
]
}
