{
"type": "FeatureCollection",
"name": "survey_points",
"crs": { "type": "name", "properties": { "name": "urn:ogc:def:crs:OGC:1.3:CRS84" } },
"features": [
{ "type": "Feature", "properties": { "Survey_Point_ID": "DIPKA-SP-001", "Mine_ID": "M-DIPKA", "Mine_Code": "DIPKA", "Latitude": 22.3293101, "Longitude": 82.5454975, "RL_m": 313.66, "Point_Type": "REFERENCE", "Survey_Date": "2025-07-08", "Horizontal_Accuracy_m": 0.09, "Vertical_Accuracy_m": 0.081, "Data_Type": "SYNTHETIC_DEMO", "Source_Provenance": "Synthetic survey/control dataset" }, "geometry": { "type": "Point", "coordinates": [ 82.5454975, 22.3293101 ] } },
{ "type": "Feature", "properties": { "Survey_Point_ID": "DIPKA-SP-002", "Mine_ID": "M-DIPKA", "Mine_Code": "DIPKA", "Latitude": 22.295263, "Longitude": 82.5262908, "RL_m": 296.26, "Point_Type": "PIT_FLOOR", "Survey_Date": "2025-01-11", "Horizontal_Accuracy_m": 0.013, "Vertical_Accuracy_m": 0.104, "Data_Type": "SYNTHETIC_DEMO", "Source_Provenance": "Synthetic survey/control dataset" }, "geometry": { "type": "Point", "coordinates": [ 82.5262908, 22.295263 ] } },
{ "type": "Feature", "properties": { "Survey_Point_ID": "DIPKA-SP-003", "Mine_ID": "M-DIPKA", "Mine_Code": "DIPKA", "Latitude": 22.3060463, "Longitude": 82.5379851, "RL_m": 297.27, "Point_Type": "PIT_FLOOR", "Survey_Date": "2025-12-26", "Horizontal_Accuracy_m": 0.013, "Vertical_Accuracy_m": 0.027, "Data_Type": "SYNTHETIC_DEMO", "Source_Provenance": "Synthetic survey/control dataset" }, "geometry": { "type": "Point", "coordinates": [ 82.5379851, 22.3060463 ] } },
{ "type": "Feature", "properties": { "Survey_Point_ID": "DIPKA-SP-004", "Mine_ID": "M-DIPKA", "Mine_Code": "DIPKA", "Latitude": 22.3101707, "Longitude": 82.557582, "RL_m": 260.16, "Point_Type": "PIT_FLOOR", "Survey_Date": "2025-07-22", "Horizontal_Accuracy_m": 0.057, "Vertical_Accuracy_m": 0.159, "Data_Type": "SYNTHETIC_DEMO", "Source_Provenance": "Synthetic survey/control dataset" }, "geometry": { "type": "Point", "coordinates": [ 82.557582, 22.3101707 ] } },
{ "type": "Feature", "properties": { "Survey_Point_ID": "DIPKA-SP-005", "Mine_ID": "M-DIPKA", "Mine_Code": "DIPKA", "Latitude": 22.3248819, "Longitude": 82.5151075, "RL_m": 256.83, "Point_Type": "BENCH_RL", "Survey_Date": "2025-08-02", "Horizontal_Accuracy_m": 0.015, "Vertical_Accuracy_m": 0.116, "Data_Type": "SYNTHETIC_DEMO", "Source_Provenance": "Synthetic survey/control dataset" }, "geometry": { "type": "Point", "coordinates": [ 82.5151075, 22.3248819 ] } },
{ "type": "Feature", "properties": { "Survey_Point_ID": "DIPKA-SP-006", "Mine_ID": "M-DIPKA", "Mine_Code": "DIPKA", "Latitude": 22.3256961, "Longitude": 82.5378445, "RL_m": 308.09, "Point_Type": "BENCH_RL", "Survey_Date": "2025-09-19", "Horizontal_Accuracy_m": 0.098, "Vertical_Accuracy_m": 0.113, "Data_Type": "SYNTHETIC_DEMO", "Source_Provenance": "Synthetic survey/control dataset" }, "geometry": { "type": "Point", "coordinates": [ 82.5378445, 22.3256961 ] } },
{ "type": "Feature", "properties": { "Survey_Point_ID": "DIPKA-SP-007", "Mine_ID": "M-DIPKA", "Mine_Code": "DIPKA", "Latitude": 22.3345304, "Longitude": 82.522607, "RL_m": 271.67, "Point_Type": "PIT_RIM", "Survey_Date": "2025-02-28", "Horizontal_Accuracy_m": 0.05, "Vertical_Accuracy_m": 0.034, "Data_Type": "SYNTHETIC_DEMO", "Source_Provenance": "Synthetic survey/control dataset" }, "geometry": { "type": "Point", "coordinates": [ 82.522607, 22.3345304 ] } },
{ "type": "Feature", "properties": { "Survey_Point_ID": "DIPKA-SP-008", "Mine_ID": "M-DIPKA", "Mine_Code": "DIPKA", "Latitude": 22.3439083, "Longitude": 82.5017746, "RL_m": 316.88, "Point_Type": "PIT_FLOOR", "Survey_Date": "2025-02-17", "Horizontal_Accuracy_m": 0.073, "Vertical_Accuracy_m": 0.094, "Data_Type": "SYNTHETIC_DEMO", "Source_Provenance": "Synthetic survey/control dataset" }, "geometry": { "type": "Point", "coordinates": [ 82.5017746, 22.3439083 ] } },
{ "type": "Feature", "properties": { "Survey_Point_ID": "DIPKA-SP-009", "Mine_ID": "M-DIPKA", "Mine_Code": "DIPKA", "Latitude": 22.2987605, "Longitude": 82.5121306, "RL_m": 270.02, "Point_Type": "PIT_FLOOR", "Survey_Date": "2025-01-24", "Horizontal_Accuracy_m": 0.059, "Vertical_Accuracy_m": 0.149, "Data_Type": "SYNTHETIC_DEMO", "Source_Provenance": "Synthetic survey/control dataset" }, "geometry": { "type": "Point", "coordinates": [ 82.5121306, 22.2987605 ] } },
{ "type": "Feature", "properties": { "Survey_Point_ID": "DIPKA-SP-010", "Mine_ID": "M-DIPKA", "Mine_Code": "DIPKA", "Latitude": 22.3056763, "Longitude": 82.5462138, "RL_m": 326.39, "Point_Type": "BENCH_RL", "Survey_Date": "2025-07-28", "Horizontal_Accuracy_m": 0.076, "Vertical_Accuracy_m": 0.12, "Data_Type": "SYNTHETIC_DEMO", "Source_Provenance": "Synthetic survey/control dataset" }, "geometry": { "type": "Point", "coordinates": [ 82.5462138, 22.3056763 ] } },
{ "type": "Feature", "properties": { "Survey_Point_ID": "DIPKA-SP-011", "Mine_ID": "M-DIPKA", "Mine_Code": "DIPKA", "Latitude": 22.3134976, "Longitude": 82.5428205, "RL_m": 269.82, "Point_Type": "BENCH_RL", "Survey_Date": "2025-02-16", "Horizontal_Accuracy_m": 0.042, "Vertical_Accuracy_m": 0.156, "Data_Type": "SYNTHETIC_DEMO", "Source_Provenance": "Synthetic survey/control dataset" }, "geometry": { "type": "Point", "coordinates": [ 82.5428205, 22.3134976 ] } },
{ "type": "Feature", "properties": { "Survey_Point_ID": "DIPKA-SP-012", "Mine_ID": "M-DIPKA", "Mine_Code": "DIPKA", "Latitude": 22.2965001, "Longitude": 82.5010075, "RL_m": 253.68, "Point_Type": "PIT_RIM", "Survey_Date": "2025-06-20", "Horizontal_Accuracy_m": 0.014, "Vertical_Accuracy_m": 0.174, "Data_Type": "SYNTHETIC_DEMO", "Source_Provenance": "Synthetic survey/control dataset" }, "geometry": { "type": "Point", "coordinates": [ 82.5010075, 22.2965001 ] } },
{ "type": "Feature", "properties": { "Survey_Point_ID": "DIPKA-SP-013", "Mine_ID": "M-DIPKA", "Mine_Code": "DIPKA", "Latitude": 22.3165537, "Longitude": 82.5492561, "RL_m": 257.83, "Point_Type": "PIT_FLOOR", "Survey_Date": "2025-11-03", "Horizontal_Accuracy_m": 0.054, "Vertical_Accuracy_m": 0.105, "Data_Type": "SYNTHETIC_DEMO", "Source_Provenance": "Synthetic survey/control dataset" }, "geometry": { "type": "Point", "coordinates": [ 82.5492561, 22.3165537 ] } },
{ "type": "Feature", "properties": { "Survey_Point_ID": "DIPKA-SP-014", "Mine_ID": "M-DIPKA", "Mine_Code": "DIPKA", "Latitude": 22.3142957, "Longitude": 82.5121241, "RL_m": 281.88, "Point_Type": "PIT_RIM", "Survey_Date": "2025-11-28", "Horizontal_Accuracy_m": 0.065, "Vertical_Accuracy_m": 0.134, "Data_Type": "SYNTHETIC_DEMO", "Source_Provenance": "Synthetic survey/control dataset" }, "geometry": { "type": "Point", "coordinates": [ 82.5121241, 22.3142957 ] } },
{ "type": "Feature", "properties": { "Survey_Point_ID": "DIPKA-SP-015", "Mine_ID": "M-DIPKA", "Mine_Code": "DIPKA", "Latitude": 22.3109783, "Longitude": 82.5031713, "RL_m": 300.07, "Point_Type": "REFERENCE", "Survey_Date": "2025-07-11", "Horizontal_Accuracy_m": 0.055, "Vertical_Accuracy_m": 0.174, "Data_Type": "SYNTHETIC_DEMO", "Source_Provenance": "Synthetic survey/control dataset" }, "geometry": { "type": "Point", "coordinates": [ 82.5031713, 22.3109783 ] } },
{ "type": "Feature", "properties": { "Survey_Point_ID": "DIPKA-SP-016", "Mine_ID": "M-DIPKA", "Mine_Code": "DIPKA", "Latitude": 22.2991243, "Longitude": 82.5461086, "RL_m": 255.65, "Point_Type": "PIT_FLOOR", "Survey_Date": "2025-09-02", "Horizontal_Accuracy_m": 0.068, "Vertical_Accuracy_m": 0.025, "Data_Type": "SYNTHETIC_DEMO", "Source_Provenance": "Synthetic survey/control dataset" }, "geometry": { "type": "Point", "coordinates": [ 82.5461086, 22.2991243 ] } },
{ "type": "Feature", "properties": { "Survey_Point_ID": "DIPKA-SP-017", "Mine_ID": "M-DIPKA", "Mine_Code": "DIPKA", "Latitude": 22.3426529, "Longitude": 82.5410043, "RL_m": 296.04, "Point_Type": "REFERENCE", "Survey_Date": "2025-02-08", "Horizontal_Accuracy_m": 0.045, "Vertical_Accuracy_m": 0.136, "Data_Type": "SYNTHETIC_DEMO", "Source_Provenance": "Synthetic survey/control dataset" }, "geometry": { "type": "Point", "coordinates": [ 82.5410043, 22.3426529 ] } },
{ "type": "Feature", "properties": { "Survey_Point_ID": "DIPKA-SP-018", "Mine_ID": "M-DIPKA", "Mine_Code": "DIPKA", "Latitude": 22.3205545, "Longitude": 82.5320777, "RL_m": 325.32, "Point_Type": "PIT_RIM", "Survey_Date": "2025-04-24", "Horizontal_Accuracy_m": 0.045, "Vertical_Accuracy_m": 0.193, "Data_Type": "SYNTHETIC_DEMO", "Source_Provenance": "Synthetic survey/control dataset" }, "geometry": { "type": "Point", "coordinates": [ 82.5320777, 22.3205545 ] } },
{ "type": "Feature", "properties": { "Survey_Point_ID": "DIPKA-SP-019", "Mine_ID": "M-DIPKA", "Mine_Code": "DIPKA", "Latitude": 22.3009643, "Longitude": 82.5633745, "RL_m": 255.55, "Point_Type": "DGPS_CONTROL", "Survey_Date": "2025-07-04", "Horizontal_Accuracy_m": 0.019, "Vertical_Accuracy_m": 0.023, "Data_Type": "SYNTHETIC_DEMO", "Source_Provenance": "Synthetic survey/control dataset" }, "geometry": { "type": "Point", "coordinates": [ 82.5633745, 22.3009643 ] } },
{ "type": "Feature", "properties": { "Survey_Point_ID": "DIPKA-SP-020", "Mine_ID": "M-DIPKA", "Mine_Code": "DIPKA", "Latitude": 22.3282484, "Longitude": 82.506611, "RL_m": 255.7, "Point_Type": "DGPS_CONTROL", "Survey_Date": "2025-08-06", "Horizontal_Accuracy_m": 0.039, "Vertical_Accuracy_m": 0.172, "Data_Type": "SYNTHETIC_DEMO", "Source_Provenance": "Synthetic survey/control dataset" }, "geometry": { "type": "Point", "coordinates": [ 82.506611, 22.3282484 ] } },
{ "type": "Feature", "properties": { "Survey_Point_ID": "DIPKA-SP-021", "Mine_ID": "M-DIPKA", "Mine_Code": "DIPKA", "Latitude": 22.3356102, "Longitude": 82.501629, "RL_m": 272.55, "Point_Type": "PIT_RIM", "Survey_Date": "2025-01-02", "Horizontal_Accuracy_m": 0.021, "Vertical_Accuracy_m": 0.145, "Data_Type": "SYNTHETIC_DEMO", "Source_Provenance": "Synthetic survey/control dataset" }, "geometry": { "type": "Point", "coordinates": [ 82.501629, 22.3356102 ] } },
{ "type": "Feature", "properties": { "Survey_Point_ID": "DIPKA-SP-022", "Mine_ID": "M-DIPKA", "Mine_Code": "DIPKA", "Latitude": 22.3391384, "Longitude": 82.544026, "RL_m": 308.81, "Point_Type": "PIT_RIM", "Survey_Date": "2025-01-10", "Horizontal_Accuracy_m": 0.082, "Vertical_Accuracy_m": 0.071, "Data_Type": "SYNTHETIC_DEMO", "Source_Provenance": "Synthetic survey/control dataset" }, "geometry": { "type": "Point", "coordinates": [ 82.544026, 22.3391384 ] } },
{ "type": "Feature", "properties": { "Survey_Point_ID": "DIPKA-SP-023", "Mine_ID": "M-DIPKA", "Mine_Code": "DIPKA", "Latitude": 22.3320344, "Longitude": 82.5124208, "RL_m": 314.55, "Point_Type": "PIT_RIM", "Survey_Date": "2025-06-14", "Horizontal_Accuracy_m": 0.099, "Vertical_Accuracy_m": 0.094, "Data_Type": "SYNTHETIC_DEMO", "Source_Provenance": "Synthetic survey/control dataset" }, "geometry": { "type": "Point", "coordinates": [ 82.5124208, 22.3320344 ] } },
{ "type": "Feature", "properties": { "Survey_Point_ID": "DIPKA-SP-024", "Mine_ID": "M-DIPKA", "Mine_Code": "DIPKA", "Latitude": 22.3334791, "Longitude": 82.5260413, "RL_m": 277.26, "Point_Type": "BENCH_RL", "Survey_Date": "2025-04-17", "Horizontal_Accuracy_m": 0.094, "Vertical_Accuracy_m": 0.175, "Data_Type": "SYNTHETIC_DEMO", "Source_Provenance": "Synthetic survey/control dataset" }, "geometry": { "type": "Point", "coordinates": [ 82.5260413, 22.3334791 ] } },
{ "type": "Feature", "properties": { "Survey_Point_ID": "DIPKA-SP-025", "Mine_ID": "M-DIPKA", "Mine_Code": "DIPKA", "Latitude": 22.3320488, "Longitude": 82.5300296, "RL_m": 310.36, "Point_Type": "PIT_FLOOR", "Survey_Date": "2025-10-22", "Horizontal_Accuracy_m": 0.019, "Vertical_Accuracy_m": 0.182, "Data_Type": "SYNTHETIC_DEMO", "Source_Provenance": "Synthetic survey/control dataset" }, "geometry": { "type": "Point", "coordinates": [ 82.5300296, 22.3320488 ] } }
]
}
