{
"type": "FeatureCollection",
"name": "borehole_traces",
"crs": { "type": "name", "properties": { "name": "urn:ogc:def:crs:OGC:1.3:CRS84" } },
"features": [
{ "type": "Feature", "properties": { "Trace_ID": "DUDHICHUA-BH-001-TRACE", "Borehole_ID": "DUDHICHUA-BH-001", "Mine_ID": "M-DUDHICHUA", "Mine_Code": "DUDHICHUA", "Azimuth_deg": 15.2, "Inclination_deg": 87.4, "Total_Depth_m": 227.3, "Data_Type": "SYNTHETIC_DEMO", "Source_Provenance": "Synthetic borehole trace; 2D plan-view representation" }, "geometry": { "type": "LineString", "coordinates": [ [ 82.721906, 24.131593 ], [ 82.727958172545101, 24.133242768615393 ] ] } },
{ "type": "Feature", "properties": { "Trace_ID": "DUDHICHUA-BH-002-TRACE", "Borehole_ID": "DUDHICHUA-BH-002", "Mine_ID": "M-DUDHICHUA", "Mine_Code": "DUDHICHUA", "Azimuth_deg": 126.9, "Inclination_deg": 90.0, "Total_Depth_m": 186.7, "Data_Type": "SYNTHETIC_DEMO", "Source_Provenance": "Synthetic borehole trace; 2D plan-view representation" }, "geometry": { "type": "LineString", "coordinates": [ [ 82.736377, 24.130621 ], [ 82.732852586366135, 24.135311436817332 ] ] } },
{ "type": "Feature", "properties": { "Trace_ID": "DUDHICHUA-BH-003-TRACE", "Borehole_ID": "DUDHICHUA-BH-003", "Mine_ID": "M-DUDHICHUA", "Mine_Code": "DUDHICHUA", "Azimuth_deg": 98.8, "Inclination_deg": 89.6, "Total_Depth_m": 145.7, "Data_Type": "SYNTHETIC_DEMO", "Source_Provenance": "Synthetic borehole trace; 2D plan-view representation" }, "geometry": { "type": "LineString", "coordinates": [ [ 82.702493, 24.150131 ], [ 82.701654398259748, 24.155523179162568 ] ] } },
{ "type": "Feature", "properties": { "Trace_ID": "DUDHICHUA-BH-004-TRACE", "Borehole_ID": "DUDHICHUA-BH-004", "Mine_ID": "M-DUDHICHUA", "Mine_Code": "DUDHICHUA", "Azimuth_deg": 341.2, "Inclination_deg": 71.5, "Total_Depth_m": 104.5, "Data_Type": "SYNTHETIC_DEMO", "Source_Provenance": "Synthetic borehole trace; 2D plan-view representation" }, "geometry": { "type": "LineString", "coordinates": [ [ 82.723678, 24.141801 ], [ 82.72845513728349, 24.140178969058635 ] ] } },
{ "type": "Feature", "properties": { "Trace_ID": "DUDHICHUA-BH-005-TRACE", "Borehole_ID": "DUDHICHUA-BH-005", "Mine_ID": "M-DUDHICHUA", "Mine_Code": "DUDHICHUA", "Azimuth_deg": 229.5, "Inclination_deg": 77.3, "Total_Depth_m": 201.2, "Data_Type": "SYNTHETIC_DEMO", "Source_Provenance": "Synthetic borehole trace; 2D plan-view representation" }, "geometry": { "type": "LineString", "coordinates": [ [ 82.695302, 24.134154 ], [ 82.691397878483244, 24.129582131762348 ] ] } },
{ "type": "Feature", "properties": { "Trace_ID": "DUDHICHUA-BH-006-TRACE", "Borehole_ID": "DUDHICHUA-BH-006", "Mine_ID": "M-DUDHICHUA", "Mine_Code": "DUDHICHUA", "Azimuth_deg": 288.4, "Inclination_deg": 83.6, "Total_Depth_m": 227.2, "Data_Type": "SYNTHETIC_DEMO", "Source_Provenance": "Synthetic borehole trace; 2D plan-view representation" }, "geometry": { "type": "LineString", "coordinates": [ [ 82.736817, 24.134724 ], [ 82.738796184780583, 24.128772461408651 ] ] } },
{ "type": "Feature", "properties": { "Trace_ID": "DUDHICHUA-BH-007-TRACE", "Borehole_ID": "DUDHICHUA-BH-007", "Mine_ID": "M-DUDHICHUA", "Mine_Code": "DUDHICHUA", "Azimuth_deg": 343.0, "Inclination_deg": 72.9, "Total_Depth_m": 183.0, "Data_Type": "SYNTHETIC_DEMO", "Source_Provenance": "Synthetic borehole trace; 2D plan-view representation" }, "geometry": { "type": "LineString", "coordinates": [ [ 82.701816, 24.155007 ], [ 82.707391381144916, 24.153302879966439 ] ] } },
{ "type": "Feature", "properties": { "Trace_ID": "DUDHICHUA-BH-008-TRACE", "Borehole_ID": "DUDHICHUA-BH-008", "Mine_ID": "M-DUDHICHUA", "Mine_Code": "DUDHICHUA", "Azimuth_deg": 218.7, "Inclination_deg": 85.6, "Total_Depth_m": 93.7, "Data_Type": "SYNTHETIC_DEMO", "Source_Provenance": "Synthetic borehole trace; 2D plan-view representation" }, "geometry": { "type": "LineString", "coordinates": [ [ 82.684763, 24.124017 ], [ 82.680911429448955, 24.12092841241175 ] ] } },
{ "type": "Feature", "properties": { "Trace_ID": "DUDHICHUA-BH-009-TRACE", "Borehole_ID": "DUDHICHUA-BH-009", "Mine_ID": "M-DUDHICHUA", "Mine_Code": "DUDHICHUA", "Azimuth_deg": 12.5, "Inclination_deg": 71.3, "Total_Depth_m": 214.7, "Data_Type": "SYNTHETIC_DEMO", "Source_Provenance": "Synthetic borehole trace; 2D plan-view representation" }, "geometry": { "type": "LineString", "coordinates": [ [ 82.73848, 24.12518 ], [ 82.744480649320877, 24.126513347939539 ] ] } },
{ "type": "Feature", "properties": { "Trace_ID": "DUDHICHUA-BH-010-TRACE", "Borehole_ID": "DUDHICHUA-BH-010", "Mine_ID": "M-DUDHICHUA", "Mine_Code": "DUDHICHUA", "Azimuth_deg": 280.3, "Inclination_deg": 77.3, "Total_Depth_m": 145.2, "Data_Type": "SYNTHETIC_DEMO", "Source_Provenance": "Synthetic borehole trace; 2D plan-view representation" }, "geometry": { "type": "LineString", "coordinates": [ [ 82.689753, 24.159594 ], [ 82.690724602770629, 24.154229273347493 ] ] } },
{ "type": "Feature", "properties": { "Trace_ID": "DUDHICHUA-BH-011-TRACE", "Borehole_ID": "DUDHICHUA-BH-011", "Mine_ID": "M-DUDHICHUA", "Mine_Code": "DUDHICHUA", "Azimuth_deg": 137.8, "Inclination_deg": 81.3, "Total_Depth_m": 232.2, "Data_Type": "SYNTHETIC_DEMO", "Source_Provenance": "Synthetic borehole trace; 2D plan-view representation" }, "geometry": { "type": "LineString", "coordinates": [ [ 82.734214, 24.135543 ], [ 82.729528589384074, 24.139787362303135 ] ] } },
{ "type": "Feature", "properties": { "Trace_ID": "DUDHICHUA-BH-012-TRACE", "Borehole_ID": "DUDHICHUA-BH-012", "Mine_ID": "M-DUDHICHUA", "Mine_Code": "DUDHICHUA", "Azimuth_deg": 217.8, "Inclination_deg": 83.6, "Total_Depth_m": 186.7, "Data_Type": "SYNTHETIC_DEMO", "Source_Provenance": "Synthetic borehole trace; 2D plan-view representation" }, "geometry": { "type": "LineString", "coordinates": [ [ 82.724638, 24.160282 ], [ 82.720004303915715, 24.156683312795121 ] ] } }
]
}
