{
"type": "FeatureCollection",
"name": "borehole_intervals",
"crs": { "type": "name", "properties": { "name": "urn:ogc:def:crs:OGC:1.3:CRS84" } },
"features": [
{ "type": "Feature", "properties": { "Borehole_ID": "DUDHICHUA-BH-001", "Mine_ID": "M-DUDHICHUA", "Mine_Code": "DUDHICHUA", "Mine_Name": "Dudhichua OCP", "Interval_No": 1, "From_Depth_m": 0.0, "To_Depth_m": 22.73, "Thickness_m": 22.73, "Lithology": "Shale", "Stratigraphic_Unit": "Coal-bearing sequence", "Coal_Bearing": "NO", "Coal_Seam": "", "Weathering_Class": "Slight", "Sample_ID": "DUDHICHUA-001-S01", "Data_Type": "SYNTHETIC_DEMO", "Source_Provenance": "Synthetic borehole interval generated to match GeoVault demonstration corpus" }, "geometry": { "type": "Point", "coordinates": [ 82.721906, 24.131593 ] } },
{ "type": "Feature", "properties": { "Borehole_ID": "DUDHICHUA-BH-001", "Mine_ID": "M-DUDHICHUA", "Mine_Code": "DUDHICHUA", "Mine_Name": "Dudhichua OCP", "Interval_No": 2, "From_Depth_m": 22.73, "To_Depth_m": 45.46, "Thickness_m": 22.73, "Lithology": "Sandstone", "Stratigraphic_Unit": "Overburden", "Coal_Bearing": "NO", "Coal_Seam": "", "Weathering_Class": "Slight", "Sample_ID": "DUDHICHUA-001-S02", "Data_Type": "SYNTHETIC_DEMO", "Source_Provenance": "Synthetic borehole interval generated to match GeoVault demonstration corpus" }, "geometry": { "type": "Point", "coordinates": [ 82.721906, 24.131593 ] } },
{ "type": "Feature", "properties": { "Borehole_ID": "DUDHICHUA-BH-001", "Mine_ID": "M-DUDHICHUA", "Mine_Code": "DUDHICHUA", "Mine_Name": "Dudhichua OCP", "Interval_No": 3, "From_Depth_m": 45.46, "To_Depth_m": 68.19, "Thickness_m": 22.73, "Lithology": "Siltstone", "Stratigraphic_Unit": "Coal-bearing sequence", "Coal_Bearing": "NO", "Coal_Seam": "", "Weathering_Class": "Fresh", "Sample_ID": "DUDHICHUA-001-S03", "Data_Type": "SYNTHETIC_DEMO", "Source_Provenance": "Synthetic borehole interval generated to match GeoVault demonstration corpus" }, "geometry": { "type": "Point", "coordinates": [ 82.721906, 24.131593 ] } },
{ "type": "Feature", "properties": { "Borehole_ID": "DUDHICHUA-BH-001", "Mine_ID": "M-DUDHICHUA", "Mine_Code": "DUDHICHUA", "Mine_Name": "Dudhichua OCP", "Interval_No": 4, "From_Depth_m": 68.19, "To_Depth_m": 90.92, "Thickness_m": 22.73, "Lithology": "Shale", "Stratigraphic_Unit": "Barakar-equivalent demo unit", "Coal_Bearing": "NO", "Coal_Seam": "", "Weathering_Class": "Fresh", "Sample_ID": "DUDHICHUA-001-S04", "Data_Type": "SYNTHETIC_DEMO", "Source_Provenance": "Synthetic borehole interval generated to match GeoVault demonstration corpus" }, "geometry": { "type": "Point", "coordinates": [ 82.721906, 24.131593 ] } },
{ "type": "Feature", "properties": { "Borehole_ID": "DUDHICHUA-BH-001", "Mine_ID": "M-DUDHICHUA", "Mine_Code": "DUDHICHUA", "Mine_Name": "Dudhichua OCP", "Interval_No": 5, "From_Depth_m": 90.92, "To_Depth_m": 113.65, "Thickness_m": 22.73, "Lithology": "Sandstone", "Stratigraphic_Unit": "Barakar-equivalent demo unit", "Coal_Bearing": "NO", "Coal_Seam": "", "Weathering_Class": "Fresh", "Sample_ID": "DUDHICHUA-001-S05", "Data_Type": "SYNTHETIC_DEMO", "Source_Provenance": "Synthetic borehole interval generated to match GeoVault demonstration corpus" }, "geometry": { "type": "Point", "coordinates": [ 82.721906, 24.131593 ] } },
{ "type": "Feature", "properties": { "Borehole_ID": "DUDHICHUA-BH-001", "Mine_ID": "M-DUDHICHUA", "Mine_Code": "DUDHICHUA", "Mine_Name": "Dudhichua OCP", "Interval_No": 6, "From_Depth_m": 113.65, "To_Depth_m": 136.38, "Thickness_m": 22.73, "Lithology": "Siltstone", "Stratigraphic_Unit": "Barakar-equivalent demo unit", "Coal_Bearing": "NO", "Coal_Seam": "", "Weathering_Class": "Fresh", "Sample_ID": "DUDHICHUA-001-S06", "Data_Type": "SYNTHETIC_DEMO", "Source_Provenance": "Synthetic borehole interval generated to match GeoVault demonstration corpus" }, "geometry": { "type": "Point", "coordinates": [ 82.721906, 24.131593 ] } },
{ "type": "Feature", "properties": { "Borehole_ID": "DUDHICHUA-BH-001", "Mine_ID": "M-DUDHICHUA", "Mine_Code": "DUDHICHUA", "Mine_Name": "Dudhichua OCP", "Interval_No": 7, "From_Depth_m": 136.38, "To_Depth_m": 159.11, "Thickness_m": 22.73, "Lithology": "Carbonaceous Shale", "Stratigraphic_Unit": "Barakar-equivalent demo unit", "Coal_Bearing": "NO", "Coal_Seam": "", "Weathering_Class": "Fresh", "Sample_ID": "DUDHICHUA-001-S07", "Data_Type": "SYNTHETIC_DEMO", "Source_Provenance": "Synthetic borehole interval generated to match GeoVault demonstration corpus" }, "geometry": { "type": "Point", "coordinates": [ 82.721906, 24.131593 ] } },
{ "type": "Feature", "properties": { "Borehole_ID": "DUDHICHUA-BH-001", "Mine_ID": "M-DUDHICHUA", "Mine_Code": "DUDHICHUA", "Mine_Name": "Dudhichua OCP", "Interval_No": 8, "From_Depth_m": 159.11, "To_Depth_m": 181.84, "Thickness_m": 22.73, "Lithology": "Coal", "Stratigraphic_Unit": "Barakar-equivalent demo unit", "Coal_Bearing": "YES", "Coal_Seam": "GV-DUD-S4", "Weathering_Class": "Fresh", "Sample_ID": "DUDHICHUA-001-S08", "Data_Type": "SYNTHETIC_DEMO", "Source_Provenance": "Synthetic borehole interval generated to match GeoVault demonstration corpus" }, "geometry": { "type": "Point", "coordinates": [ 82.721906, 24.131593 ] } },
{ "type": "Feature", "properties": { "Borehole_ID": "DUDHICHUA-BH-001", "Mine_ID": "M-DUDHICHUA", "Mine_Code": "DUDHICHUA", "Mine_Name": "Dudhichua OCP", "Interval_No": 9, "From_Depth_m": 181.84, "To_Depth_m": 204.57, "Thickness_m": 22.73, "Lithology": "Sandstone", "Stratigraphic_Unit": "Barakar-equivalent demo unit", "Coal_Bearing": "NO", "Coal_Seam": "", "Weathering_Class": "Fresh", "Sample_ID": "DUDHICHUA-001-S09", "Data_Type": "SYNTHETIC_DEMO", "Source_Provenance": "Synthetic borehole interval generated to match GeoVault demonstration corpus" }, "geometry": { "type": "Point", "coordinates": [ 82.721906, 24.131593 ] } },
{ "type": "Feature", "properties": { "Borehole_ID": "DUDHICHUA-BH-001", "Mine_ID": "M-DUDHICHUA", "Mine_Code": "DUDHICHUA", "Mine_Name": "Dudhichua OCP", "Interval_No": 10, "From_Depth_m": 204.57, "To_Depth_m": 227.3, "Thickness_m": 22.73, "Lithology": "Mudstone", "Stratigraphic_Unit": "Underlying sedimentary sequence", "Coal_Bearing": "NO", "Coal_Seam": "", "Weathering_Class": "Fresh", "Sample_ID": "DUDHICHUA-001-S10", "Data_Type": "SYNTHETIC_DEMO", "Source_Provenance": "Synthetic borehole interval generated to match GeoVault demonstration corpus" }, "geometry": { "type": "Point", "coordinates": [ 82.721906, 24.131593 ] } },
{ "type": "Feature", "properties": { "Borehole_ID": "DUDHICHUA-BH-002", "Mine_ID": "M-DUDHICHUA", "Mine_Code": "DUDHICHUA", "Mine_Name": "Dudhichua OCP", "Interval_No": 1, "From_Depth_m": 0.0, "To_Depth_m": 18.67, "Thickness_m": 18.67, "Lithology": "Interbedded Sandstone-Shale", "Stratigraphic_Unit": "Underlying sedimentary sequence", "Coal_Bearing": "NO", "Coal_Seam": "", "Weathering_Class": "Moderate", "Sample_ID": "DUDHICHUA-002-S01", "Data_Type": "SYNTHETIC_DEMO", "Source_Provenance": "Synthetic borehole interval generated to match GeoVault demonstration corpus" }, "geometry": { "type": "Point", "coordinates": [ 82.736377, 24.130621 ] } },
{ "type": "Feature", "properties": { "Borehole_ID": "DUDHICHUA-BH-002", "Mine_ID": "M-DUDHICHUA", "Mine_Code": "DUDHICHUA", "Mine_Name": "Dudhichua OCP", "Interval_No": 2, "From_Depth_m": 18.67, "To_Depth_m": 37.34, "Thickness_m": 18.67, "Lithology": "Siltstone", "Stratigraphic_Unit": "Barakar-equivalent demo unit", "Coal_Bearing": "NO", "Coal_Seam": "", "Weathering_Class": "Moderate", "Sample_ID": "DUDHICHUA-002-S02", "Data_Type": "SYNTHETIC_DEMO", "Source_Provenance": "Synthetic borehole interval generated to match GeoVault demonstration corpus" }, "geometry": { "type": "Point", "coordinates": [ 82.736377, 24.130621 ] } },
{ "type": "Feature", "properties": { "Borehole_ID": "DUDHICHUA-BH-002", "Mine_ID": "M-DUDHICHUA", "Mine_Code": "DUDHICHUA", "Mine_Name": "Dudhichua OCP", "Interval_No": 3, "From_Depth_m": 37.34, "To_Depth_m": 56.01, "Thickness_m": 18.67, "Lithology": "Sandstone", "Stratigraphic_Unit": "Underlying sedimentary sequence", "Coal_Bearing": "NO", "Coal_Seam": "", "Weathering_Class": "Fresh", "Sample_ID": "DUDHICHUA-002-S03", "Data_Type": "SYNTHETIC_DEMO", "Source_Provenance": "Synthetic borehole interval generated to match GeoVault demonstration corpus" }, "geometry": { "type": "Point", "coordinates": [ 82.736377, 24.130621 ] } },
{ "type": "Feature", "properties": { "Borehole_ID": "DUDHICHUA-BH-002", "Mine_ID": "M-DUDHICHUA", "Mine_Code": "DUDHICHUA", "Mine_Name": "Dudhichua OCP", "Interval_No": 4, "From_Depth_m": 56.01, "To_Depth_m": 74.68, "Thickness_m": 18.67, "Lithology": "Mudstone", "Stratigraphic_Unit": "Coal-bearing sequence", "Coal_Bearing": "NO", "Coal_Seam": "", "Weathering_Class": "Fresh", "Sample_ID": "DUDHICHUA-002-S04", "Data_Type": "SYNTHETIC_DEMO", "Source_Provenance": "Synthetic borehole interval generated to match GeoVault demonstration corpus" }, "geometry": { "type": "Point", "coordinates": [ 82.736377, 24.130621 ] } },
{ "type": "Feature", "properties": { "Borehole_ID": "DUDHICHUA-BH-002", "Mine_ID": "M-DUDHICHUA", "Mine_Code": "DUDHICHUA", "Mine_Name": "Dudhichua OCP", "Interval_No": 5, "From_Depth_m": 74.68, "To_Depth_m": 93.35, "Thickness_m": 18.67, "Lithology": "Siltstone", "Stratigraphic_Unit": "Overburden", "Coal_Bearing": "NO", "Coal_Seam": "", "Weathering_Class": "Fresh", "Sample_ID": "DUDHICHUA-002-S05", "Data_Type": "SYNTHETIC_DEMO", "Source_Provenance": "Synthetic borehole interval generated to match GeoVault demonstration corpus" }, "geometry": { "type": "Point", "coordinates": [ 82.736377, 24.130621 ] } },
{ "type": "Feature", "properties": { "Borehole_ID": "DUDHICHUA-BH-002", "Mine_ID": "M-DUDHICHUA", "Mine_Code": "DUDHICHUA", "Mine_Name": "Dudhichua OCP", "Interval_No": 6, "From_Depth_m": 93.35, "To_Depth_m": 112.02, "Thickness_m": 18.67, "Lithology": "Siltstone", "Stratigraphic_Unit": "Overburden", "Coal_Bearing": "NO", "Coal_Seam": "", "Weathering_Class": "Fresh", "Sample_ID": "DUDHICHUA-002-S06", "Data_Type": "SYNTHETIC_DEMO", "Source_Provenance": "Synthetic borehole interval generated to match GeoVault demonstration corpus" }, "geometry": { "type": "Point", "coordinates": [ 82.736377, 24.130621 ] } },
{ "type": "Feature", "properties": { "Borehole_ID": "DUDHICHUA-BH-002", "Mine_ID": "M-DUDHICHUA", "Mine_Code": "DUDHICHUA", "Mine_Name": "Dudhichua OCP", "Interval_No": 7, "From_Depth_m": 112.02, "To_Depth_m": 130.69, "Thickness_m": 18.67, "Lithology": "Carbonaceous Shale", "Stratigraphic_Unit": "Coal-bearing sequence", "Coal_Bearing": "NO", "Coal_Seam": "", "Weathering_Class": "Fresh", "Sample_ID": "DUDHICHUA-002-S07", "Data_Type": "SYNTHETIC_DEMO", "Source_Provenance": "Synthetic borehole interval generated to match GeoVault demonstration corpus" }, "geometry": { "type": "Point", "coordinates": [ 82.736377, 24.130621 ] } },
{ "type": "Feature", "properties": { "Borehole_ID": "DUDHICHUA-BH-002", "Mine_ID": "M-DUDHICHUA", "Mine_Code": "DUDHICHUA", "Mine_Name": "Dudhichua OCP", "Interval_No": 8, "From_Depth_m": 130.69, "To_Depth_m": 149.36, "Thickness_m": 18.67, "Lithology": "Coal", "Stratigraphic_Unit": "Underlying sedimentary sequence", "Coal_Bearing": "YES", "Coal_Seam": "GV-DUD-S3", "Weathering_Class": "Fresh", "Sample_ID": "DUDHICHUA-002-S08", "Data_Type": "SYNTHETIC_DEMO", "Source_Provenance": "Synthetic borehole interval generated to match GeoVault demonstration corpus" }, "geometry": { "type": "Point", "coordinates": [ 82.736377, 24.130621 ] } },
{ "type": "Feature", "properties": { "Borehole_ID": "DUDHICHUA-BH-002", "Mine_ID": "M-DUDHICHUA", "Mine_Code": "DUDHICHUA", "Mine_Name": "Dudhichua OCP", "Interval_No": 9, "From_Depth_m": 149.36, "To_Depth_m": 168.03, "Thickness_m": 18.67, "Lithology": "Mudstone", "Stratigraphic_Unit": "Overburden", "Coal_Bearing": "NO", "Coal_Seam": "", "Weathering_Class": "Fresh", "Sample_ID": "DUDHICHUA-002-S09", "Data_Type": "SYNTHETIC_DEMO", "Source_Provenance": "Synthetic borehole interval generated to match GeoVault demonstration corpus" }, "geometry": { "type": "Point", "coordinates": [ 82.736377, 24.130621 ] } },
{ "type": "Feature", "properties": { "Borehole_ID": "DUDHICHUA-BH-002", "Mine_ID": "M-DUDHICHUA", "Mine_Code": "DUDHICHUA", "Mine_Name": "Dudhichua OCP", "Interval_No": 10, "From_Depth_m": 168.03, "To_Depth_m": 186.7, "Thickness_m": 18.67, "Lithology": "Sandstone", "Stratigraphic_Unit": "Coal-bearing sequence", "Coal_Bearing": "NO", "Coal_Seam": "", "Weathering_Class": "Fresh", "Sample_ID": "DUDHICHUA-002-S10", "Data_Type": "SYNTHETIC_DEMO", "Source_Provenance": "Synthetic borehole interval generated to match GeoVault demonstration corpus" }, "geometry": { "type": "Point", "coordinates": [ 82.736377, 24.130621 ] } },
{ "type": "Feature", "properties": { "Borehole_ID": "DUDHICHUA-BH-003", "Mine_ID": "M-DUDHICHUA", "Mine_Code": "DUDHICHUA", "Mine_Name": "Dudhichua OCP", "Interval_No": 1, "From_Depth_m": 0.0, "To_Depth_m": 14.57, "Thickness_m": 14.57, "Lithology": "Siltstone", "Stratigraphic_Unit": "Overburden", "Coal_Bearing": "NO", "Coal_Seam": "", "Weathering_Class": "Slight", "Sample_ID": "DUDHICHUA-003-S01", "Data_Type": "SYNTHETIC_DEMO", "Source_Provenance": "Synthetic borehole interval generated to match GeoVault demonstration corpus" }, "geometry": { "type": "Point", "coordinates": [ 82.702493, 24.150131 ] } },
{ "type": "Feature", "properties": { "Borehole_ID": "DUDHICHUA-BH-003", "Mine_ID": "M-DUDHICHUA", "Mine_Code": "DUDHICHUA", "Mine_Name": "Dudhichua OCP", "Interval_No": 2, "From_Depth_m": 14.57, "To_Depth_m": 29.14, "Thickness_m": 14.57, "Lithology": "Interbedded Sandstone-Shale", "Stratigraphic_Unit": "Underlying sedimentary sequence", "Coal_Bearing": "NO", "Coal_Seam": "", "Weathering_Class": "Moderate", "Sample_ID": "DUDHICHUA-003-S02", "Data_Type": "SYNTHETIC_DEMO", "Source_Provenance": "Synthetic borehole interval generated to match GeoVault demonstration corpus" }, "geometry": { "type": "Point", "coordinates": [ 82.702493, 24.150131 ] } },
{ "type": "Feature", "properties": { "Borehole_ID": "DUDHICHUA-BH-003", "Mine_ID": "M-DUDHICHUA", "Mine_Code": "DUDHICHUA", "Mine_Name": "Dudhichua OCP", "Interval_No": 3, "From_Depth_m": 29.14, "To_Depth_m": 43.71, "Thickness_m": 14.57, "Lithology": "Interbedded Sandstone-Shale", "Stratigraphic_Unit": "Overburden", "Coal_Bearing": "NO", "Coal_Seam": "", "Weathering_Class": "Fresh", "Sample_ID": "DUDHICHUA-003-S03", "Data_Type": "SYNTHETIC_DEMO", "Source_Provenance": "Synthetic borehole interval generated to match GeoVault demonstration corpus" }, "geometry": { "type": "Point", "coordinates": [ 82.702493, 24.150131 ] } },
{ "type": "Feature", "properties": { "Borehole_ID": "DUDHICHUA-BH-003", "Mine_ID": "M-DUDHICHUA", "Mine_Code": "DUDHICHUA", "Mine_Name": "Dudhichua OCP", "Interval_No": 4, "From_Depth_m": 43.71, "To_Depth_m": 58.28, "Thickness_m": 14.57, "Lithology": "Carbonaceous Shale", "Stratigraphic_Unit": "Underlying sedimentary sequence", "Coal_Bearing": "NO", "Coal_Seam": "", "Weathering_Class": "Fresh", "Sample_ID": "DUDHICHUA-003-S04", "Data_Type": "SYNTHETIC_DEMO", "Source_Provenance": "Synthetic borehole interval generated to match GeoVault demonstration corpus" }, "geometry": { "type": "Point", "coordinates": [ 82.702493, 24.150131 ] } },
{ "type": "Feature", "properties": { "Borehole_ID": "DUDHICHUA-BH-003", "Mine_ID": "M-DUDHICHUA", "Mine_Code": "DUDHICHUA", "Mine_Name": "Dudhichua OCP", "Interval_No": 5, "From_Depth_m": 58.28, "To_Depth_m": 72.85, "Thickness_m": 14.57, "Lithology": "Coal", "Stratigraphic_Unit": "Barakar-equivalent demo unit", "Coal_Bearing": "YES", "Coal_Seam": "GV-DUD-S3", "Weathering_Class": "Fresh", "Sample_ID": "DUDHICHUA-003-S05", "Data_Type": "SYNTHETIC_DEMO", "Source_Provenance": "Synthetic borehole interval generated to match GeoVault demonstration corpus" }, "geometry": { "type": "Point", "coordinates": [ 82.702493, 24.150131 ] } },
{ "type": "Feature", "properties": { "Borehole_ID": "DUDHICHUA-BH-003", "Mine_ID": "M-DUDHICHUA", "Mine_Code": "DUDHICHUA", "Mine_Name": "Dudhichua OCP", "Interval_No": 6, "From_Depth_m": 72.85, "To_Depth_m": 87.42, "Thickness_m": 14.57, "Lithology": "Siltstone", "Stratigraphic_Unit": "Underlying sedimentary sequence", "Coal_Bearing": "NO", "Coal_Seam": "", "Weathering_Class": "Fresh", "Sample_ID": "DUDHICHUA-003-S06", "Data_Type": "SYNTHETIC_DEMO", "Source_Provenance": "Synthetic borehole interval generated to match GeoVault demonstration corpus" }, "geometry": { "type": "Point", "coordinates": [ 82.702493, 24.150131 ] } },
{ "type": "Feature", "properties": { "Borehole_ID": "DUDHICHUA-BH-003", "Mine_ID": "M-DUDHICHUA", "Mine_Code": "DUDHICHUA", "Mine_Name": "Dudhichua OCP", "Interval_No": 7, "From_Depth_m": 87.42, "To_Depth_m": 101.99, "Thickness_m": 14.57, "Lithology": "Interbedded Sandstone-Shale", "Stratigraphic_Unit": "Barakar-equivalent demo unit", "Coal_Bearing": "NO", "Coal_Seam": "", "Weathering_Class": "Fresh", "Sample_ID": "DUDHICHUA-003-S07", "Data_Type": "SYNTHETIC_DEMO", "Source_Provenance": "Synthetic borehole interval generated to match GeoVault demonstration corpus" }, "geometry": { "type": "Point", "coordinates": [ 82.702493, 24.150131 ] } },
{ "type": "Feature", "properties": { "Borehole_ID": "DUDHICHUA-BH-003", "Mine_ID": "M-DUDHICHUA", "Mine_Code": "DUDHICHUA", "Mine_Name": "Dudhichua OCP", "Interval_No": 8, "From_Depth_m": 101.99, "To_Depth_m": 116.56, "Thickness_m": 14.57, "Lithology": "Sandstone", "Stratigraphic_Unit": "Underlying sedimentary sequence", "Coal_Bearing": "NO", "Coal_Seam": "", "Weathering_Class": "Fresh", "Sample_ID": "DUDHICHUA-003-S08", "Data_Type": "SYNTHETIC_DEMO", "Source_Provenance": "Synthetic borehole interval generated to match GeoVault demonstration corpus" }, "geometry": { "type": "Point", "coordinates": [ 82.702493, 24.150131 ] } },
{ "type": "Feature", "properties": { "Borehole_ID": "DUDHICHUA-BH-003", "Mine_ID": "M-DUDHICHUA", "Mine_Code": "DUDHICHUA", "Mine_Name": "Dudhichua OCP", "Interval_No": 9, "From_Depth_m": 116.56, "To_Depth_m": 131.13, "Thickness_m": 14.57, "Lithology": "Sandstone", "Stratigraphic_Unit": "Coal-bearing sequence", "Coal_Bearing": "NO", "Coal_Seam": "", "Weathering_Class": "Fresh", "Sample_ID": "DUDHICHUA-003-S09", "Data_Type": "SYNTHETIC_DEMO", "Source_Provenance": "Synthetic borehole interval generated to match GeoVault demonstration corpus" }, "geometry": { "type": "Point", "coordinates": [ 82.702493, 24.150131 ] } },
{ "type": "Feature", "properties": { "Borehole_ID": "DUDHICHUA-BH-003", "Mine_ID": "M-DUDHICHUA", "Mine_Code": "DUDHICHUA", "Mine_Name": "Dudhichua OCP", "Interval_No": 10, "From_Depth_m": 131.13, "To_Depth_m": 145.7, "Thickness_m": 14.57, "Lithology": "Sandstone", "Stratigraphic_Unit": "Barakar-equivalent demo unit", "Coal_Bearing": "NO", "Coal_Seam": "", "Weathering_Class": "Fresh", "Sample_ID": "DUDHICHUA-003-S10", "Data_Type": "SYNTHETIC_DEMO", "Source_Provenance": "Synthetic borehole interval generated to match GeoVault demonstration corpus" }, "geometry": { "type": "Point", "coordinates": [ 82.702493, 24.150131 ] } },
{ "type": "Feature", "properties": { "Borehole_ID": "DUDHICHUA-BH-004", "Mine_ID": "M-DUDHICHUA", "Mine_Code": "DUDHICHUA", "Mine_Name": "Dudhichua OCP", "Interval_No": 1, "From_Depth_m": 0.0, "To_Depth_m": 10.45, "Thickness_m": 10.45, "Lithology": "Sandstone", "Stratigraphic_Unit": "Barakar-equivalent demo unit", "Coal_Bearing": "NO", "Coal_Seam": "", "Weathering_Class": "Moderate", "Sample_ID": "DUDHICHUA-004-S01", "Data_Type": "SYNTHETIC_DEMO", "Source_Provenance": "Synthetic borehole interval generated to match GeoVault demonstration corpus" }, "geometry": { "type": "Point", "coordinates": [ 82.723678, 24.141801 ] } },
{ "type": "Feature", "properties": { "Borehole_ID": "DUDHICHUA-BH-004", "Mine_ID": "M-DUDHICHUA", "Mine_Code": "DUDHICHUA", "Mine_Name": "Dudhichua OCP", "Interval_No": 2, "From_Depth_m": 10.45, "To_Depth_m": 20.9, "Thickness_m": 10.45, "Lithology": "Mudstone", "Stratigraphic_Unit": "Barakar-equivalent demo unit", "Coal_Bearing": "NO", "Coal_Seam": "", "Weathering_Class": "Moderate", "Sample_ID": "DUDHICHUA-004-S02", "Data_Type": "SYNTHETIC_DEMO", "Source_Provenance": "Synthetic borehole interval generated to match GeoVault demonstration corpus" }, "geometry": { "type": "Point", "coordinates": [ 82.723678, 24.141801 ] } },
{ "type": "Feature", "properties": { "Borehole_ID": "DUDHICHUA-BH-004", "Mine_ID": "M-DUDHICHUA", "Mine_Code": "DUDHICHUA", "Mine_Name": "Dudhichua OCP", "Interval_No": 3, "From_Depth_m": 20.9, "To_Depth_m": 31.35, "Thickness_m": 10.45, "Lithology": "Siltstone", "Stratigraphic_Unit": "Coal-bearing sequence", "Coal_Bearing": "NO", "Coal_Seam": "", "Weathering_Class": "Moderate", "Sample_ID": "DUDHICHUA-004-S03", "Data_Type": "SYNTHETIC_DEMO", "Source_Provenance": "Synthetic borehole interval generated to match GeoVault demonstration corpus" }, "geometry": { "type": "Point", "coordinates": [ 82.723678, 24.141801 ] } },
{ "type": "Feature", "properties": { "Borehole_ID": "DUDHICHUA-BH-004", "Mine_ID": "M-DUDHICHUA", "Mine_Code": "DUDHICHUA", "Mine_Name": "Dudhichua OCP", "Interval_No": 4, "From_Depth_m": 31.35, "To_Depth_m": 41.8, "Thickness_m": 10.45, "Lithology": "Carbonaceous Shale", "Stratigraphic_Unit": "Underlying sedimentary sequence", "Coal_Bearing": "NO", "Coal_Seam": "", "Weathering_Class": "Fresh", "Sample_ID": "DUDHICHUA-004-S04", "Data_Type": "SYNTHETIC_DEMO", "Source_Provenance": "Synthetic borehole interval generated to match GeoVault demonstration corpus" }, "geometry": { "type": "Point", "coordinates": [ 82.723678, 24.141801 ] } },
{ "type": "Feature", "properties": { "Borehole_ID": "DUDHICHUA-BH-004", "Mine_ID": "M-DUDHICHUA", "Mine_Code": "DUDHICHUA", "Mine_Name": "Dudhichua OCP", "Interval_No": 5, "From_Depth_m": 41.8, "To_Depth_m": 52.25, "Thickness_m": 10.45, "Lithology": "Coal", "Stratigraphic_Unit": "Coal-bearing sequence", "Coal_Bearing": "YES", "Coal_Seam": "GV-DUD-S1", "Weathering_Class": "Fresh", "Sample_ID": "DUDHICHUA-004-S05", "Data_Type": "SYNTHETIC_DEMO", "Source_Provenance": "Synthetic borehole interval generated to match GeoVault demonstration corpus" }, "geometry": { "type": "Point", "coordinates": [ 82.723678, 24.141801 ] } },
{ "type": "Feature", "properties": { "Borehole_ID": "DUDHICHUA-BH-004", "Mine_ID": "M-DUDHICHUA", "Mine_Code": "DUDHICHUA", "Mine_Name": "Dudhichua OCP", "Interval_No": 6, "From_Depth_m": 52.25, "To_Depth_m": 62.7, "Thickness_m": 10.45, "Lithology": "Interbedded Sandstone-Shale", "Stratigraphic_Unit": "Overburden", "Coal_Bearing": "NO", "Coal_Seam": "", "Weathering_Class": "Fresh", "Sample_ID": "DUDHICHUA-004-S06", "Data_Type": "SYNTHETIC_DEMO", "Source_Provenance": "Synthetic borehole interval generated to match GeoVault demonstration corpus" }, "geometry": { "type": "Point", "coordinates": [ 82.723678, 24.141801 ] } },
{ "type": "Feature", "properties": { "Borehole_ID": "DUDHICHUA-BH-004", "Mine_ID": "M-DUDHICHUA", "Mine_Code": "DUDHICHUA", "Mine_Name": "Dudhichua OCP", "Interval_No": 7, "From_Depth_m": 62.7, "To_Depth_m": 73.15, "Thickness_m": 10.45, "Lithology": "Siltstone", "Stratigraphic_Unit": "Overburden", "Coal_Bearing": "NO", "Coal_Seam": "", "Weathering_Class": "Fresh", "Sample_ID": "DUDHICHUA-004-S07", "Data_Type": "SYNTHETIC_DEMO", "Source_Provenance": "Synthetic borehole interval generated to match GeoVault demonstration corpus" }, "geometry": { "type": "Point", "coordinates": [ 82.723678, 24.141801 ] } },
{ "type": "Feature", "properties": { "Borehole_ID": "DUDHICHUA-BH-004", "Mine_ID": "M-DUDHICHUA", "Mine_Code": "DUDHICHUA", "Mine_Name": "Dudhichua OCP", "Interval_No": 8, "From_Depth_m": 73.15, "To_Depth_m": 83.6, "Thickness_m": 10.45, "Lithology": "Siltstone", "Stratigraphic_Unit": "Overburden", "Coal_Bearing": "NO", "Coal_Seam": "", "Weathering_Class": "Fresh", "Sample_ID": "DUDHICHUA-004-S08", "Data_Type": "SYNTHETIC_DEMO", "Source_Provenance": "Synthetic borehole interval generated to match GeoVault demonstration corpus" }, "geometry": { "type": "Point", "coordinates": [ 82.723678, 24.141801 ] } },
{ "type": "Feature", "properties": { "Borehole_ID": "DUDHICHUA-BH-004", "Mine_ID": "M-DUDHICHUA", "Mine_Code": "DUDHICHUA", "Mine_Name": "Dudhichua OCP", "Interval_No": 9, "From_Depth_m": 83.6, "To_Depth_m": 94.05, "Thickness_m": 10.45, "Lithology": "Interbedded Sandstone-Shale", "Stratigraphic_Unit": "Underlying sedimentary sequence", "Coal_Bearing": "NO", "Coal_Seam": "", "Weathering_Class": "Fresh", "Sample_ID": "DUDHICHUA-004-S09", "Data_Type": "SYNTHETIC_DEMO", "Source_Provenance": "Synthetic borehole interval generated to match GeoVault demonstration corpus" }, "geometry": { "type": "Point", "coordinates": [ 82.723678, 24.141801 ] } },
{ "type": "Feature", "properties": { "Borehole_ID": "DUDHICHUA-BH-004", "Mine_ID": "M-DUDHICHUA", "Mine_Code": "DUDHICHUA", "Mine_Name": "Dudhichua OCP", "Interval_No": 10, "From_Depth_m": 94.05, "To_Depth_m": 104.5, "Thickness_m": 10.45, "Lithology": "Siltstone", "Stratigraphic_Unit": "Coal-bearing sequence", "Coal_Bearing": "NO", "Coal_Seam": "", "Weathering_Class": "Fresh", "Sample_ID": "DUDHICHUA-004-S10", "Data_Type": "SYNTHETIC_DEMO", "Source_Provenance": "Synthetic borehole interval generated to match GeoVault demonstration corpus" }, "geometry": { "type": "Point", "coordinates": [ 82.723678, 24.141801 ] } },
{ "type": "Feature", "properties": { "Borehole_ID": "DUDHICHUA-BH-005", "Mine_ID": "M-DUDHICHUA", "Mine_Code": "DUDHICHUA", "Mine_Name": "Dudhichua OCP", "Interval_No": 1, "From_Depth_m": 0.0, "To_Depth_m": 20.12, "Thickness_m": 20.12, "Lithology": "Interbedded Sandstone-Shale", "Stratigraphic_Unit": "Barakar-equivalent demo unit", "Coal_Bearing": "NO", "Coal_Seam": "", "Weathering_Class": "Moderate", "Sample_ID": "DUDHICHUA-005-S01", "Data_Type": "SYNTHETIC_DEMO", "Source_Provenance": "Synthetic borehole interval generated to match GeoVault demonstration corpus" }, "geometry": { "type": "Point", "coordinates": [ 82.695302, 24.134154 ] } },
{ "type": "Feature", "properties": { "Borehole_ID": "DUDHICHUA-BH-005", "Mine_ID": "M-DUDHICHUA", "Mine_Code": "DUDHICHUA", "Mine_Name": "Dudhichua OCP", "Interval_No": 2, "From_Depth_m": 20.12, "To_Depth_m": 40.24, "Thickness_m": 20.12, "Lithology": "Sandstone", "Stratigraphic_Unit": "Barakar-equivalent demo unit", "Coal_Bearing": "NO", "Coal_Seam": "", "Weathering_Class": "Moderate", "Sample_ID": "DUDHICHUA-005-S02", "Data_Type": "SYNTHETIC_DEMO", "Source_Provenance": "Synthetic borehole interval generated to match GeoVault demonstration corpus" }, "geometry": { "type": "Point", "coordinates": [ 82.695302, 24.134154 ] } },
{ "type": "Feature", "properties": { "Borehole_ID": "DUDHICHUA-BH-005", "Mine_ID": "M-DUDHICHUA", "Mine_Code": "DUDHICHUA", "Mine_Name": "Dudhichua OCP", "Interval_No": 3, "From_Depth_m": 40.24, "To_Depth_m": 60.36, "Thickness_m": 20.12, "Lithology": "Siltstone", "Stratigraphic_Unit": "Underlying sedimentary sequence", "Coal_Bearing": "NO", "Coal_Seam": "", "Weathering_Class": "Fresh", "Sample_ID": "DUDHICHUA-005-S03", "Data_Type": "SYNTHETIC_DEMO", "Source_Provenance": "Synthetic borehole interval generated to match GeoVault demonstration corpus" }, "geometry": { "type": "Point", "coordinates": [ 82.695302, 24.134154 ] } },
{ "type": "Feature", "properties": { "Borehole_ID": "DUDHICHUA-BH-005", "Mine_ID": "M-DUDHICHUA", "Mine_Code": "DUDHICHUA", "Mine_Name": "Dudhichua OCP", "Interval_No": 4, "From_Depth_m": 60.36, "To_Depth_m": 80.48, "Thickness_m": 20.12, "Lithology": "Shale", "Stratigraphic_Unit": "Overburden", "Coal_Bearing": "NO", "Coal_Seam": "", "Weathering_Class": "Fresh", "Sample_ID": "DUDHICHUA-005-S04", "Data_Type": "SYNTHETIC_DEMO", "Source_Provenance": "Synthetic borehole interval generated to match GeoVault demonstration corpus" }, "geometry": { "type": "Point", "coordinates": [ 82.695302, 24.134154 ] } },
{ "type": "Feature", "properties": { "Borehole_ID": "DUDHICHUA-BH-005", "Mine_ID": "M-DUDHICHUA", "Mine_Code": "DUDHICHUA", "Mine_Name": "Dudhichua OCP", "Interval_No": 5, "From_Depth_m": 80.48, "To_Depth_m": 100.6, "Thickness_m": 20.12, "Lithology": "Carbonaceous Shale", "Stratigraphic_Unit": "Coal-bearing sequence", "Coal_Bearing": "NO", "Coal_Seam": "", "Weathering_Class": "Fresh", "Sample_ID": "DUDHICHUA-005-S05", "Data_Type": "SYNTHETIC_DEMO", "Source_Provenance": "Synthetic borehole interval generated to match GeoVault demonstration corpus" }, "geometry": { "type": "Point", "coordinates": [ 82.695302, 24.134154 ] } },
{ "type": "Feature", "properties": { "Borehole_ID": "DUDHICHUA-BH-005", "Mine_ID": "M-DUDHICHUA", "Mine_Code": "DUDHICHUA", "Mine_Name": "Dudhichua OCP", "Interval_No": 6, "From_Depth_m": 100.6, "To_Depth_m": 120.72, "Thickness_m": 20.12, "Lithology": "Coal", "Stratigraphic_Unit": "Underlying sedimentary sequence", "Coal_Bearing": "YES", "Coal_Seam": "GV-DUD-S2", "Weathering_Class": "Fresh", "Sample_ID": "DUDHICHUA-005-S06", "Data_Type": "SYNTHETIC_DEMO", "Source_Provenance": "Synthetic borehole interval generated to match GeoVault demonstration corpus" }, "geometry": { "type": "Point", "coordinates": [ 82.695302, 24.134154 ] } },
{ "type": "Feature", "properties": { "Borehole_ID": "DUDHICHUA-BH-005", "Mine_ID": "M-DUDHICHUA", "Mine_Code": "DUDHICHUA", "Mine_Name": "Dudhichua OCP", "Interval_No": 7, "From_Depth_m": 120.72, "To_Depth_m": 140.84, "Thickness_m": 20.12, "Lithology": "Siltstone", "Stratigraphic_Unit": "Barakar-equivalent demo unit", "Coal_Bearing": "NO", "Coal_Seam": "", "Weathering_Class": "Fresh", "Sample_ID": "DUDHICHUA-005-S07", "Data_Type": "SYNTHETIC_DEMO", "Source_Provenance": "Synthetic borehole interval generated to match GeoVault demonstration corpus" }, "geometry": { "type": "Point", "coordinates": [ 82.695302, 24.134154 ] } },
{ "type": "Feature", "properties": { "Borehole_ID": "DUDHICHUA-BH-005", "Mine_ID": "M-DUDHICHUA", "Mine_Code": "DUDHICHUA", "Mine_Name": "Dudhichua OCP", "Interval_No": 8, "From_Depth_m": 140.84, "To_Depth_m": 160.96, "Thickness_m": 20.12, "Lithology": "Interbedded Sandstone-Shale", "Stratigraphic_Unit": "Overburden", "Coal_Bearing": "NO", "Coal_Seam": "", "Weathering_Class": "Fresh", "Sample_ID": "DUDHICHUA-005-S08", "Data_Type": "SYNTHETIC_DEMO", "Source_Provenance": "Synthetic borehole interval generated to match GeoVault demonstration corpus" }, "geometry": { "type": "Point", "coordinates": [ 82.695302, 24.134154 ] } },
{ "type": "Feature", "properties": { "Borehole_ID": "DUDHICHUA-BH-005", "Mine_ID": "M-DUDHICHUA", "Mine_Code": "DUDHICHUA", "Mine_Name": "Dudhichua OCP", "Interval_No": 9, "From_Depth_m": 160.96, "To_Depth_m": 181.08, "Thickness_m": 20.12, "Lithology": "Mudstone", "Stratigraphic_Unit": "Coal-bearing sequence", "Coal_Bearing": "NO", "Coal_Seam": "", "Weathering_Class": "Fresh", "Sample_ID": "DUDHICHUA-005-S09", "Data_Type": "SYNTHETIC_DEMO", "Source_Provenance": "Synthetic borehole interval generated to match GeoVault demonstration corpus" }, "geometry": { "type": "Point", "coordinates": [ 82.695302, 24.134154 ] } },
{ "type": "Feature", "properties": { "Borehole_ID": "DUDHICHUA-BH-005", "Mine_ID": "M-DUDHICHUA", "Mine_Code": "DUDHICHUA", "Mine_Name": "Dudhichua OCP", "Interval_No": 10, "From_Depth_m": 181.08, "To_Depth_m": 201.2, "Thickness_m": 20.12, "Lithology": "Sandstone", "Stratigraphic_Unit": "Coal-bearing sequence", "Coal_Bearing": "NO", "Coal_Seam": "", "Weathering_Class": "Fresh", "Sample_ID": "DUDHICHUA-005-S10", "Data_Type": "SYNTHETIC_DEMO", "Source_Provenance": "Synthetic borehole interval generated to match GeoVault demonstration corpus" }, "geometry": { "type": "Point", "coordinates": [ 82.695302, 24.134154 ] } },
{ "type": "Feature", "properties": { "Borehole_ID": "DUDHICHUA-BH-006", "Mine_ID": "M-DUDHICHUA", "Mine_Code": "DUDHICHUA", "Mine_Name": "Dudhichua OCP", "Interval_No": 1, "From_Depth_m": 0.0, "To_Depth_m": 22.72, "Thickness_m": 22.72, "Lithology": "Siltstone", "Stratigraphic_Unit": "Barakar-equivalent demo unit", "Coal_Bearing": "NO", "Coal_Seam": "", "Weathering_Class": "Slight", "Sample_ID": "DUDHICHUA-006-S01", "Data_Type": "SYNTHETIC_DEMO", "Source_Provenance": "Synthetic borehole interval generated to match GeoVault demonstration corpus" }, "geometry": { "type": "Point", "coordinates": [ 82.736817, 24.134724 ] } },
{ "type": "Feature", "properties": { "Borehole_ID": "DUDHICHUA-BH-006", "Mine_ID": "M-DUDHICHUA", "Mine_Code": "DUDHICHUA", "Mine_Name": "Dudhichua OCP", "Interval_No": 2, "From_Depth_m": 22.72, "To_Depth_m": 45.44, "Thickness_m": 22.72, "Lithology": "Siltstone", "Stratigraphic_Unit": "Underlying sedimentary sequence", "Coal_Bearing": "NO", "Coal_Seam": "", "Weathering_Class": "Slight", "Sample_ID": "DUDHICHUA-006-S02", "Data_Type": "SYNTHETIC_DEMO", "Source_Provenance": "Synthetic borehole interval generated to match GeoVault demonstration corpus" }, "geometry": { "type": "Point", "coordinates": [ 82.736817, 24.134724 ] } },
{ "type": "Feature", "properties": { "Borehole_ID": "DUDHICHUA-BH-006", "Mine_ID": "M-DUDHICHUA", "Mine_Code": "DUDHICHUA", "Mine_Name": "Dudhichua OCP", "Interval_No": 3, "From_Depth_m": 45.44, "To_Depth_m": 68.16, "Thickness_m": 22.72, "Lithology": "Carbonaceous Shale", "Stratigraphic_Unit": "Barakar-equivalent demo unit", "Coal_Bearing": "NO", "Coal_Seam": "", "Weathering_Class": "Fresh", "Sample_ID": "DUDHICHUA-006-S03", "Data_Type": "SYNTHETIC_DEMO", "Source_Provenance": "Synthetic borehole interval generated to match GeoVault demonstration corpus" }, "geometry": { "type": "Point", "coordinates": [ 82.736817, 24.134724 ] } },
{ "type": "Feature", "properties": { "Borehole_ID": "DUDHICHUA-BH-006", "Mine_ID": "M-DUDHICHUA", "Mine_Code": "DUDHICHUA", "Mine_Name": "Dudhichua OCP", "Interval_No": 4, "From_Depth_m": 68.16, "To_Depth_m": 90.88, "Thickness_m": 22.72, "Lithology": "Coal", "Stratigraphic_Unit": "Barakar-equivalent demo unit", "Coal_Bearing": "YES", "Coal_Seam": "GV-DUD-S3", "Weathering_Class": "Fresh", "Sample_ID": "DUDHICHUA-006-S04", "Data_Type": "SYNTHETIC_DEMO", "Source_Provenance": "Synthetic borehole interval generated to match GeoVault demonstration corpus" }, "geometry": { "type": "Point", "coordinates": [ 82.736817, 24.134724 ] } },
{ "type": "Feature", "properties": { "Borehole_ID": "DUDHICHUA-BH-006", "Mine_ID": "M-DUDHICHUA", "Mine_Code": "DUDHICHUA", "Mine_Name": "Dudhichua OCP", "Interval_No": 5, "From_Depth_m": 90.88, "To_Depth_m": 113.6, "Thickness_m": 22.72, "Lithology": "Shale", "Stratigraphic_Unit": "Overburden", "Coal_Bearing": "NO", "Coal_Seam": "", "Weathering_Class": "Fresh", "Sample_ID": "DUDHICHUA-006-S05", "Data_Type": "SYNTHETIC_DEMO", "Source_Provenance": "Synthetic borehole interval generated to match GeoVault demonstration corpus" }, "geometry": { "type": "Point", "coordinates": [ 82.736817, 24.134724 ] } },
{ "type": "Feature", "properties": { "Borehole_ID": "DUDHICHUA-BH-006", "Mine_ID": "M-DUDHICHUA", "Mine_Code": "DUDHICHUA", "Mine_Name": "Dudhichua OCP", "Interval_No": 6, "From_Depth_m": 113.6, "To_Depth_m": 136.32, "Thickness_m": 22.72, "Lithology": "Siltstone", "Stratigraphic_Unit": "Overburden", "Coal_Bearing": "NO", "Coal_Seam": "", "Weathering_Class": "Fresh", "Sample_ID": "DUDHICHUA-006-S06", "Data_Type": "SYNTHETIC_DEMO", "Source_Provenance": "Synthetic borehole interval generated to match GeoVault demonstration corpus" }, "geometry": { "type": "Point", "coordinates": [ 82.736817, 24.134724 ] } },
{ "type": "Feature", "properties": { "Borehole_ID": "DUDHICHUA-BH-006", "Mine_ID": "M-DUDHICHUA", "Mine_Code": "DUDHICHUA", "Mine_Name": "Dudhichua OCP", "Interval_No": 7, "From_Depth_m": 136.32, "To_Depth_m": 159.04, "Thickness_m": 22.72, "Lithology": "Interbedded Sandstone-Shale", "Stratigraphic_Unit": "Overburden", "Coal_Bearing": "NO", "Coal_Seam": "", "Weathering_Class": "Fresh", "Sample_ID": "DUDHICHUA-006-S07", "Data_Type": "SYNTHETIC_DEMO", "Source_Provenance": "Synthetic borehole interval generated to match GeoVault demonstration corpus" }, "geometry": { "type": "Point", "coordinates": [ 82.736817, 24.134724 ] } },
{ "type": "Feature", "properties": { "Borehole_ID": "DUDHICHUA-BH-006", "Mine_ID": "M-DUDHICHUA", "Mine_Code": "DUDHICHUA", "Mine_Name": "Dudhichua OCP", "Interval_No": 8, "From_Depth_m": 159.04, "To_Depth_m": 181.76, "Thickness_m": 22.72, "Lithology": "Siltstone", "Stratigraphic_Unit": "Barakar-equivalent demo unit", "Coal_Bearing": "NO", "Coal_Seam": "", "Weathering_Class": "Fresh", "Sample_ID": "DUDHICHUA-006-S08", "Data_Type": "SYNTHETIC_DEMO", "Source_Provenance": "Synthetic borehole interval generated to match GeoVault demonstration corpus" }, "geometry": { "type": "Point", "coordinates": [ 82.736817, 24.134724 ] } },
{ "type": "Feature", "properties": { "Borehole_ID": "DUDHICHUA-BH-006", "Mine_ID": "M-DUDHICHUA", "Mine_Code": "DUDHICHUA", "Mine_Name": "Dudhichua OCP", "Interval_No": 9, "From_Depth_m": 181.76, "To_Depth_m": 204.48, "Thickness_m": 22.72, "Lithology": "Interbedded Sandstone-Shale", "Stratigraphic_Unit": "Underlying sedimentary sequence", "Coal_Bearing": "NO", "Coal_Seam": "", "Weathering_Class": "Fresh", "Sample_ID": "DUDHICHUA-006-S09", "Data_Type": "SYNTHETIC_DEMO", "Source_Provenance": "Synthetic borehole interval generated to match GeoVault demonstration corpus" }, "geometry": { "type": "Point", "coordinates": [ 82.736817, 24.134724 ] } },
{ "type": "Feature", "properties": { "Borehole_ID": "DUDHICHUA-BH-006", "Mine_ID": "M-DUDHICHUA", "Mine_Code": "DUDHICHUA", "Mine_Name": "Dudhichua OCP", "Interval_No": 10, "From_Depth_m": 204.48, "To_Depth_m": 227.2, "Thickness_m": 22.72, "Lithology": "Shale", "Stratigraphic_Unit": "Barakar-equivalent demo unit", "Coal_Bearing": "NO", "Coal_Seam": "", "Weathering_Class": "Fresh", "Sample_ID": "DUDHICHUA-006-S10", "Data_Type": "SYNTHETIC_DEMO", "Source_Provenance": "Synthetic borehole interval generated to match GeoVault demonstration corpus" }, "geometry": { "type": "Point", "coordinates": [ 82.736817, 24.134724 ] } },
{ "type": "Feature", "properties": { "Borehole_ID": "DUDHICHUA-BH-007", "Mine_ID": "M-DUDHICHUA", "Mine_Code": "DUDHICHUA", "Mine_Name": "Dudhichua OCP", "Interval_No": 1, "From_Depth_m": 0.0, "To_Depth_m": 18.3, "Thickness_m": 18.3, "Lithology": "Shale", "Stratigraphic_Unit": "Barakar-equivalent demo unit", "Coal_Bearing": "NO", "Coal_Seam": "", "Weathering_Class": "Moderate", "Sample_ID": "DUDHICHUA-007-S01", "Data_Type": "SYNTHETIC_DEMO", "Source_Provenance": "Synthetic borehole interval generated to match GeoVault demonstration corpus" }, "geometry": { "type": "Point", "coordinates": [ 82.701816, 24.155007 ] } },
{ "type": "Feature", "properties": { "Borehole_ID": "DUDHICHUA-BH-007", "Mine_ID": "M-DUDHICHUA", "Mine_Code": "DUDHICHUA", "Mine_Name": "Dudhichua OCP", "Interval_No": 2, "From_Depth_m": 18.3, "To_Depth_m": 36.6, "Thickness_m": 18.3, "Lithology": "Sandstone", "Stratigraphic_Unit": "Underlying sedimentary sequence", "Coal_Bearing": "NO", "Coal_Seam": "", "Weathering_Class": "Moderate", "Sample_ID": "DUDHICHUA-007-S02", "Data_Type": "SYNTHETIC_DEMO", "Source_Provenance": "Synthetic borehole interval generated to match GeoVault demonstration corpus" }, "geometry": { "type": "Point", "coordinates": [ 82.701816, 24.155007 ] } },
{ "type": "Feature", "properties": { "Borehole_ID": "DUDHICHUA-BH-007", "Mine_ID": "M-DUDHICHUA", "Mine_Code": "DUDHICHUA", "Mine_Name": "Dudhichua OCP", "Interval_No": 3, "From_Depth_m": 36.6, "To_Depth_m": 54.9, "Thickness_m": 18.3, "Lithology": "Shale", "Stratigraphic_Unit": "Underlying sedimentary sequence", "Coal_Bearing": "NO", "Coal_Seam": "", "Weathering_Class": "Fresh", "Sample_ID": "DUDHICHUA-007-S03", "Data_Type": "SYNTHETIC_DEMO", "Source_Provenance": "Synthetic borehole interval generated to match GeoVault demonstration corpus" }, "geometry": { "type": "Point", "coordinates": [ 82.701816, 24.155007 ] } },
{ "type": "Feature", "properties": { "Borehole_ID": "DUDHICHUA-BH-007", "Mine_ID": "M-DUDHICHUA", "Mine_Code": "DUDHICHUA", "Mine_Name": "Dudhichua OCP", "Interval_No": 4, "From_Depth_m": 54.9, "To_Depth_m": 73.2, "Thickness_m": 18.3, "Lithology": "Interbedded Sandstone-Shale", "Stratigraphic_Unit": "Coal-bearing sequence", "Coal_Bearing": "NO", "Coal_Seam": "", "Weathering_Class": "Fresh", "Sample_ID": "DUDHICHUA-007-S04", "Data_Type": "SYNTHETIC_DEMO", "Source_Provenance": "Synthetic borehole interval generated to match GeoVault demonstration corpus" }, "geometry": { "type": "Point", "coordinates": [ 82.701816, 24.155007 ] } },
{ "type": "Feature", "properties": { "Borehole_ID": "DUDHICHUA-BH-007", "Mine_ID": "M-DUDHICHUA", "Mine_Code": "DUDHICHUA", "Mine_Name": "Dudhichua OCP", "Interval_No": 5, "From_Depth_m": 73.2, "To_Depth_m": 91.5, "Thickness_m": 18.3, "Lithology": "Mudstone", "Stratigraphic_Unit": "Barakar-equivalent demo unit", "Coal_Bearing": "NO", "Coal_Seam": "", "Weathering_Class": "Fresh", "Sample_ID": "DUDHICHUA-007-S05", "Data_Type": "SYNTHETIC_DEMO", "Source_Provenance": "Synthetic borehole interval generated to match GeoVault demonstration corpus" }, "geometry": { "type": "Point", "coordinates": [ 82.701816, 24.155007 ] } },
{ "type": "Feature", "properties": { "Borehole_ID": "DUDHICHUA-BH-007", "Mine_ID": "M-DUDHICHUA", "Mine_Code": "DUDHICHUA", "Mine_Name": "Dudhichua OCP", "Interval_No": 6, "From_Depth_m": 91.5, "To_Depth_m": 109.8, "Thickness_m": 18.3, "Lithology": "Interbedded Sandstone-Shale", "Stratigraphic_Unit": "Barakar-equivalent demo unit", "Coal_Bearing": "NO", "Coal_Seam": "", "Weathering_Class": "Fresh", "Sample_ID": "DUDHICHUA-007-S06", "Data_Type": "SYNTHETIC_DEMO", "Source_Provenance": "Synthetic borehole interval generated to match GeoVault demonstration corpus" }, "geometry": { "type": "Point", "coordinates": [ 82.701816, 24.155007 ] } },
{ "type": "Feature", "properties": { "Borehole_ID": "DUDHICHUA-BH-007", "Mine_ID": "M-DUDHICHUA", "Mine_Code": "DUDHICHUA", "Mine_Name": "Dudhichua OCP", "Interval_No": 7, "From_Depth_m": 109.8, "To_Depth_m": 128.1, "Thickness_m": 18.3, "Lithology": "Carbonaceous Shale", "Stratigraphic_Unit": "Coal-bearing sequence", "Coal_Bearing": "NO", "Coal_Seam": "", "Weathering_Class": "Fresh", "Sample_ID": "DUDHICHUA-007-S07", "Data_Type": "SYNTHETIC_DEMO", "Source_Provenance": "Synthetic borehole interval generated to match GeoVault demonstration corpus" }, "geometry": { "type": "Point", "coordinates": [ 82.701816, 24.155007 ] } },
{ "type": "Feature", "properties": { "Borehole_ID": "DUDHICHUA-BH-007", "Mine_ID": "M-DUDHICHUA", "Mine_Code": "DUDHICHUA", "Mine_Name": "Dudhichua OCP", "Interval_No": 8, "From_Depth_m": 128.1, "To_Depth_m": 146.4, "Thickness_m": 18.3, "Lithology": "Coal", "Stratigraphic_Unit": "Underlying sedimentary sequence", "Coal_Bearing": "YES", "Coal_Seam": "GV-DUD-S4", "Weathering_Class": "Fresh", "Sample_ID": "DUDHICHUA-007-S08", "Data_Type": "SYNTHETIC_DEMO", "Source_Provenance": "Synthetic borehole interval generated to match GeoVault demonstration corpus" }, "geometry": { "type": "Point", "coordinates": [ 82.701816, 24.155007 ] } },
{ "type": "Feature", "properties": { "Borehole_ID": "DUDHICHUA-BH-007", "Mine_ID": "M-DUDHICHUA", "Mine_Code": "DUDHICHUA", "Mine_Name": "Dudhichua OCP", "Interval_No": 9, "From_Depth_m": 146.4, "To_Depth_m": 164.7, "Thickness_m": 18.3, "Lithology": "Shale", "Stratigraphic_Unit": "Coal-bearing sequence", "Coal_Bearing": "NO", "Coal_Seam": "", "Weathering_Class": "Fresh", "Sample_ID": "DUDHICHUA-007-S09", "Data_Type": "SYNTHETIC_DEMO", "Source_Provenance": "Synthetic borehole interval generated to match GeoVault demonstration corpus" }, "geometry": { "type": "Point", "coordinates": [ 82.701816, 24.155007 ] } },
{ "type": "Feature", "properties": { "Borehole_ID": "DUDHICHUA-BH-007", "Mine_ID": "M-DUDHICHUA", "Mine_Code": "DUDHICHUA", "Mine_Name": "Dudhichua OCP", "Interval_No": 10, "From_Depth_m": 164.7, "To_Depth_m": 183.0, "Thickness_m": 18.3, "Lithology": "Interbedded Sandstone-Shale", "Stratigraphic_Unit": "Underlying sedimentary sequence", "Coal_Bearing": "NO", "Coal_Seam": "", "Weathering_Class": "Fresh", "Sample_ID": "DUDHICHUA-007-S10", "Data_Type": "SYNTHETIC_DEMO", "Source_Provenance": "Synthetic borehole interval generated to match GeoVault demonstration corpus" }, "geometry": { "type": "Point", "coordinates": [ 82.701816, 24.155007 ] } },
{ "type": "Feature", "properties": { "Borehole_ID": "DUDHICHUA-BH-008", "Mine_ID": "M-DUDHICHUA", "Mine_Code": "DUDHICHUA", "Mine_Name": "Dudhichua OCP", "Interval_No": 1, "From_Depth_m": 0.0, "To_Depth_m": 9.37, "Thickness_m": 9.37, "Lithology": "Mudstone", "Stratigraphic_Unit": "Coal-bearing sequence", "Coal_Bearing": "NO", "Coal_Seam": "", "Weathering_Class": "Moderate", "Sample_ID": "DUDHICHUA-008-S01", "Data_Type": "SYNTHETIC_DEMO", "Source_Provenance": "Synthetic borehole interval generated to match GeoVault demonstration corpus" }, "geometry": { "type": "Point", "coordinates": [ 82.684763, 24.124017 ] } },
{ "type": "Feature", "properties": { "Borehole_ID": "DUDHICHUA-BH-008", "Mine_ID": "M-DUDHICHUA", "Mine_Code": "DUDHICHUA", "Mine_Name": "Dudhichua OCP", "Interval_No": 2, "From_Depth_m": 9.37, "To_Depth_m": 18.74, "Thickness_m": 9.37, "Lithology": "Interbedded Sandstone-Shale", "Stratigraphic_Unit": "Underlying sedimentary sequence", "Coal_Bearing": "NO", "Coal_Seam": "", "Weathering_Class": "Slight", "Sample_ID": "DUDHICHUA-008-S02", "Data_Type": "SYNTHETIC_DEMO", "Source_Provenance": "Synthetic borehole interval generated to match GeoVault demonstration corpus" }, "geometry": { "type": "Point", "coordinates": [ 82.684763, 24.124017 ] } },
{ "type": "Feature", "properties": { "Borehole_ID": "DUDHICHUA-BH-008", "Mine_ID": "M-DUDHICHUA", "Mine_Code": "DUDHICHUA", "Mine_Name": "Dudhichua OCP", "Interval_No": 3, "From_Depth_m": 18.74, "To_Depth_m": 28.11, "Thickness_m": 9.37, "Lithology": "Carbonaceous Shale", "Stratigraphic_Unit": "Barakar-equivalent demo unit", "Coal_Bearing": "NO", "Coal_Seam": "", "Weathering_Class": "Slight", "Sample_ID": "DUDHICHUA-008-S03", "Data_Type": "SYNTHETIC_DEMO", "Source_Provenance": "Synthetic borehole interval generated to match GeoVault demonstration corpus" }, "geometry": { "type": "Point", "coordinates": [ 82.684763, 24.124017 ] } },
{ "type": "Feature", "properties": { "Borehole_ID": "DUDHICHUA-BH-008", "Mine_ID": "M-DUDHICHUA", "Mine_Code": "DUDHICHUA", "Mine_Name": "Dudhichua OCP", "Interval_No": 4, "From_Depth_m": 28.11, "To_Depth_m": 37.48, "Thickness_m": 9.37, "Lithology": "Coal", "Stratigraphic_Unit": "Coal-bearing sequence", "Coal_Bearing": "YES", "Coal_Seam": "GV-DUD-S3", "Weathering_Class": "Fresh", "Sample_ID": "DUDHICHUA-008-S04", "Data_Type": "SYNTHETIC_DEMO", "Source_Provenance": "Synthetic borehole interval generated to match GeoVault demonstration corpus" }, "geometry": { "type": "Point", "coordinates": [ 82.684763, 24.124017 ] } },
{ "type": "Feature", "properties": { "Borehole_ID": "DUDHICHUA-BH-008", "Mine_ID": "M-DUDHICHUA", "Mine_Code": "DUDHICHUA", "Mine_Name": "Dudhichua OCP", "Interval_No": 5, "From_Depth_m": 37.48, "To_Depth_m": 46.85, "Thickness_m": 9.37, "Lithology": "Sandstone", "Stratigraphic_Unit": "Underlying sedimentary sequence", "Coal_Bearing": "NO", "Coal_Seam": "", "Weathering_Class": "Fresh", "Sample_ID": "DUDHICHUA-008-S05", "Data_Type": "SYNTHETIC_DEMO", "Source_Provenance": "Synthetic borehole interval generated to match GeoVault demonstration corpus" }, "geometry": { "type": "Point", "coordinates": [ 82.684763, 24.124017 ] } },
{ "type": "Feature", "properties": { "Borehole_ID": "DUDHICHUA-BH-008", "Mine_ID": "M-DUDHICHUA", "Mine_Code": "DUDHICHUA", "Mine_Name": "Dudhichua OCP", "Interval_No": 6, "From_Depth_m": 46.85, "To_Depth_m": 56.22, "Thickness_m": 9.37, "Lithology": "Siltstone", "Stratigraphic_Unit": "Overburden", "Coal_Bearing": "NO", "Coal_Seam": "", "Weathering_Class": "Fresh", "Sample_ID": "DUDHICHUA-008-S06", "Data_Type": "SYNTHETIC_DEMO", "Source_Provenance": "Synthetic borehole interval generated to match GeoVault demonstration corpus" }, "geometry": { "type": "Point", "coordinates": [ 82.684763, 24.124017 ] } },
{ "type": "Feature", "properties": { "Borehole_ID": "DUDHICHUA-BH-008", "Mine_ID": "M-DUDHICHUA", "Mine_Code": "DUDHICHUA", "Mine_Name": "Dudhichua OCP", "Interval_No": 7, "From_Depth_m": 56.22, "To_Depth_m": 65.59, "Thickness_m": 9.37, "Lithology": "Interbedded Sandstone-Shale", "Stratigraphic_Unit": "Overburden", "Coal_Bearing": "NO", "Coal_Seam": "", "Weathering_Class": "Fresh", "Sample_ID": "DUDHICHUA-008-S07", "Data_Type": "SYNTHETIC_DEMO", "Source_Provenance": "Synthetic borehole interval generated to match GeoVault demonstration corpus" }, "geometry": { "type": "Point", "coordinates": [ 82.684763, 24.124017 ] } },
{ "type": "Feature", "properties": { "Borehole_ID": "DUDHICHUA-BH-008", "Mine_ID": "M-DUDHICHUA", "Mine_Code": "DUDHICHUA", "Mine_Name": "Dudhichua OCP", "Interval_No": 8, "From_Depth_m": 65.59, "To_Depth_m": 74.96, "Thickness_m": 9.37, "Lithology": "Siltstone", "Stratigraphic_Unit": "Overburden", "Coal_Bearing": "NO", "Coal_Seam": "", "Weathering_Class": "Fresh", "Sample_ID": "DUDHICHUA-008-S08", "Data_Type": "SYNTHETIC_DEMO", "Source_Provenance": "Synthetic borehole interval generated to match GeoVault demonstration corpus" }, "geometry": { "type": "Point", "coordinates": [ 82.684763, 24.124017 ] } },
{ "type": "Feature", "properties": { "Borehole_ID": "DUDHICHUA-BH-008", "Mine_ID": "M-DUDHICHUA", "Mine_Code": "DUDHICHUA", "Mine_Name": "Dudhichua OCP", "Interval_No": 9, "From_Depth_m": 74.96, "To_Depth_m": 84.33, "Thickness_m": 9.37, "Lithology": "Shale", "Stratigraphic_Unit": "Coal-bearing sequence", "Coal_Bearing": "NO", "Coal_Seam": "", "Weathering_Class": "Fresh", "Sample_ID": "DUDHICHUA-008-S09", "Data_Type": "SYNTHETIC_DEMO", "Source_Provenance": "Synthetic borehole interval generated to match GeoVault demonstration corpus" }, "geometry": { "type": "Point", "coordinates": [ 82.684763, 24.124017 ] } },
{ "type": "Feature", "properties": { "Borehole_ID": "DUDHICHUA-BH-008", "Mine_ID": "M-DUDHICHUA", "Mine_Code": "DUDHICHUA", "Mine_Name": "Dudhichua OCP", "Interval_No": 10, "From_Depth_m": 84.33, "To_Depth_m": 93.7, "Thickness_m": 9.37, "Lithology": "Mudstone", "Stratigraphic_Unit": "Barakar-equivalent demo unit", "Coal_Bearing": "NO", "Coal_Seam": "", "Weathering_Class": "Fresh", "Sample_ID": "DUDHICHUA-008-S10", "Data_Type": "SYNTHETIC_DEMO", "Source_Provenance": "Synthetic borehole interval generated to match GeoVault demonstration corpus" }, "geometry": { "type": "Point", "coordinates": [ 82.684763, 24.124017 ] } },
{ "type": "Feature", "properties": { "Borehole_ID": "DUDHICHUA-BH-009", "Mine_ID": "M-DUDHICHUA", "Mine_Code": "DUDHICHUA", "Mine_Name": "Dudhichua OCP", "Interval_No": 1, "From_Depth_m": 0.0, "To_Depth_m": 21.47, "Thickness_m": 21.47, "Lithology": "Mudstone", "Stratigraphic_Unit": "Overburden", "Coal_Bearing": "NO", "Coal_Seam": "", "Weathering_Class": "Slight", "Sample_ID": "DUDHICHUA-009-S01", "Data_Type": "SYNTHETIC_DEMO", "Source_Provenance": "Synthetic borehole interval generated to match GeoVault demonstration corpus" }, "geometry": { "type": "Point", "coordinates": [ 82.73848, 24.12518 ] } },
{ "type": "Feature", "properties": { "Borehole_ID": "DUDHICHUA-BH-009", "Mine_ID": "M-DUDHICHUA", "Mine_Code": "DUDHICHUA", "Mine_Name": "Dudhichua OCP", "Interval_No": 2, "From_Depth_m": 21.47, "To_Depth_m": 42.94, "Thickness_m": 21.47, "Lithology": "Mudstone", "Stratigraphic_Unit": "Coal-bearing sequence", "Coal_Bearing": "NO", "Coal_Seam": "", "Weathering_Class": "Slight", "Sample_ID": "DUDHICHUA-009-S02", "Data_Type": "SYNTHETIC_DEMO", "Source_Provenance": "Synthetic borehole interval generated to match GeoVault demonstration corpus" }, "geometry": { "type": "Point", "coordinates": [ 82.73848, 24.12518 ] } },
{ "type": "Feature", "properties": { "Borehole_ID": "DUDHICHUA-BH-009", "Mine_ID": "M-DUDHICHUA", "Mine_Code": "DUDHICHUA", "Mine_Name": "Dudhichua OCP", "Interval_No": 3, "From_Depth_m": 42.94, "To_Depth_m": 64.41, "Thickness_m": 21.47, "Lithology": "Carbonaceous Shale", "Stratigraphic_Unit": "Underlying sedimentary sequence", "Coal_Bearing": "NO", "Coal_Seam": "", "Weathering_Class": "Fresh", "Sample_ID": "DUDHICHUA-009-S03", "Data_Type": "SYNTHETIC_DEMO", "Source_Provenance": "Synthetic borehole interval generated to match GeoVault demonstration corpus" }, "geometry": { "type": "Point", "coordinates": [ 82.73848, 24.12518 ] } },
{ "type": "Feature", "properties": { "Borehole_ID": "DUDHICHUA-BH-009", "Mine_ID": "M-DUDHICHUA", "Mine_Code": "DUDHICHUA", "Mine_Name": "Dudhichua OCP", "Interval_No": 4, "From_Depth_m": 64.41, "To_Depth_m": 85.88, "Thickness_m": 21.47, "Lithology": "Coal", "Stratigraphic_Unit": "Overburden", "Coal_Bearing": "YES", "Coal_Seam": "GV-DUD-S1", "Weathering_Class": "Fresh", "Sample_ID": "DUDHICHUA-009-S04", "Data_Type": "SYNTHETIC_DEMO", "Source_Provenance": "Synthetic borehole interval generated to match GeoVault demonstration corpus" }, "geometry": { "type": "Point", "coordinates": [ 82.73848, 24.12518 ] } },
{ "type": "Feature", "properties": { "Borehole_ID": "DUDHICHUA-BH-009", "Mine_ID": "M-DUDHICHUA", "Mine_Code": "DUDHICHUA", "Mine_Name": "Dudhichua OCP", "Interval_No": 5, "From_Depth_m": 85.88, "To_Depth_m": 107.35, "Thickness_m": 21.47, "Lithology": "Mudstone", "Stratigraphic_Unit": "Coal-bearing sequence", "Coal_Bearing": "NO", "Coal_Seam": "", "Weathering_Class": "Fresh", "Sample_ID": "DUDHICHUA-009-S05", "Data_Type": "SYNTHETIC_DEMO", "Source_Provenance": "Synthetic borehole interval generated to match GeoVault demonstration corpus" }, "geometry": { "type": "Point", "coordinates": [ 82.73848, 24.12518 ] } },
{ "type": "Feature", "properties": { "Borehole_ID": "DUDHICHUA-BH-009", "Mine_ID": "M-DUDHICHUA", "Mine_Code": "DUDHICHUA", "Mine_Name": "Dudhichua OCP", "Interval_No": 6, "From_Depth_m": 107.35, "To_Depth_m": 128.82, "Thickness_m": 21.47, "Lithology": "Shale", "Stratigraphic_Unit": "Underlying sedimentary sequence", "Coal_Bearing": "NO", "Coal_Seam": "", "Weathering_Class": "Fresh", "Sample_ID": "DUDHICHUA-009-S06", "Data_Type": "SYNTHETIC_DEMO", "Source_Provenance": "Synthetic borehole interval generated to match GeoVault demonstration corpus" }, "geometry": { "type": "Point", "coordinates": [ 82.73848, 24.12518 ] } },
{ "type": "Feature", "properties": { "Borehole_ID": "DUDHICHUA-BH-009", "Mine_ID": "M-DUDHICHUA", "Mine_Code": "DUDHICHUA", "Mine_Name": "Dudhichua OCP", "Interval_No": 7, "From_Depth_m": 128.82, "To_Depth_m": 150.29, "Thickness_m": 21.47, "Lithology": "Sandstone", "Stratigraphic_Unit": "Coal-bearing sequence", "Coal_Bearing": "NO", "Coal_Seam": "", "Weathering_Class": "Fresh", "Sample_ID": "DUDHICHUA-009-S07", "Data_Type": "SYNTHETIC_DEMO", "Source_Provenance": "Synthetic borehole interval generated to match GeoVault demonstration corpus" }, "geometry": { "type": "Point", "coordinates": [ 82.73848, 24.12518 ] } },
{ "type": "Feature", "properties": { "Borehole_ID": "DUDHICHUA-BH-009", "Mine_ID": "M-DUDHICHUA", "Mine_Code": "DUDHICHUA", "Mine_Name": "Dudhichua OCP", "Interval_No": 8, "From_Depth_m": 150.29, "To_Depth_m": 171.76, "Thickness_m": 21.47, "Lithology": "Shale", "Stratigraphic_Unit": "Overburden", "Coal_Bearing": "NO", "Coal_Seam": "", "Weathering_Class": "Fresh", "Sample_ID": "DUDHICHUA-009-S08", "Data_Type": "SYNTHETIC_DEMO", "Source_Provenance": "Synthetic borehole interval generated to match GeoVault demonstration corpus" }, "geometry": { "type": "Point", "coordinates": [ 82.73848, 24.12518 ] } },
{ "type": "Feature", "properties": { "Borehole_ID": "DUDHICHUA-BH-009", "Mine_ID": "M-DUDHICHUA", "Mine_Code": "DUDHICHUA", "Mine_Name": "Dudhichua OCP", "Interval_No": 9, "From_Depth_m": 171.76, "To_Depth_m": 193.23, "Thickness_m": 21.47, "Lithology": "Siltstone", "Stratigraphic_Unit": "Overburden", "Coal_Bearing": "NO", "Coal_Seam": "", "Weathering_Class": "Fresh", "Sample_ID": "DUDHICHUA-009-S09", "Data_Type": "SYNTHETIC_DEMO", "Source_Provenance": "Synthetic borehole interval generated to match GeoVault demonstration corpus" }, "geometry": { "type": "Point", "coordinates": [ 82.73848, 24.12518 ] } },
{ "type": "Feature", "properties": { "Borehole_ID": "DUDHICHUA-BH-009", "Mine_ID": "M-DUDHICHUA", "Mine_Code": "DUDHICHUA", "Mine_Name": "Dudhichua OCP", "Interval_No": 10, "From_Depth_m": 193.23, "To_Depth_m": 214.7, "Thickness_m": 21.47, "Lithology": "Siltstone", "Stratigraphic_Unit": "Barakar-equivalent demo unit", "Coal_Bearing": "NO", "Coal_Seam": "", "Weathering_Class": "Fresh", "Sample_ID": "DUDHICHUA-009-S10", "Data_Type": "SYNTHETIC_DEMO", "Source_Provenance": "Synthetic borehole interval generated to match GeoVault demonstration corpus" }, "geometry": { "type": "Point", "coordinates": [ 82.73848, 24.12518 ] } },
{ "type": "Feature", "properties": { "Borehole_ID": "DUDHICHUA-BH-010", "Mine_ID": "M-DUDHICHUA", "Mine_Code": "DUDHICHUA", "Mine_Name": "Dudhichua OCP", "Interval_No": 1, "From_Depth_m": 0.0, "To_Depth_m": 14.52, "Thickness_m": 14.52, "Lithology": "Shale", "Stratigraphic_Unit": "Overburden", "Coal_Bearing": "NO", "Coal_Seam": "", "Weathering_Class": "Moderate", "Sample_ID": "DUDHICHUA-010-S01", "Data_Type": "SYNTHETIC_DEMO", "Source_Provenance": "Synthetic borehole interval generated to match GeoVault demonstration corpus" }, "geometry": { "type": "Point", "coordinates": [ 82.689753, 24.159594 ] } },
{ "type": "Feature", "properties": { "Borehole_ID": "DUDHICHUA-BH-010", "Mine_ID": "M-DUDHICHUA", "Mine_Code": "DUDHICHUA", "Mine_Name": "Dudhichua OCP", "Interval_No": 2, "From_Depth_m": 14.52, "To_Depth_m": 29.04, "Thickness_m": 14.52, "Lithology": "Mudstone", "Stratigraphic_Unit": "Barakar-equivalent demo unit", "Coal_Bearing": "NO", "Coal_Seam": "", "Weathering_Class": "Moderate", "Sample_ID": "DUDHICHUA-010-S02", "Data_Type": "SYNTHETIC_DEMO", "Source_Provenance": "Synthetic borehole interval generated to match GeoVault demonstration corpus" }, "geometry": { "type": "Point", "coordinates": [ 82.689753, 24.159594 ] } },
{ "type": "Feature", "properties": { "Borehole_ID": "DUDHICHUA-BH-010", "Mine_ID": "M-DUDHICHUA", "Mine_Code": "DUDHICHUA", "Mine_Name": "Dudhichua OCP", "Interval_No": 3, "From_Depth_m": 29.04, "To_Depth_m": 43.56, "Thickness_m": 14.52, "Lithology": "Mudstone", "Stratigraphic_Unit": "Overburden", "Coal_Bearing": "NO", "Coal_Seam": "", "Weathering_Class": "Fresh", "Sample_ID": "DUDHICHUA-010-S03", "Data_Type": "SYNTHETIC_DEMO", "Source_Provenance": "Synthetic borehole interval generated to match GeoVault demonstration corpus" }, "geometry": { "type": "Point", "coordinates": [ 82.689753, 24.159594 ] } },
{ "type": "Feature", "properties": { "Borehole_ID": "DUDHICHUA-BH-010", "Mine_ID": "M-DUDHICHUA", "Mine_Code": "DUDHICHUA", "Mine_Name": "Dudhichua OCP", "Interval_No": 4, "From_Depth_m": 43.56, "To_Depth_m": 58.08, "Thickness_m": 14.52, "Lithology": "Sandstone", "Stratigraphic_Unit": "Overburden", "Coal_Bearing": "NO", "Coal_Seam": "", "Weathering_Class": "Fresh", "Sample_ID": "DUDHICHUA-010-S04", "Data_Type": "SYNTHETIC_DEMO", "Source_Provenance": "Synthetic borehole interval generated to match GeoVault demonstration corpus" }, "geometry": { "type": "Point", "coordinates": [ 82.689753, 24.159594 ] } },
{ "type": "Feature", "properties": { "Borehole_ID": "DUDHICHUA-BH-010", "Mine_ID": "M-DUDHICHUA", "Mine_Code": "DUDHICHUA", "Mine_Name": "Dudhichua OCP", "Interval_No": 5, "From_Depth_m": 58.08, "To_Depth_m": 72.6, "Thickness_m": 14.52, "Lithology": "Carbonaceous Shale", "Stratigraphic_Unit": "Coal-bearing sequence", "Coal_Bearing": "NO", "Coal_Seam": "", "Weathering_Class": "Fresh", "Sample_ID": "DUDHICHUA-010-S05", "Data_Type": "SYNTHETIC_DEMO", "Source_Provenance": "Synthetic borehole interval generated to match GeoVault demonstration corpus" }, "geometry": { "type": "Point", "coordinates": [ 82.689753, 24.159594 ] } },
{ "type": "Feature", "properties": { "Borehole_ID": "DUDHICHUA-BH-010", "Mine_ID": "M-DUDHICHUA", "Mine_Code": "DUDHICHUA", "Mine_Name": "Dudhichua OCP", "Interval_No": 6, "From_Depth_m": 72.6, "To_Depth_m": 87.12, "Thickness_m": 14.52, "Lithology": "Coal", "Stratigraphic_Unit": "Barakar-equivalent demo unit", "Coal_Bearing": "YES", "Coal_Seam": "GV-DUD-S4", "Weathering_Class": "Fresh", "Sample_ID": "DUDHICHUA-010-S06", "Data_Type": "SYNTHETIC_DEMO", "Source_Provenance": "Synthetic borehole interval generated to match GeoVault demonstration corpus" }, "geometry": { "type": "Point", "coordinates": [ 82.689753, 24.159594 ] } },
{ "type": "Feature", "properties": { "Borehole_ID": "DUDHICHUA-BH-010", "Mine_ID": "M-DUDHICHUA", "Mine_Code": "DUDHICHUA", "Mine_Name": "Dudhichua OCP", "Interval_No": 7, "From_Depth_m": 87.12, "To_Depth_m": 101.64, "Thickness_m": 14.52, "Lithology": "Shale", "Stratigraphic_Unit": "Underlying sedimentary sequence", "Coal_Bearing": "NO", "Coal_Seam": "", "Weathering_Class": "Fresh", "Sample_ID": "DUDHICHUA-010-S07", "Data_Type": "SYNTHETIC_DEMO", "Source_Provenance": "Synthetic borehole interval generated to match GeoVault demonstration corpus" }, "geometry": { "type": "Point", "coordinates": [ 82.689753, 24.159594 ] } },
{ "type": "Feature", "properties": { "Borehole_ID": "DUDHICHUA-BH-010", "Mine_ID": "M-DUDHICHUA", "Mine_Code": "DUDHICHUA", "Mine_Name": "Dudhichua OCP", "Interval_No": 8, "From_Depth_m": 101.64, "To_Depth_m": 116.16, "Thickness_m": 14.52, "Lithology": "Sandstone", "Stratigraphic_Unit": "Coal-bearing sequence", "Coal_Bearing": "NO", "Coal_Seam": "", "Weathering_Class": "Fresh", "Sample_ID": "DUDHICHUA-010-S08", "Data_Type": "SYNTHETIC_DEMO", "Source_Provenance": "Synthetic borehole interval generated to match GeoVault demonstration corpus" }, "geometry": { "type": "Point", "coordinates": [ 82.689753, 24.159594 ] } },
{ "type": "Feature", "properties": { "Borehole_ID": "DUDHICHUA-BH-010", "Mine_ID": "M-DUDHICHUA", "Mine_Code": "DUDHICHUA", "Mine_Name": "Dudhichua OCP", "Interval_No": 9, "From_Depth_m": 116.16, "To_Depth_m": 130.68, "Thickness_m": 14.52, "Lithology": "Shale", "Stratigraphic_Unit": "Coal-bearing sequence", "Coal_Bearing": "NO", "Coal_Seam": "", "Weathering_Class": "Fresh", "Sample_ID": "DUDHICHUA-010-S09", "Data_Type": "SYNTHETIC_DEMO", "Source_Provenance": "Synthetic borehole interval generated to match GeoVault demonstration corpus" }, "geometry": { "type": "Point", "coordinates": [ 82.689753, 24.159594 ] } },
{ "type": "Feature", "properties": { "Borehole_ID": "DUDHICHUA-BH-010", "Mine_ID": "M-DUDHICHUA", "Mine_Code": "DUDHICHUA", "Mine_Name": "Dudhichua OCP", "Interval_No": 10, "From_Depth_m": 130.68, "To_Depth_m": 145.2, "Thickness_m": 14.52, "Lithology": "Sandstone", "Stratigraphic_Unit": "Overburden", "Coal_Bearing": "NO", "Coal_Seam": "", "Weathering_Class": "Fresh", "Sample_ID": "DUDHICHUA-010-S10", "Data_Type": "SYNTHETIC_DEMO", "Source_Provenance": "Synthetic borehole interval generated to match GeoVault demonstration corpus" }, "geometry": { "type": "Point", "coordinates": [ 82.689753, 24.159594 ] } },
{ "type": "Feature", "properties": { "Borehole_ID": "DUDHICHUA-BH-011", "Mine_ID": "M-DUDHICHUA", "Mine_Code": "DUDHICHUA", "Mine_Name": "Dudhichua OCP", "Interval_No": 1, "From_Depth_m": 0.0, "To_Depth_m": 23.22, "Thickness_m": 23.22, "Lithology": "Shale", "Stratigraphic_Unit": "Underlying sedimentary sequence", "Coal_Bearing": "NO", "Coal_Seam": "", "Weathering_Class": "Moderate", "Sample_ID": "DUDHICHUA-011-S01", "Data_Type": "SYNTHETIC_DEMO", "Source_Provenance": "Synthetic borehole interval generated to match GeoVault demonstration corpus" }, "geometry": { "type": "Point", "coordinates": [ 82.734214, 24.135543 ] } },
{ "type": "Feature", "properties": { "Borehole_ID": "DUDHICHUA-BH-011", "Mine_ID": "M-DUDHICHUA", "Mine_Code": "DUDHICHUA", "Mine_Name": "Dudhichua OCP", "Interval_No": 2, "From_Depth_m": 23.22, "To_Depth_m": 46.44, "Thickness_m": 23.22, "Lithology": "Sandstone", "Stratigraphic_Unit": "Overburden", "Coal_Bearing": "NO", "Coal_Seam": "", "Weathering_Class": "Moderate", "Sample_ID": "DUDHICHUA-011-S02", "Data_Type": "SYNTHETIC_DEMO", "Source_Provenance": "Synthetic borehole interval generated to match GeoVault demonstration corpus" }, "geometry": { "type": "Point", "coordinates": [ 82.734214, 24.135543 ] } },
{ "type": "Feature", "properties": { "Borehole_ID": "DUDHICHUA-BH-011", "Mine_ID": "M-DUDHICHUA", "Mine_Code": "DUDHICHUA", "Mine_Name": "Dudhichua OCP", "Interval_No": 3, "From_Depth_m": 46.44, "To_Depth_m": 69.66, "Thickness_m": 23.22, "Lithology": "Interbedded Sandstone-Shale", "Stratigraphic_Unit": "Overburden", "Coal_Bearing": "NO", "Coal_Seam": "", "Weathering_Class": "Fresh", "Sample_ID": "DUDHICHUA-011-S03", "Data_Type": "SYNTHETIC_DEMO", "Source_Provenance": "Synthetic borehole interval generated to match GeoVault demonstration corpus" }, "geometry": { "type": "Point", "coordinates": [ 82.734214, 24.135543 ] } },
{ "type": "Feature", "properties": { "Borehole_ID": "DUDHICHUA-BH-011", "Mine_ID": "M-DUDHICHUA", "Mine_Code": "DUDHICHUA", "Mine_Name": "Dudhichua OCP", "Interval_No": 4, "From_Depth_m": 69.66, "To_Depth_m": 92.88, "Thickness_m": 23.22, "Lithology": "Interbedded Sandstone-Shale", "Stratigraphic_Unit": "Barakar-equivalent demo unit", "Coal_Bearing": "NO", "Coal_Seam": "", "Weathering_Class": "Fresh", "Sample_ID": "DUDHICHUA-011-S04", "Data_Type": "SYNTHETIC_DEMO", "Source_Provenance": "Synthetic borehole interval generated to match GeoVault demonstration corpus" }, "geometry": { "type": "Point", "coordinates": [ 82.734214, 24.135543 ] } },
{ "type": "Feature", "properties": { "Borehole_ID": "DUDHICHUA-BH-011", "Mine_ID": "M-DUDHICHUA", "Mine_Code": "DUDHICHUA", "Mine_Name": "Dudhichua OCP", "Interval_No": 5, "From_Depth_m": 92.88, "To_Depth_m": 116.1, "Thickness_m": 23.22, "Lithology": "Shale", "Stratigraphic_Unit": "Coal-bearing sequence", "Coal_Bearing": "NO", "Coal_Seam": "", "Weathering_Class": "Fresh", "Sample_ID": "DUDHICHUA-011-S05", "Data_Type": "SYNTHETIC_DEMO", "Source_Provenance": "Synthetic borehole interval generated to match GeoVault demonstration corpus" }, "geometry": { "type": "Point", "coordinates": [ 82.734214, 24.135543 ] } },
{ "type": "Feature", "properties": { "Borehole_ID": "DUDHICHUA-BH-011", "Mine_ID": "M-DUDHICHUA", "Mine_Code": "DUDHICHUA", "Mine_Name": "Dudhichua OCP", "Interval_No": 6, "From_Depth_m": 116.1, "To_Depth_m": 139.32, "Thickness_m": 23.22, "Lithology": "Mudstone", "Stratigraphic_Unit": "Overburden", "Coal_Bearing": "NO", "Coal_Seam": "", "Weathering_Class": "Fresh", "Sample_ID": "DUDHICHUA-011-S06", "Data_Type": "SYNTHETIC_DEMO", "Source_Provenance": "Synthetic borehole interval generated to match GeoVault demonstration corpus" }, "geometry": { "type": "Point", "coordinates": [ 82.734214, 24.135543 ] } },
{ "type": "Feature", "properties": { "Borehole_ID": "DUDHICHUA-BH-011", "Mine_ID": "M-DUDHICHUA", "Mine_Code": "DUDHICHUA", "Mine_Name": "Dudhichua OCP", "Interval_No": 7, "From_Depth_m": 139.32, "To_Depth_m": 162.54, "Thickness_m": 23.22, "Lithology": "Carbonaceous Shale", "Stratigraphic_Unit": "Coal-bearing sequence", "Coal_Bearing": "NO", "Coal_Seam": "", "Weathering_Class": "Fresh", "Sample_ID": "DUDHICHUA-011-S07", "Data_Type": "SYNTHETIC_DEMO", "Source_Provenance": "Synthetic borehole interval generated to match GeoVault demonstration corpus" }, "geometry": { "type": "Point", "coordinates": [ 82.734214, 24.135543 ] } },
{ "type": "Feature", "properties": { "Borehole_ID": "DUDHICHUA-BH-011", "Mine_ID": "M-DUDHICHUA", "Mine_Code": "DUDHICHUA", "Mine_Name": "Dudhichua OCP", "Interval_No": 8, "From_Depth_m": 162.54, "To_Depth_m": 185.76, "Thickness_m": 23.22, "Lithology": "Coal", "Stratigraphic_Unit": "Barakar-equivalent demo unit", "Coal_Bearing": "YES", "Coal_Seam": "GV-DUD-S1", "Weathering_Class": "Fresh", "Sample_ID": "DUDHICHUA-011-S08", "Data_Type": "SYNTHETIC_DEMO", "Source_Provenance": "Synthetic borehole interval generated to match GeoVault demonstration corpus" }, "geometry": { "type": "Point", "coordinates": [ 82.734214, 24.135543 ] } },
{ "type": "Feature", "properties": { "Borehole_ID": "DUDHICHUA-BH-011", "Mine_ID": "M-DUDHICHUA", "Mine_Code": "DUDHICHUA", "Mine_Name": "Dudhichua OCP", "Interval_No": 9, "From_Depth_m": 185.76, "To_Depth_m": 208.98, "Thickness_m": 23.22, "Lithology": "Interbedded Sandstone-Shale", "Stratigraphic_Unit": "Underlying sedimentary sequence", "Coal_Bearing": "NO", "Coal_Seam": "", "Weathering_Class": "Fresh", "Sample_ID": "DUDHICHUA-011-S09", "Data_Type": "SYNTHETIC_DEMO", "Source_Provenance": "Synthetic borehole interval generated to match GeoVault demonstration corpus" }, "geometry": { "type": "Point", "coordinates": [ 82.734214, 24.135543 ] } },
{ "type": "Feature", "properties": { "Borehole_ID": "DUDHICHUA-BH-011", "Mine_ID": "M-DUDHICHUA", "Mine_Code": "DUDHICHUA", "Mine_Name": "Dudhichua OCP", "Interval_No": 10, "From_Depth_m": 208.98, "To_Depth_m": 232.2, "Thickness_m": 23.22, "Lithology": "Shale", "Stratigraphic_Unit": "Overburden", "Coal_Bearing": "NO", "Coal_Seam": "", "Weathering_Class": "Fresh", "Sample_ID": "DUDHICHUA-011-S10", "Data_Type": "SYNTHETIC_DEMO", "Source_Provenance": "Synthetic borehole interval generated to match GeoVault demonstration corpus" }, "geometry": { "type": "Point", "coordinates": [ 82.734214, 24.135543 ] } },
{ "type": "Feature", "properties": { "Borehole_ID": "DUDHICHUA-BH-012", "Mine_ID": "M-DUDHICHUA", "Mine_Code": "DUDHICHUA", "Mine_Name": "Dudhichua OCP", "Interval_No": 1, "From_Depth_m": 0.0, "To_Depth_m": 18.67, "Thickness_m": 18.67, "Lithology": "Interbedded Sandstone-Shale", "Stratigraphic_Unit": "Coal-bearing sequence", "Coal_Bearing": "NO", "Coal_Seam": "", "Weathering_Class": "Slight", "Sample_ID": "DUDHICHUA-012-S01", "Data_Type": "SYNTHETIC_DEMO", "Source_Provenance": "Synthetic borehole interval generated to match GeoVault demonstration corpus" }, "geometry": { "type": "Point", "coordinates": [ 82.724638, 24.160282 ] } },
{ "type": "Feature", "properties": { "Borehole_ID": "DUDHICHUA-BH-012", "Mine_ID": "M-DUDHICHUA", "Mine_Code": "DUDHICHUA", "Mine_Name": "Dudhichua OCP", "Interval_No": 2, "From_Depth_m": 18.67, "To_Depth_m": 37.34, "Thickness_m": 18.67, "Lithology": "Interbedded Sandstone-Shale", "Stratigraphic_Unit": "Overburden", "Coal_Bearing": "NO", "Coal_Seam": "", "Weathering_Class": "Moderate", "Sample_ID": "DUDHICHUA-012-S02", "Data_Type": "SYNTHETIC_DEMO", "Source_Provenance": "Synthetic borehole interval generated to match GeoVault demonstration corpus" }, "geometry": { "type": "Point", "coordinates": [ 82.724638, 24.160282 ] } },
{ "type": "Feature", "properties": { "Borehole_ID": "DUDHICHUA-BH-012", "Mine_ID": "M-DUDHICHUA", "Mine_Code": "DUDHICHUA", "Mine_Name": "Dudhichua OCP", "Interval_No": 3, "From_Depth_m": 37.34, "To_Depth_m": 56.01, "Thickness_m": 18.67, "Lithology": "Mudstone", "Stratigraphic_Unit": "Overburden", "Coal_Bearing": "NO", "Coal_Seam": "", "Weathering_Class": "Fresh", "Sample_ID": "DUDHICHUA-012-S03", "Data_Type": "SYNTHETIC_DEMO", "Source_Provenance": "Synthetic borehole interval generated to match GeoVault demonstration corpus" }, "geometry": { "type": "Point", "coordinates": [ 82.724638, 24.160282 ] } },
{ "type": "Feature", "properties": { "Borehole_ID": "DUDHICHUA-BH-012", "Mine_ID": "M-DUDHICHUA", "Mine_Code": "DUDHICHUA", "Mine_Name": "Dudhichua OCP", "Interval_No": 4, "From_Depth_m": 56.01, "To_Depth_m": 74.68, "Thickness_m": 18.67, "Lithology": "Mudstone", "Stratigraphic_Unit": "Coal-bearing sequence", "Coal_Bearing": "NO", "Coal_Seam": "", "Weathering_Class": "Fresh", "Sample_ID": "DUDHICHUA-012-S04", "Data_Type": "SYNTHETIC_DEMO", "Source_Provenance": "Synthetic borehole interval generated to match GeoVault demonstration corpus" }, "geometry": { "type": "Point", "coordinates": [ 82.724638, 24.160282 ] } },
{ "type": "Feature", "properties": { "Borehole_ID": "DUDHICHUA-BH-012", "Mine_ID": "M-DUDHICHUA", "Mine_Code": "DUDHICHUA", "Mine_Name": "Dudhichua OCP", "Interval_No": 5, "From_Depth_m": 74.68, "To_Depth_m": 93.35, "Thickness_m": 18.67, "Lithology": "Siltstone", "Stratigraphic_Unit": "Overburden", "Coal_Bearing": "NO", "Coal_Seam": "", "Weathering_Class": "Fresh", "Sample_ID": "DUDHICHUA-012-S05", "Data_Type": "SYNTHETIC_DEMO", "Source_Provenance": "Synthetic borehole interval generated to match GeoVault demonstration corpus" }, "geometry": { "type": "Point", "coordinates": [ 82.724638, 24.160282 ] } },
{ "type": "Feature", "properties": { "Borehole_ID": "DUDHICHUA-BH-012", "Mine_ID": "M-DUDHICHUA", "Mine_Code": "DUDHICHUA", "Mine_Name": "Dudhichua OCP", "Interval_No": 6, "From_Depth_m": 93.35, "To_Depth_m": 112.02, "Thickness_m": 18.67, "Lithology": "Siltstone", "Stratigraphic_Unit": "Overburden", "Coal_Bearing": "NO", "Coal_Seam": "", "Weathering_Class": "Fresh", "Sample_ID": "DUDHICHUA-012-S06", "Data_Type": "SYNTHETIC_DEMO", "Source_Provenance": "Synthetic borehole interval generated to match GeoVault demonstration corpus" }, "geometry": { "type": "Point", "coordinates": [ 82.724638, 24.160282 ] } },
{ "type": "Feature", "properties": { "Borehole_ID": "DUDHICHUA-BH-012", "Mine_ID": "M-DUDHICHUA", "Mine_Code": "DUDHICHUA", "Mine_Name": "Dudhichua OCP", "Interval_No": 7, "From_Depth_m": 112.02, "To_Depth_m": 130.69, "Thickness_m": 18.67, "Lithology": "Carbonaceous Shale", "Stratigraphic_Unit": "Coal-bearing sequence", "Coal_Bearing": "NO", "Coal_Seam": "", "Weathering_Class": "Fresh", "Sample_ID": "DUDHICHUA-012-S07", "Data_Type": "SYNTHETIC_DEMO", "Source_Provenance": "Synthetic borehole interval generated to match GeoVault demonstration corpus" }, "geometry": { "type": "Point", "coordinates": [ 82.724638, 24.160282 ] } },
{ "type": "Feature", "properties": { "Borehole_ID": "DUDHICHUA-BH-012", "Mine_ID": "M-DUDHICHUA", "Mine_Code": "DUDHICHUA", "Mine_Name": "Dudhichua OCP", "Interval_No": 8, "From_Depth_m": 130.69, "To_Depth_m": 149.36, "Thickness_m": 18.67, "Lithology": "Coal", "Stratigraphic_Unit": "Barakar-equivalent demo unit", "Coal_Bearing": "YES", "Coal_Seam": "GV-DUD-S4", "Weathering_Class": "Fresh", "Sample_ID": "DUDHICHUA-012-S08", "Data_Type": "SYNTHETIC_DEMO", "Source_Provenance": "Synthetic borehole interval generated to match GeoVault demonstration corpus" }, "geometry": { "type": "Point", "coordinates": [ 82.724638, 24.160282 ] } },
{ "type": "Feature", "properties": { "Borehole_ID": "DUDHICHUA-BH-012", "Mine_ID": "M-DUDHICHUA", "Mine_Code": "DUDHICHUA", "Mine_Name": "Dudhichua OCP", "Interval_No": 9, "From_Depth_m": 149.36, "To_Depth_m": 168.03, "Thickness_m": 18.67, "Lithology": "Sandstone", "Stratigraphic_Unit": "Coal-bearing sequence", "Coal_Bearing": "NO", "Coal_Seam": "", "Weathering_Class": "Fresh", "Sample_ID": "DUDHICHUA-012-S09", "Data_Type": "SYNTHETIC_DEMO", "Source_Provenance": "Synthetic borehole interval generated to match GeoVault demonstration corpus" }, "geometry": { "type": "Point", "coordinates": [ 82.724638, 24.160282 ] } },
{ "type": "Feature", "properties": { "Borehole_ID": "DUDHICHUA-BH-012", "Mine_ID": "M-DUDHICHUA", "Mine_Code": "DUDHICHUA", "Mine_Name": "Dudhichua OCP", "Interval_No": 10, "From_Depth_m": 168.03, "To_Depth_m": 186.7, "Thickness_m": 18.67, "Lithology": "Shale", "Stratigraphic_Unit": "Overburden", "Coal_Bearing": "NO", "Coal_Seam": "", "Weathering_Class": "Fresh", "Sample_ID": "DUDHICHUA-012-S10", "Data_Type": "SYNTHETIC_DEMO", "Source_Provenance": "Synthetic borehole interval generated to match GeoVault demonstration corpus" }, "geometry": { "type": "Point", "coordinates": [ 82.724638, 24.160282 ] } }
]
}
