{
"type": "FeatureCollection",
"name": "coal_seam_belts",
"crs": { "type": "name", "properties": { "name": "urn:ogc:def:crs:OGC:1.3:CRS84" } },
"features": [
{ "type": "Feature", "properties": { "Seam_ID": "GV-DUD-S1", "Mine_ID": "M-DUDHICHUA", "Mine_Code": "DUDHICHUA", "Feature_Type": "SYNTHETIC_SEAM_BELT", "Width_m": 100, "Data_Type": "SYNTHETIC_DEMO", "Source_Provenance": "Buffered demonstration representation of seam trace" }, "geometry": { "type": "Polygon", "coordinates": [ [ [ 82.699909930845678, 24.138109121752112 ], [ 82.700013399383224, 24.138129609859387 ], [ 82.700118450377829, 24.138139085582825 ], [ 82.700223915084564, 24.138137443500259 ], [ 82.71977794615421, 24.136799195149635 ], [ 82.737365482467624, 24.14036560824546 ], [ 82.737462501436283, 24.140380368542733 ], [ 82.737560499994217, 24.140385548243277 ], [ 82.737658534361756, 24.140381097463738 ], [ 82.737755660414322, 24.140367059067565 ], [ 82.737850942774955, 24.140343568252177 ], [ 82.737943463822432, 24.140310851246973 ], [ 82.738032332528491, 24.140269223134599 ], [ 82.738116693038904, 24.140219084816533 ], [ 82.738195732915841, 24.140160919152184 ], [ 82.738268690962087, 24.1400952863087 ], [ 82.73833486455176, 24.140022818366237 ], [ 82.738393616397033, 24.139944213230699 ], [ 82.738444380685507, 24.139860227912511 ], [ 82.738486668529347, 24.1397716712362 ], [ 82.738520072673481, 24.139679396050965 ], [ 82.738544271417751, 24.139584291017286 ], [ 82.738559031715027, 24.139487272048626 ], [ 82.738564211415564, 24.139389273490686 ], [ 82.738559760636036, 24.139291239123157 ], [ 82.738545722239863, 24.139194113070584 ], [ 82.738522231424469, 24.139098830709948 ], [ 82.738489514419271, 24.139006309662474 ], [ 82.738447886306901, 24.138917440956419 ], [ 82.738397747988827, 24.138833080446005 ], [ 82.738339582324485, 24.138754040569069 ], [ 82.738273949480998, 24.138681082522826 ], [ 82.738201481538525, 24.138614908933146 ], [ 82.738122876402997, 24.138556157087876 ], [ 82.738038891084813, 24.138505392799399 ], [ 82.737950334408495, 24.138463104955566 ], [ 82.737858059223257, 24.138429700811425 ], [ 82.737762954189577, 24.138405502067151 ], [ 82.720043099549756, 24.134812257367187 ], [ 82.71995473961239, 24.134798420545192 ], [ 82.719865496785047, 24.134792533785159 ], [ 82.719776084915424, 24.13479464417491 ], [ 82.700246610087817, 24.136131211933421 ], [ 82.682681487136918, 24.131678876810589 ], [ 82.682585291618793, 24.131659461122371 ], [ 82.682487656238152, 24.131649567735597 ], [ 82.682389521277059, 24.131649291928991 ], [ 82.682291831828877, 24.131658636358722 ], [ 82.682195528696354, 24.131677511032819 ], [ 82.682101539331313, 24.13170573417786 ], [ 82.682010768902728, 24.131743033989522 ], [ 82.681924091579447, 24.131789051250234 ], [ 82.681842342111466, 24.131843342788617 ], [ 82.681766307790852, 24.13190538574748 ], [ 82.681696720869667, 24.131974582619211 ], [ 82.681634251508029, 24.132050267000107 ], [ 82.68157950132003, 24.13213171000821 ], [ 82.681532997579893, 24.132218127302828 ], [ 82.681495188144069, 24.132308686638176 ], [ 82.681466437138099, 24.132402515878347 ], [ 82.681447021449884, 24.132498711396469 ], [ 82.681437128063109, 24.132596346777117 ], [ 82.68143685225651, 24.132694481738195 ], [ 82.681446196686238, 24.132792171186392 ], [ 82.681465071360336, 24.132888474318911 ], [ 82.681493294505373, 24.132982463683948 ], [ 82.681530594317039, 24.13307323411253 ], [ 82.681576611577754, 24.133159911435818 ], [ 82.68163090311613, 24.133241660903803 ], [ 82.681692946074989, 24.133317695224417 ], [ 82.681762142946724, 24.133387282145591 ], [ 82.681837827327612, 24.133449751507229 ], [ 82.681919270335726, 24.133504501695239 ], [ 82.682005687630337, 24.133551005435368 ], [ 82.682096246965685, 24.133588814871189 ], [ 82.682190076205856, 24.133617565877159 ], [ 82.699909930845678, 24.138109121752112 ] ] ] } },
{ "type": "Feature", "properties": { "Seam_ID": "GV-DUD-S2", "Mine_ID": "M-DUDHICHUA", "Mine_Code": "DUDHICHUA", "Feature_Type": "SYNTHETIC_SEAM_BELT", "Width_m": 100, "Data_Type": "SYNTHETIC_DEMO", "Source_Provenance": "Buffered demonstration representation of seam trace" }, "geometry": { "type": "Polygon", "coordinates": [ [ [ 82.699909930845678, 24.143948144389554 ], [ 82.700013399383224, 24.143968632496829 ], [ 82.700118450377829, 24.143978108220267 ], [ 82.700223915084564, 24.143976466137701 ], [ 82.71977794615421, 24.142638217787077 ], [ 82.737365482467624, 24.146204630882902 ], [ 82.737462501436283, 24.146219391180175 ], [ 82.737560499994217, 24.146224570880719 ], [ 82.737658534361756, 24.14622012010118 ], [ 82.737755660414322, 24.146206081705007 ], [ 82.737850942774955, 24.146182590889619 ], [ 82.737943463822432, 24.146149873884415 ], [ 82.738032332528491, 24.146108245772041 ], [ 82.738116693038904, 24.146058107453975 ], [ 82.738195732915841, 24.145999941789626 ], [ 82.738268690962087, 24.145934308946142 ], [ 82.73833486455176, 24.145861841003679 ], [ 82.738393616397033, 24.145783235868141 ], [ 82.738444380685507, 24.145699250549953 ], [ 82.738486668529347, 24.145610693873643 ], [ 82.738520072673481, 24.145518418688408 ], [ 82.738544271417751, 24.145423313654728 ], [ 82.738559031715027, 24.145326294686068 ], [ 82.738564211415564, 24.145228296128128 ], [ 82.738559760636036, 24.145130261760599 ], [ 82.738545722239863, 24.145033135708026 ], [ 82.738522231424469, 24.14493785334739 ], [ 82.738489514419271, 24.144845332299916 ], [ 82.738447886306901, 24.144756463593861 ], [ 82.738397747988827, 24.144672103083447 ], [ 82.738339582324485, 24.144593063206511 ], [ 82.738273949480998, 24.144520105160268 ], [ 82.738201481538525, 24.144453931570588 ], [ 82.738122876402997, 24.144395179725318 ], [ 82.738038891084813, 24.144344415436841 ], [ 82.737950334408495, 24.144302127593008 ], [ 82.737858059223257, 24.144268723448867 ], [ 82.737762954189577, 24.144244524704593 ], [ 82.720043099549756, 24.140651280004629 ], [ 82.71995473961239, 24.140637443182634 ], [ 82.719865496785047, 24.140631556422601 ], [ 82.719776084915424, 24.140633666812352 ], [ 82.700246610087817, 24.141970234570863 ], [ 82.682681487136918, 24.137517899448028 ], [ 82.682585291618793, 24.13749848375981 ], [ 82.682487656238152, 24.137488590373035 ], [ 82.682389521277059, 24.137488314566429 ], [ 82.682291831828877, 24.137497658996161 ], [ 82.682195528696354, 24.137516533670258 ], [ 82.682101539331313, 24.137544756815299 ], [ 82.682010768902728, 24.137582056626961 ], [ 82.681924091579447, 24.137628073887672 ], [ 82.681842342111466, 24.137682365426055 ], [ 82.681766307790852, 24.137744408384918 ], [ 82.681696720869667, 24.137813605256646 ], [ 82.681634251508029, 24.137889289637545 ], [ 82.68157950132003, 24.137970732645648 ], [ 82.681532997579893, 24.138057149940266 ], [ 82.681495188144069, 24.138147709275614 ], [ 82.681466437138099, 24.138241538515786 ], [ 82.681447021449884, 24.138337734033907 ], [ 82.681437128063109, 24.138435369414552 ], [ 82.68143685225651, 24.138533504375633 ], [ 82.681446196686238, 24.13863119382383 ], [ 82.681465071360336, 24.138727496956349 ], [ 82.681493294505373, 24.138821486321383 ], [ 82.681530594317039, 24.138912256749968 ], [ 82.681576611577754, 24.138998934073257 ], [ 82.68163090311613, 24.139080683541241 ], [ 82.681692946074989, 24.139156717861855 ], [ 82.681762142946724, 24.139226304783026 ], [ 82.681837827327612, 24.139288774144667 ], [ 82.681919270335726, 24.139343524332677 ], [ 82.682005687630337, 24.139390028072807 ], [ 82.682096246965685, 24.139427837508627 ], [ 82.682190076205856, 24.139456588514598 ], [ 82.699909930845678, 24.143948144389554 ] ] ] } },
{ "type": "Feature", "properties": { "Seam_ID": "GV-DUD-S3", "Mine_ID": "M-DUDHICHUA", "Mine_Code": "DUDHICHUA", "Feature_Type": "SYNTHETIC_SEAM_BELT", "Width_m": 100, "Data_Type": "SYNTHETIC_DEMO", "Source_Provenance": "Buffered demonstration representation of seam trace" }, "geometry": { "type": "Polygon", "coordinates": [ [ [ 82.699909930845678, 24.149787167026997 ], [ 82.700013399383224, 24.149807655134271 ], [ 82.700118450377829, 24.149817130857709 ], [ 82.700223915084564, 24.149815488775143 ], [ 82.71977794615421, 24.148477240424519 ], [ 82.737365482467624, 24.152043653520344 ], [ 82.737462501436283, 24.152058413817617 ], [ 82.737560499994217, 24.152063593518161 ], [ 82.737658534361756, 24.152059142738622 ], [ 82.737755660414322, 24.152045104342449 ], [ 82.737850942774955, 24.152021613527062 ], [ 82.737943463822432, 24.151988896521857 ], [ 82.738032332528491, 24.151947268409483 ], [ 82.738116693038904, 24.151897130091417 ], [ 82.738195732915841, 24.151838964427068 ], [ 82.738268690962087, 24.151773331583584 ], [ 82.73833486455176, 24.151700863641121 ], [ 82.738393616397033, 24.151622258505583 ], [ 82.738444380685507, 24.151538273187395 ], [ 82.738486668529347, 24.151449716511085 ], [ 82.738520072673481, 24.15135744132585 ], [ 82.738544271417751, 24.15126233629217 ], [ 82.738559031715027, 24.15116531732351 ], [ 82.738564211415564, 24.15106731876557 ], [ 82.738559760636036, 24.150969284398041 ], [ 82.738545722239863, 24.150872158345468 ], [ 82.738522231424469, 24.150776875984832 ], [ 82.738489514419271, 24.150684354937358 ], [ 82.738447886306901, 24.150595486231303 ], [ 82.738397747988827, 24.15051112572089 ], [ 82.738339582324485, 24.150432085843953 ], [ 82.738273949480998, 24.15035912779771 ], [ 82.738201481538525, 24.15029295420803 ], [ 82.738122876402997, 24.150234202362761 ], [ 82.738038891084813, 24.150183438074283 ], [ 82.737950334408495, 24.15014115023045 ], [ 82.737858059223257, 24.150107746086309 ], [ 82.737762954189577, 24.150083547342035 ], [ 82.720043099549756, 24.146490302642071 ], [ 82.71995473961239, 24.146476465820076 ], [ 82.719865496785047, 24.146470579060043 ], [ 82.719776084915424, 24.146472689449794 ], [ 82.700246610087817, 24.147809257208305 ], [ 82.682681487136918, 24.14335692208547 ], [ 82.682585291618793, 24.143337506397252 ], [ 82.682487656238152, 24.143327613010477 ], [ 82.682389521277059, 24.143327337203871 ], [ 82.682291831828877, 24.143336681633603 ], [ 82.682195528696354, 24.1433555563077 ], [ 82.682101539331313, 24.143383779452741 ], [ 82.682010768902728, 24.143421079264403 ], [ 82.681924091579447, 24.143467096525114 ], [ 82.681842342111466, 24.143521388063498 ], [ 82.681766307790852, 24.14358343102236 ], [ 82.681696720869667, 24.143652627894088 ], [ 82.681634251508029, 24.143728312274988 ], [ 82.68157950132003, 24.14380975528309 ], [ 82.681532997579893, 24.143896172577708 ], [ 82.681495188144069, 24.143986731913056 ], [ 82.681466437138099, 24.144080561153228 ], [ 82.681447021449884, 24.144176756671349 ], [ 82.681437128063109, 24.144274392051994 ], [ 82.68143685225651, 24.144372527013076 ], [ 82.681446196686238, 24.144470216461272 ], [ 82.681465071360336, 24.144566519593791 ], [ 82.681493294505373, 24.144660508958825 ], [ 82.681530594317039, 24.14475127938741 ], [ 82.681576611577754, 24.144837956710699 ], [ 82.68163090311613, 24.144919706178683 ], [ 82.681692946074989, 24.144995740499297 ], [ 82.681762142946724, 24.145065327420468 ], [ 82.681837827327612, 24.145127796782109 ], [ 82.681919270335726, 24.145182546970119 ], [ 82.682005687630337, 24.145229050710249 ], [ 82.682096246965685, 24.145266860146069 ], [ 82.682190076205856, 24.14529561115204 ], [ 82.699909930845678, 24.149787167026997 ] ] ] } },
{ "type": "Feature", "properties": { "Seam_ID": "GV-DUD-S4", "Mine_ID": "M-DUDHICHUA", "Mine_Code": "DUDHICHUA", "Feature_Type": "SYNTHETIC_SEAM_BELT", "Width_m": 100, "Data_Type": "SYNTHETIC_DEMO", "Source_Provenance": "Buffered demonstration representation of seam trace" }, "geometry": { "type": "Polygon", "coordinates": [ [ [ 82.699909930845678, 24.155626189664439 ], [ 82.700013399383224, 24.155646677771713 ], [ 82.700118450377829, 24.155656153495151 ], [ 82.700223915084564, 24.155654511412585 ], [ 82.71977794615421, 24.154316263061961 ], [ 82.737365482467624, 24.157882676157787 ], [ 82.737462501436283, 24.157897436455059 ], [ 82.737560499994217, 24.157902616155603 ], [ 82.737658534361756, 24.157898165376064 ], [ 82.737755660414322, 24.157884126979891 ], [ 82.737850942774955, 24.157860636164504 ], [ 82.737943463822432, 24.157827919159299 ], [ 82.738032332528491, 24.157786291046925 ], [ 82.738116693038904, 24.157736152728859 ], [ 82.738195732915841, 24.15767798706451 ], [ 82.738268690962087, 24.157612354221026 ], [ 82.73833486455176, 24.157539886278563 ], [ 82.738393616397033, 24.157461281143025 ], [ 82.738444380685507, 24.157377295824837 ], [ 82.738486668529347, 24.157288739148527 ], [ 82.738520072673481, 24.157196463963292 ], [ 82.738544271417751, 24.157101358929612 ], [ 82.738559031715027, 24.157004339960952 ], [ 82.738564211415564, 24.156906341403012 ], [ 82.738559760636036, 24.156808307035483 ], [ 82.738545722239863, 24.15671118098291 ], [ 82.738522231424469, 24.156615898622274 ], [ 82.738489514419271, 24.1565233775748 ], [ 82.738447886306901, 24.156434508868745 ], [ 82.738397747988827, 24.156350148358332 ], [ 82.738339582324485, 24.156271108481395 ], [ 82.738273949480998, 24.156198150435152 ], [ 82.738201481538525, 24.156131976845472 ], [ 82.738122876402997, 24.156073225000203 ], [ 82.738038891084813, 24.156022460711725 ], [ 82.737950334408495, 24.155980172867892 ], [ 82.737858059223257, 24.155946768723751 ], [ 82.737762954189577, 24.155922569979477 ], [ 82.720043099549756, 24.152329325279513 ], [ 82.71995473961239, 24.152315488457518 ], [ 82.719865496785047, 24.152309601697485 ], [ 82.719776084915424, 24.152311712087236 ], [ 82.700246610087817, 24.153648279845747 ], [ 82.682681487136918, 24.149195944722912 ], [ 82.682585291618793, 24.149176529034694 ], [ 82.682487656238152, 24.149166635647919 ], [ 82.682389521277059, 24.149166359841313 ], [ 82.682291831828877, 24.149175704271045 ], [ 82.682195528696354, 24.149194578945142 ], [ 82.682101539331313, 24.149222802090183 ], [ 82.682010768902728, 24.149260101901845 ], [ 82.681924091579447, 24.149306119162556 ], [ 82.681842342111466, 24.14936041070094 ], [ 82.681766307790852, 24.149422453659803 ], [ 82.681696720869667, 24.14949165053153 ], [ 82.681634251508029, 24.14956733491243 ], [ 82.68157950132003, 24.149648777920532 ], [ 82.681532997579893, 24.14973519521515 ], [ 82.681495188144069, 24.149825754550498 ], [ 82.681466437138099, 24.14991958379067 ], [ 82.681447021449884, 24.150015779308792 ], [ 82.681437128063109, 24.150113414689436 ], [ 82.68143685225651, 24.150211549650518 ], [ 82.681446196686238, 24.150309239098714 ], [ 82.681465071360336, 24.150405542231233 ], [ 82.681493294505373, 24.150499531596267 ], [ 82.681530594317039, 24.150590302024852 ], [ 82.681576611577754, 24.150676979348141 ], [ 82.68163090311613, 24.150758728816125 ], [ 82.681692946074989, 24.150834763136739 ], [ 82.681762142946724, 24.15090435005791 ], [ 82.681837827327612, 24.150966819419551 ], [ 82.681919270335726, 24.151021569607561 ], [ 82.682005687630337, 24.151068073347691 ], [ 82.682096246965685, 24.151105882783511 ], [ 82.682190076205856, 24.151134633789482 ], [ 82.699909930845678, 24.155626189664439 ] ] ] } }
]
}
