{
"type": "FeatureCollection",
"name": "geological_units",
"crs": { "type": "name", "properties": { "name": "urn:ogc:def:crs:OGC:1.3:CRS84" } },
"features": [
{ "type": "Feature", "properties": { "Geology_Unit_ID": "DUDHICHUA-GU-01", "Mine_ID": "M-DUDHICHUA", "Mine_Code": "DUDHICHUA", "Unit_Name": "Sandstone", "Unit_Type": "LITHOLOGY", "Age": "SYNTHETIC", "Description": "Synthetic sandstone unit for demonstration spatial queries", "Relative_Order": 1, "Data_Type": "SYNTHETIC_DEMO", "Source_Provenance": "Synthetic geometry; not an official geological map" }, "geometry": { "type": "Polygon", "coordinates": [ [ [ 82.645, 24.12 ], [ 82.675, 24.115 ], [ 82.705, 24.17 ], [ 82.675, 24.175 ], [ 82.645, 24.12 ] ] ] } },
{ "type": "Feature", "properties": { "Geology_Unit_ID": "DUDHICHUA-GU-02", "Mine_ID": "M-DUDHICHUA", "Mine_Code": "DUDHICHUA", "Unit_Name": "Shale", "Unit_Type": "LITHOLOGY", "Age": "SYNTHETIC", "Description": "Synthetic shale unit for demonstration spatial queries", "Relative_Order": 2, "Data_Type": "SYNTHETIC_DEMO", "Source_Provenance": "Synthetic geometry; not an official geological map" }, "geometry": { "type": "Polygon", "coordinates": [ [ [ 82.657, 24.12 ], [ 82.687, 24.115 ], [ 82.717, 24.17 ], [ 82.687, 24.175 ], [ 82.657, 24.12 ] ] ] } },
{ "type": "Feature", "properties": { "Geology_Unit_ID": "DUDHICHUA-GU-03", "Mine_ID": "M-DUDHICHUA", "Mine_Code": "DUDHICHUA", "Unit_Name": "Coal-bearing sequence", "Unit_Type": "LITHOLOGY", "Age": "SYNTHETIC", "Description": "Synthetic coal-bearing sequence unit for demonstration spatial queries", "Relative_Order": 3, "Data_Type": "SYNTHETIC_DEMO", "Source_Provenance": "Synthetic geometry; not an official geological map" }, "geometry": { "type": "Polygon", "coordinates": [ [ [ 82.669, 24.12 ], [ 82.699, 24.115 ], [ 82.729, 24.17 ], [ 82.699, 24.175 ], [ 82.669, 24.12 ] ] ] } },
{ "type": "Feature", "properties": { "Geology_Unit_ID": "DUDHICHUA-GU-04", "Mine_ID": "M-DUDHICHUA", "Mine_Code": "DUDHICHUA", "Unit_Name": "Siltstone", "Unit_Type": "LITHOLOGY", "Age": "SYNTHETIC", "Description": "Synthetic siltstone unit for demonstration spatial queries", "Relative_Order": 4, "Data_Type": "SYNTHETIC_DEMO", "Source_Provenance": "Synthetic geometry; not an official geological map" }, "geometry": { "type": "Polygon", "coordinates": [ [ [ 82.681, 24.12 ], [ 82.711, 24.115 ], [ 82.741, 24.17 ], [ 82.711, 24.175 ], [ 82.681, 24.12 ] ] ] } },
{ "type": "Feature", "properties": { "Geology_Unit_ID": "DUDHICHUA-GU-05", "Mine_ID": "M-DUDHICHUA", "Mine_Code": "DUDHICHUA", "Unit_Name": "Mudstone", "Unit_Type": "LITHOLOGY", "Age": "SYNTHETIC", "Description": "Synthetic mudstone unit for demonstration spatial queries", "Relative_Order": 5, "Data_Type": "SYNTHETIC_DEMO", "Source_Provenance": "Synthetic geometry; not an official geological map" }, "geometry": { "type": "Polygon", "coordinates": [ [ [ 82.693, 24.12 ], [ 82.723, 24.115 ], [ 82.753, 24.17 ], [ 82.723, 24.175 ], [ 82.693, 24.12 ] ] ] } },
{ "type": "Feature", "properties": { "Geology_Unit_ID": "DUDHICHUA-GU-06", "Mine_ID": "M-DUDHICHUA", "Mine_Code": "DUDHICHUA", "Unit_Name": "Weathered zone", "Unit_Type": "LITHOLOGY", "Age": "SYNTHETIC", "Description": "Synthetic weathered zone unit for demonstration spatial queries", "Relative_Order": 6, "Data_Type": "SYNTHETIC_DEMO", "Source_Provenance": "Synthetic geometry; not an official geological map" }, "geometry": { "type": "Polygon", "coordinates": [ [ [ 82.705, 24.12 ], [ 82.735, 24.115 ], [ 82.765, 24.17 ], [ 82.735, 24.175 ], [ 82.705, 24.12 ] ] ] } }
]
}
