{
"type": "FeatureCollection",
"name": "landuse",
"crs": { "type": "name", "properties": { "name": "urn:ogc:def:crs:OGC:1.3:CRS84" } },
"features": [
{ "type": "Feature", "properties": { "Landuse_ID": "DUDHICHUA-LU-01", "Mine_ID": "M-DUDHICHUA", "Mine_Code": "DUDHICHUA", "Landuse_Class": "Active Mine Working", "Status": "SYNTHETIC", "Data_Type": "SYNTHETIC_DEMO", "Source_Provenance": "Synthetic land-use classification" }, "geometry": { "type": "Polygon", "coordinates": [ [ [ 82.65, 24.133 ], [ 82.67, 24.127 ], [ 82.69, 24.157 ], [ 82.67, 24.163 ], [ 82.65, 24.133 ] ] ] } },
{ "type": "Feature", "properties": { "Landuse_ID": "DUDHICHUA-LU-02", "Mine_ID": "M-DUDHICHUA", "Mine_Code": "DUDHICHUA", "Landuse_Class": "Overburden Dump", "Status": "SYNTHETIC", "Data_Type": "SYNTHETIC_DEMO", "Source_Provenance": "Synthetic land-use classification" }, "geometry": { "type": "Polygon", "coordinates": [ [ [ 82.66, 24.133 ], [ 82.68, 24.127 ], [ 82.7, 24.157 ], [ 82.68, 24.163 ], [ 82.66, 24.133 ] ] ] } },
{ "type": "Feature", "properties": { "Landuse_ID": "DUDHICHUA-LU-03", "Mine_ID": "M-DUDHICHUA", "Mine_Code": "DUDHICHUA", "Landuse_Class": "Infrastructure", "Status": "SYNTHETIC", "Data_Type": "SYNTHETIC_DEMO", "Source_Provenance": "Synthetic land-use classification" }, "geometry": { "type": "Polygon", "coordinates": [ [ [ 82.67, 24.133 ], [ 82.69, 24.127 ], [ 82.71, 24.157 ], [ 82.69, 24.163 ], [ 82.67, 24.133 ] ] ] } },
{ "type": "Feature", "properties": { "Landuse_ID": "DUDHICHUA-LU-04", "Mine_ID": "M-DUDHICHUA", "Mine_Code": "DUDHICHUA", "Landuse_Class": "Green/Reclaimed Area", "Status": "SYNTHETIC", "Data_Type": "SYNTHETIC_DEMO", "Source_Provenance": "Synthetic land-use classification" }, "geometry": { "type": "Polygon", "coordinates": [ [ [ 82.68, 24.133 ], [ 82.7, 24.127 ], [ 82.72, 24.157 ], [ 82.7, 24.163 ], [ 82.68, 24.133 ] ] ] } },
{ "type": "Feature", "properties": { "Landuse_ID": "DUDHICHUA-LU-05", "Mine_ID": "M-DUDHICHUA", "Mine_Code": "DUDHICHUA", "Landuse_Class": "Water Body", "Status": "SYNTHETIC", "Data_Type": "SYNTHETIC_DEMO", "Source_Provenance": "Synthetic land-use classification" }, "geometry": { "type": "Polygon", "coordinates": [ [ [ 82.69, 24.133 ], [ 82.71, 24.127 ], [ 82.73, 24.157 ], [ 82.71, 24.163 ], [ 82.69, 24.133 ] ] ] } },
{ "type": "Feature", "properties": { "Landuse_ID": "DUDHICHUA-LU-06", "Mine_ID": "M-DUDHICHUA", "Mine_Code": "DUDHICHUA", "Landuse_Class": "Road/Transport", "Status": "SYNTHETIC", "Data_Type": "SYNTHETIC_DEMO", "Source_Provenance": "Synthetic land-use classification" }, "geometry": { "type": "Polygon", "coordinates": [ [ [ 82.7, 24.133 ], [ 82.72, 24.127 ], [ 82.74, 24.157 ], [ 82.72, 24.163 ], [ 82.7, 24.133 ] ] ] } }
]
}
