{
"type": "FeatureCollection",
"name": "survey_points",
"crs": { "type": "name", "properties": { "name": "urn:ogc:def:crs:OGC:1.3:CRS84" } },
"features": [
{ "type": "Feature", "properties": { "Survey_Point_ID": "DUDHICHUA-SP-001", "Mine_ID": "M-DUDHICHUA", "Mine_Code": "DUDHICHUA", "Latitude": 24.1661804, "Longitude": 82.6895059, "RL_m": 310.56, "Point_Type": "PIT_RIM", "Survey_Date": "2025-09-11", "Horizontal_Accuracy_m": 0.014, "Vertical_Accuracy_m": 0.068, "Data_Type": "SYNTHETIC_DEMO", "Source_Provenance": "Synthetic survey/control dataset" }, "geometry": { "type": "Point", "coordinates": [ 82.6895059, 24.1661804 ] } },
{ "type": "Feature", "properties": { "Survey_Point_ID": "DUDHICHUA-SP-002", "Mine_ID": "M-DUDHICHUA", "Mine_Code": "DUDHICHUA", "Latitude": 24.1448973, "Longitude": 82.6765529, "RL_m": 288.1, "Point_Type": "BENCH_RL", "Survey_Date": "2025-11-15", "Horizontal_Accuracy_m": 0.085, "Vertical_Accuracy_m": 0.075, "Data_Type": "SYNTHETIC_DEMO", "Source_Provenance": "Synthetic survey/control dataset" }, "geometry": { "type": "Point", "coordinates": [ 82.6765529, 24.1448973 ] } },
{ "type": "Feature", "properties": { "Survey_Point_ID": "DUDHICHUA-SP-003", "Mine_ID": "M-DUDHICHUA", "Mine_Code": "DUDHICHUA", "Latitude": 24.1712065, "Longitude": 82.732147, "RL_m": 257.07, "Point_Type": "PIT_FLOOR", "Survey_Date": "2025-11-06", "Horizontal_Accuracy_m": 0.081, "Vertical_Accuracy_m": 0.126, "Data_Type": "SYNTHETIC_DEMO", "Source_Provenance": "Synthetic survey/control dataset" }, "geometry": { "type": "Point", "coordinates": [ 82.732147, 24.1712065 ] } },
{ "type": "Feature", "properties": { "Survey_Point_ID": "DUDHICHUA-SP-004", "Mine_ID": "M-DUDHICHUA", "Mine_Code": "DUDHICHUA", "Latitude": 24.14055, "Longitude": 82.7086032, "RL_m": 312.77, "Point_Type": "BENCH_RL", "Survey_Date": "2025-02-23", "Horizontal_Accuracy_m": 0.068, "Vertical_Accuracy_m": 0.165, "Data_Type": "SYNTHETIC_DEMO", "Source_Provenance": "Synthetic survey/control dataset" }, "geometry": { "type": "Point", "coordinates": [ 82.7086032, 24.14055 ] } },
{ "type": "Feature", "properties": { "Survey_Point_ID": "DUDHICHUA-SP-005", "Mine_ID": "M-DUDHICHUA", "Mine_Code": "DUDHICHUA", "Latitude": 24.1515668, "Longitude": 82.7382206, "RL_m": 328.44, "Point_Type": "PIT_FLOOR", "Survey_Date": "2025-01-10", "Horizontal_Accuracy_m": 0.065, "Vertical_Accuracy_m": 0.135, "Data_Type": "SYNTHETIC_DEMO", "Source_Provenance": "Synthetic survey/control dataset" }, "geometry": { "type": "Point", "coordinates": [ 82.7382206, 24.1515668 ] } },
{ "type": "Feature", "properties": { "Survey_Point_ID": "DUDHICHUA-SP-006", "Mine_ID": "M-DUDHICHUA", "Mine_Code": "DUDHICHUA", "Latitude": 24.1220961, "Longitude": 82.7138371, "RL_m": 308.11, "Point_Type": "BENCH_RL", "Survey_Date": "2025-01-26", "Horizontal_Accuracy_m": 0.059, "Vertical_Accuracy_m": 0.101, "Data_Type": "SYNTHETIC_DEMO", "Source_Provenance": "Synthetic survey/control dataset" }, "geometry": { "type": "Point", "coordinates": [ 82.7138371, 24.1220961 ] } },
{ "type": "Feature", "properties": { "Survey_Point_ID": "DUDHICHUA-SP-007", "Mine_ID": "M-DUDHICHUA", "Mine_Code": "DUDHICHUA", "Latitude": 24.1336857, "Longitude": 82.738733, "RL_m": 291.89, "Point_Type": "BENCH_RL", "Survey_Date": "2025-01-11", "Horizontal_Accuracy_m": 0.073, "Vertical_Accuracy_m": 0.163, "Data_Type": "SYNTHETIC_DEMO", "Source_Provenance": "Synthetic survey/control dataset" }, "geometry": { "type": "Point", "coordinates": [ 82.738733, 24.1336857 ] } },
{ "type": "Feature", "properties": { "Survey_Point_ID": "DUDHICHUA-SP-008", "Mine_ID": "M-DUDHICHUA", "Mine_Code": "DUDHICHUA", "Latitude": 24.1641571, "Longitude": 82.7071543, "RL_m": 311.51, "Point_Type": "PIT_RIM", "Survey_Date": "2025-09-13", "Horizontal_Accuracy_m": 0.016, "Vertical_Accuracy_m": 0.028, "Data_Type": "SYNTHETIC_DEMO", "Source_Provenance": "Synthetic survey/control dataset" }, "geometry": { "type": "Point", "coordinates": [ 82.7071543, 24.1641571 ] } },
{ "type": "Feature", "properties": { "Survey_Point_ID": "DUDHICHUA-SP-009", "Mine_ID": "M-DUDHICHUA", "Mine_Code": "DUDHICHUA", "Latitude": 24.1364552, "Longitude": 82.7184564, "RL_m": 266.73, "Point_Type": "REFERENCE", "Survey_Date": "2025-08-09", "Horizontal_Accuracy_m": 0.062, "Vertical_Accuracy_m": 0.081, "Data_Type": "SYNTHETIC_DEMO", "Source_Provenance": "Synthetic survey/control dataset" }, "geometry": { "type": "Point", "coordinates": [ 82.7184564, 24.1364552 ] } },
{ "type": "Feature", "properties": { "Survey_Point_ID": "DUDHICHUA-SP-010", "Mine_ID": "M-DUDHICHUA", "Mine_Code": "DUDHICHUA", "Latitude": 24.1427667, "Longitude": 82.7126084, "RL_m": 296.78, "Point_Type": "DGPS_CONTROL", "Survey_Date": "2025-11-07", "Horizontal_Accuracy_m": 0.046, "Vertical_Accuracy_m": 0.146, "Data_Type": "SYNTHETIC_DEMO", "Source_Provenance": "Synthetic survey/control dataset" }, "geometry": { "type": "Point", "coordinates": [ 82.7126084, 24.1427667 ] } },
{ "type": "Feature", "properties": { "Survey_Point_ID": "DUDHICHUA-SP-011", "Mine_ID": "M-DUDHICHUA", "Mine_Code": "DUDHICHUA", "Latitude": 24.1560041, "Longitude": 82.6876047, "RL_m": 282.93, "Point_Type": "PIT_RIM", "Survey_Date": "2025-06-28", "Horizontal_Accuracy_m": 0.089, "Vertical_Accuracy_m": 0.113, "Data_Type": "SYNTHETIC_DEMO", "Source_Provenance": "Synthetic survey/control dataset" }, "geometry": { "type": "Point", "coordinates": [ 82.6876047, 24.1560041 ] } },
{ "type": "Feature", "properties": { "Survey_Point_ID": "DUDHICHUA-SP-012", "Mine_ID": "M-DUDHICHUA", "Mine_Code": "DUDHICHUA", "Latitude": 24.1507084, "Longitude": 82.7431177, "RL_m": 267.91, "Point_Type": "DGPS_CONTROL", "Survey_Date": "2025-11-11", "Horizontal_Accuracy_m": 0.084, "Vertical_Accuracy_m": 0.082, "Data_Type": "SYNTHETIC_DEMO", "Source_Provenance": "Synthetic survey/control dataset" }, "geometry": { "type": "Point", "coordinates": [ 82.7431177, 24.1507084 ] } },
{ "type": "Feature", "properties": { "Survey_Point_ID": "DUDHICHUA-SP-013", "Mine_ID": "M-DUDHICHUA", "Mine_Code": "DUDHICHUA", "Latitude": 24.1187811, "Longitude": 82.6993333, "RL_m": 293.9, "Point_Type": "PIT_RIM", "Survey_Date": "2025-02-26", "Horizontal_Accuracy_m": 0.058, "Vertical_Accuracy_m": 0.084, "Data_Type": "SYNTHETIC_DEMO", "Source_Provenance": "Synthetic survey/control dataset" }, "geometry": { "type": "Point", "coordinates": [ 82.6993333, 24.1187811 ] } },
{ "type": "Feature", "properties": { "Survey_Point_ID": "DUDHICHUA-SP-014", "Mine_ID": "M-DUDHICHUA", "Mine_Code": "DUDHICHUA", "Latitude": 24.1242099, "Longitude": 82.7375952, "RL_m": 276.41, "Point_Type": "PIT_RIM", "Survey_Date": "2025-07-13", "Horizontal_Accuracy_m": 0.039, "Vertical_Accuracy_m": 0.037, "Data_Type": "SYNTHETIC_DEMO", "Source_Provenance": "Synthetic survey/control dataset" }, "geometry": { "type": "Point", "coordinates": [ 82.7375952, 24.1242099 ] } },
{ "type": "Feature", "properties": { "Survey_Point_ID": "DUDHICHUA-SP-015", "Mine_ID": "M-DUDHICHUA", "Mine_Code": "DUDHICHUA", "Latitude": 24.1555159, "Longitude": 82.7086802, "RL_m": 290.93, "Point_Type": "PIT_FLOOR", "Survey_Date": "2025-07-11", "Horizontal_Accuracy_m": 0.024, "Vertical_Accuracy_m": 0.088, "Data_Type": "SYNTHETIC_DEMO", "Source_Provenance": "Synthetic survey/control dataset" }, "geometry": { "type": "Point", "coordinates": [ 82.7086802, 24.1555159 ] } },
{ "type": "Feature", "properties": { "Survey_Point_ID": "DUDHICHUA-SP-016", "Mine_ID": "M-DUDHICHUA", "Mine_Code": "DUDHICHUA", "Latitude": 24.1656249, "Longitude": 82.6751817, "RL_m": 256.76, "Point_Type": "BENCH_RL", "Survey_Date": "2025-08-23", "Horizontal_Accuracy_m": 0.064, "Vertical_Accuracy_m": 0.198, "Data_Type": "SYNTHETIC_DEMO", "Source_Provenance": "Synthetic survey/control dataset" }, "geometry": { "type": "Point", "coordinates": [ 82.6751817, 24.1656249 ] } },
{ "type": "Feature", "properties": { "Survey_Point_ID": "DUDHICHUA-SP-017", "Mine_ID": "M-DUDHICHUA", "Mine_Code": "DUDHICHUA", "Latitude": 24.1687463, "Longitude": 82.7125613, "RL_m": 268.89, "Point_Type": "PIT_FLOOR", "Survey_Date": "2025-06-26", "Horizontal_Accuracy_m": 0.078, "Vertical_Accuracy_m": 0.116, "Data_Type": "SYNTHETIC_DEMO", "Source_Provenance": "Synthetic survey/control dataset" }, "geometry": { "type": "Point", "coordinates": [ 82.7125613, 24.1687463 ] } },
{ "type": "Feature", "properties": { "Survey_Point_ID": "DUDHICHUA-SP-018", "Mine_ID": "M-DUDHICHUA", "Mine_Code": "DUDHICHUA", "Latitude": 24.1204911, "Longitude": 82.7254361, "RL_m": 261.82, "Point_Type": "REFERENCE", "Survey_Date": "2025-05-26", "Horizontal_Accuracy_m": 0.022, "Vertical_Accuracy_m": 0.144, "Data_Type": "SYNTHETIC_DEMO", "Source_Provenance": "Synthetic survey/control dataset" }, "geometry": { "type": "Point", "coordinates": [ 82.7254361, 24.1204911 ] } },
{ "type": "Feature", "properties": { "Survey_Point_ID": "DUDHICHUA-SP-019", "Mine_ID": "M-DUDHICHUA", "Mine_Code": "DUDHICHUA", "Latitude": 24.1589785, "Longitude": 82.7341108, "RL_m": 252.44, "Point_Type": "DGPS_CONTROL", "Survey_Date": "2025-12-14", "Horizontal_Accuracy_m": 0.088, "Vertical_Accuracy_m": 0.084, "Data_Type": "SYNTHETIC_DEMO", "Source_Provenance": "Synthetic survey/control dataset" }, "geometry": { "type": "Point", "coordinates": [ 82.7341108, 24.1589785 ] } },
{ "type": "Feature", "properties": { "Survey_Point_ID": "DUDHICHUA-SP-020", "Mine_ID": "M-DUDHICHUA", "Mine_Code": "DUDHICHUA", "Latitude": 24.1228727, "Longitude": 82.7028015, "RL_m": 308.99, "Point_Type": "DGPS_CONTROL", "Survey_Date": "2025-07-20", "Horizontal_Accuracy_m": 0.026, "Vertical_Accuracy_m": 0.122, "Data_Type": "SYNTHETIC_DEMO", "Source_Provenance": "Synthetic survey/control dataset" }, "geometry": { "type": "Point", "coordinates": [ 82.7028015, 24.1228727 ] } },
{ "type": "Feature", "properties": { "Survey_Point_ID": "DUDHICHUA-SP-021", "Mine_ID": "M-DUDHICHUA", "Mine_Code": "DUDHICHUA", "Latitude": 24.1219954, "Longitude": 82.7338497, "RL_m": 292.83, "Point_Type": "BENCH_RL", "Survey_Date": "2025-09-10", "Horizontal_Accuracy_m": 0.031, "Vertical_Accuracy_m": 0.082, "Data_Type": "SYNTHETIC_DEMO", "Source_Provenance": "Synthetic survey/control dataset" }, "geometry": { "type": "Point", "coordinates": [ 82.7338497, 24.1219954 ] } },
{ "type": "Feature", "properties": { "Survey_Point_ID": "DUDHICHUA-SP-022", "Mine_ID": "M-DUDHICHUA", "Mine_Code": "DUDHICHUA", "Latitude": 24.1368858, "Longitude": 82.7081779, "RL_m": 301.91, "Point_Type": "PIT_RIM", "Survey_Date": "2025-02-03", "Horizontal_Accuracy_m": 0.053, "Vertical_Accuracy_m": 0.125, "Data_Type": "SYNTHETIC_DEMO", "Source_Provenance": "Synthetic survey/control dataset" }, "geometry": { "type": "Point", "coordinates": [ 82.7081779, 24.1368858 ] } },
{ "type": "Feature", "properties": { "Survey_Point_ID": "DUDHICHUA-SP-023", "Mine_ID": "M-DUDHICHUA", "Mine_Code": "DUDHICHUA", "Latitude": 24.1482336, "Longitude": 82.7265776, "RL_m": 296.92, "Point_Type": "PIT_RIM", "Survey_Date": "2025-11-10", "Horizontal_Accuracy_m": 0.061, "Vertical_Accuracy_m": 0.088, "Data_Type": "SYNTHETIC_DEMO", "Source_Provenance": "Synthetic survey/control dataset" }, "geometry": { "type": "Point", "coordinates": [ 82.7265776, 24.1482336 ] } },
{ "type": "Feature", "properties": { "Survey_Point_ID": "DUDHICHUA-SP-024", "Mine_ID": "M-DUDHICHUA", "Mine_Code": "DUDHICHUA", "Latitude": 24.1673803, "Longitude": 82.6986213, "RL_m": 298.6, "Point_Type": "PIT_RIM", "Survey_Date": "2025-08-20", "Horizontal_Accuracy_m": 0.032, "Vertical_Accuracy_m": 0.11, "Data_Type": "SYNTHETIC_DEMO", "Source_Provenance": "Synthetic survey/control dataset" }, "geometry": { "type": "Point", "coordinates": [ 82.6986213, 24.1673803 ] } },
{ "type": "Feature", "properties": { "Survey_Point_ID": "DUDHICHUA-SP-025", "Mine_ID": "M-DUDHICHUA", "Mine_Code": "DUDHICHUA", "Latitude": 24.1692867, "Longitude": 82.6981244, "RL_m": 250.6, "Point_Type": "PIT_FLOOR", "Survey_Date": "2025-03-23", "Horizontal_Accuracy_m": 0.03, "Vertical_Accuracy_m": 0.086, "Data_Type": "SYNTHETIC_DEMO", "Source_Provenance": "Synthetic survey/control dataset" }, "geometry": { "type": "Point", "coordinates": [ 82.6981244, 24.1692867 ] } }
]
}
