{
"type": "FeatureCollection",
"name": "borehole_traces",
"crs": { "type": "name", "properties": { "name": "urn:ogc:def:crs:OGC:1.3:CRS84" } },
"features": [
{ "type": "Feature", "properties": { "Trace_ID": "GEVRA-BH-001-TRACE", "Borehole_ID": "GEVRA-BH-001", "Mine_ID": "M-GEVRA", "Mine_Code": "GEVRA", "Azimuth_deg": 240.4, "Inclination_deg": 81.1, "Total_Depth_m": 140.5, "Data_Type": "SYNTHETIC_DEMO", "Source_Provenance": "Synthetic borehole trace; 2D plan-view representation" }, "geometry": { "type": "LineString", "coordinates": [ [ 82.548922, 22.217246 ], [ 82.546254767102454, 22.212544947599714 ] ] } },
{ "type": "Feature", "properties": { "Trace_ID": "GEVRA-BH-002-TRACE", "Borehole_ID": "GEVRA-BH-002", "Mine_ID": "M-GEVRA", "Mine_Code": "GEVRA", "Azimuth_deg": 335.4, "Inclination_deg": 72.1, "Total_Depth_m": 100.7, "Data_Type": "SYNTHETIC_DEMO", "Source_Provenance": "Synthetic borehole trace; 2D plan-view representation" }, "geometry": { "type": "LineString", "coordinates": [ [ 82.557119, 22.185645 ], [ 82.561672714919865, 22.183563238863698 ] ] } },
{ "type": "Feature", "properties": { "Trace_ID": "GEVRA-BH-003-TRACE", "Borehole_ID": "GEVRA-BH-003", "Mine_ID": "M-GEVRA", "Mine_Code": "GEVRA", "Azimuth_deg": 316.1, "Inclination_deg": 75.3, "Total_Depth_m": 103.9, "Data_Type": "SYNTHETIC_DEMO", "Source_Provenance": "Synthetic borehole trace; 2D plan-view representation" }, "geometry": { "type": "LineString", "coordinates": [ [ 82.547133, 22.205846 ], [ 82.550765424392537, 22.202353577626845 ] ] } },
{ "type": "Feature", "properties": { "Trace_ID": "GEVRA-BH-004-TRACE", "Borehole_ID": "GEVRA-BH-004", "Mine_ID": "M-GEVRA", "Mine_Code": "GEVRA", "Azimuth_deg": 320.3, "Inclination_deg": 84.8, "Total_Depth_m": 218.9, "Data_Type": "SYNTHETIC_DEMO", "Source_Provenance": "Synthetic borehole trace; 2D plan-view representation" }, "geometry": { "type": "LineString", "coordinates": [ [ 82.51657, 22.225187 ], [ 82.521331577484162, 22.221233381295281 ] ] } },
{ "type": "Feature", "properties": { "Trace_ID": "GEVRA-BH-005-TRACE", "Borehole_ID": "GEVRA-BH-005", "Mine_ID": "M-GEVRA", "Mine_Code": "GEVRA", "Azimuth_deg": 56.0, "Inclination_deg": 75.6, "Total_Depth_m": 223.8, "Data_Type": "SYNTHETIC_DEMO", "Source_Provenance": "Synthetic borehole trace; 2D plan-view representation" }, "geometry": { "type": "LineString", "coordinates": [ [ 82.517911, 22.222258 ], [ 82.521402742345714, 22.227427175890906 ] ] } },
{ "type": "Feature", "properties": { "Trace_ID": "GEVRA-BH-006-TRACE", "Borehole_ID": "GEVRA-BH-006", "Mine_ID": "M-GEVRA", "Mine_Code": "GEVRA", "Azimuth_deg": 75.8, "Inclination_deg": 76.9, "Total_Depth_m": 91.7, "Data_Type": "SYNTHETIC_DEMO", "Source_Provenance": "Synthetic borehole trace; 2D plan-view representation" }, "geometry": { "type": "LineString", "coordinates": [ [ 82.542001, 22.185871 ], [ 82.543204956979508, 22.190638323839586 ] ] } },
{ "type": "Feature", "properties": { "Trace_ID": "GEVRA-BH-007-TRACE", "Borehole_ID": "GEVRA-BH-007", "Mine_ID": "M-GEVRA", "Mine_Code": "GEVRA", "Azimuth_deg": 247.5, "Inclination_deg": 87.1, "Total_Depth_m": 171.8, "Data_Type": "SYNTHETIC_DEMO", "Source_Provenance": "Synthetic borehole trace; 2D plan-view representation" }, "geometry": { "type": "LineString", "coordinates": [ [ 82.548137, 22.199874 ], [ 82.545948720831959, 22.194591296309397 ] ] } },
{ "type": "Feature", "properties": { "Trace_ID": "GEVRA-BH-008-TRACE", "Borehole_ID": "GEVRA-BH-008", "Mine_ID": "M-GEVRA", "Mine_Code": "GEVRA", "Azimuth_deg": 181.9, "Inclination_deg": 75.0, "Total_Depth_m": 123.3, "Data_Type": "SYNTHETIC_DEMO", "Source_Provenance": "Synthetic borehole trace; 2D plan-view representation" }, "geometry": { "type": "LineString", "coordinates": [ [ 82.519846, 22.20379 ], [ 82.514616021913056, 22.2036121848992 ] ] } },
{ "type": "Feature", "properties": { "Trace_ID": "GEVRA-BH-009-TRACE", "Borehole_ID": "GEVRA-BH-009", "Mine_ID": "M-GEVRA", "Mine_Code": "GEVRA", "Azimuth_deg": 326.9, "Inclination_deg": 71.0, "Total_Depth_m": 176.5, "Data_Type": "SYNTHETIC_DEMO", "Source_Provenance": "Synthetic borehole trace; 2D plan-view representation" }, "geometry": { "type": "LineString", "coordinates": [ [ 82.512199, 22.2236 ], [ 82.517030494550994, 22.220454863213835 ] ] } },
{ "type": "Feature", "properties": { "Trace_ID": "GEVRA-BH-010-TRACE", "Borehole_ID": "GEVRA-BH-010", "Mine_ID": "M-GEVRA", "Mine_Code": "GEVRA", "Azimuth_deg": 228.3, "Inclination_deg": 86.6, "Total_Depth_m": 91.1, "Data_Type": "SYNTHETIC_DEMO", "Source_Provenance": "Synthetic borehole trace; 2D plan-view representation" }, "geometry": { "type": "LineString", "coordinates": [ [ 82.505502, 22.193651 ], [ 82.502237768148191, 22.189981843227987 ] ] } },
{ "type": "Feature", "properties": { "Trace_ID": "GEVRA-BH-011-TRACE", "Borehole_ID": "GEVRA-BH-011", "Mine_ID": "M-GEVRA", "Mine_Code": "GEVRA", "Azimuth_deg": 15.9, "Inclination_deg": 76.7, "Total_Depth_m": 188.2, "Data_Type": "SYNTHETIC_DEMO", "Source_Provenance": "Synthetic borehole trace; 2D plan-view representation" }, "geometry": { "type": "LineString", "coordinates": [ [ 82.564841, 22.186619 ], [ 82.570498770698705, 22.188227587803308 ] ] } },
{ "type": "Feature", "properties": { "Trace_ID": "GEVRA-BH-012-TRACE", "Borehole_ID": "GEVRA-BH-012", "Mine_ID": "M-GEVRA", "Mine_Code": "GEVRA", "Azimuth_deg": 47.1, "Inclination_deg": 89.6, "Total_Depth_m": 145.9, "Data_Type": "SYNTHETIC_DEMO", "Source_Provenance": "Synthetic borehole trace; 2D plan-view representation" }, "geometry": { "type": "LineString", "coordinates": [ [ 82.537631, 22.184868 ], [ 82.541347398750588, 22.188866632432049 ] ] } }
]
}
