{
"type": "FeatureCollection",
"name": "borehole_intervals",
"crs": { "type": "name", "properties": { "name": "urn:ogc:def:crs:OGC:1.3:CRS84" } },
"features": [
{ "type": "Feature", "properties": { "Borehole_ID": "GEVRA-BH-001", "Mine_ID": "M-GEVRA", "Mine_Code": "GEVRA", "Mine_Name": "Gevra OCP", "Interval_No": 1, "From_Depth_m": 0.0, "To_Depth_m": 14.05, "Thickness_m": 14.05, "Lithology": "Sandstone", "Stratigraphic_Unit": "Overburden", "Coal_Bearing": "NO", "Coal_Seam": "", "Weathering_Class": "Moderate", "Sample_ID": "GEVRA-001-S01", "Data_Type": "SYNTHETIC_DEMO", "Source_Provenance": "Synthetic borehole interval generated to match GeoVault demonstration corpus" }, "geometry": { "type": "Point", "coordinates": [ 82.548922, 22.217246 ] } },
{ "type": "Feature", "properties": { "Borehole_ID": "GEVRA-BH-001", "Mine_ID": "M-GEVRA", "Mine_Code": "GEVRA", "Mine_Name": "Gevra OCP", "Interval_No": 2, "From_Depth_m": 14.05, "To_Depth_m": 28.1, "Thickness_m": 14.05, "Lithology": "Shale", "Stratigraphic_Unit": "Barakar-equivalent demo unit", "Coal_Bearing": "NO", "Coal_Seam": "", "Weathering_Class": "Slight", "Sample_ID": "GEVRA-001-S02", "Data_Type": "SYNTHETIC_DEMO", "Source_Provenance": "Synthetic borehole interval generated to match GeoVault demonstration corpus" }, "geometry": { "type": "Point", "coordinates": [ 82.548922, 22.217246 ] } },
{ "type": "Feature", "properties": { "Borehole_ID": "GEVRA-BH-001", "Mine_ID": "M-GEVRA", "Mine_Code": "GEVRA", "Mine_Name": "Gevra OCP", "Interval_No": 3, "From_Depth_m": 28.1, "To_Depth_m": 42.15, "Thickness_m": 14.05, "Lithology": "Sandstone", "Stratigraphic_Unit": "Overburden", "Coal_Bearing": "NO", "Coal_Seam": "", "Weathering_Class": "Fresh", "Sample_ID": "GEVRA-001-S03", "Data_Type": "SYNTHETIC_DEMO", "Source_Provenance": "Synthetic borehole interval generated to match GeoVault demonstration corpus" }, "geometry": { "type": "Point", "coordinates": [ 82.548922, 22.217246 ] } },
{ "type": "Feature", "properties": { "Borehole_ID": "GEVRA-BH-001", "Mine_ID": "M-GEVRA", "Mine_Code": "GEVRA", "Mine_Name": "Gevra OCP", "Interval_No": 4, "From_Depth_m": 42.15, "To_Depth_m": 56.2, "Thickness_m": 14.05, "Lithology": "Interbedded Sandstone-Shale", "Stratigraphic_Unit": "Underlying sedimentary sequence", "Coal_Bearing": "NO", "Coal_Seam": "", "Weathering_Class": "Fresh", "Sample_ID": "GEVRA-001-S04", "Data_Type": "SYNTHETIC_DEMO", "Source_Provenance": "Synthetic borehole interval generated to match GeoVault demonstration corpus" }, "geometry": { "type": "Point", "coordinates": [ 82.548922, 22.217246 ] } },
{ "type": "Feature", "properties": { "Borehole_ID": "GEVRA-BH-001", "Mine_ID": "M-GEVRA", "Mine_Code": "GEVRA", "Mine_Name": "Gevra OCP", "Interval_No": 5, "From_Depth_m": 56.2, "To_Depth_m": 70.25, "Thickness_m": 14.05, "Lithology": "Sandstone", "Stratigraphic_Unit": "Overburden", "Coal_Bearing": "NO", "Coal_Seam": "", "Weathering_Class": "Fresh", "Sample_ID": "GEVRA-001-S05", "Data_Type": "SYNTHETIC_DEMO", "Source_Provenance": "Synthetic borehole interval generated to match GeoVault demonstration corpus" }, "geometry": { "type": "Point", "coordinates": [ 82.548922, 22.217246 ] } },
{ "type": "Feature", "properties": { "Borehole_ID": "GEVRA-BH-001", "Mine_ID": "M-GEVRA", "Mine_Code": "GEVRA", "Mine_Name": "Gevra OCP", "Interval_No": 6, "From_Depth_m": 70.25, "To_Depth_m": 84.3, "Thickness_m": 14.05, "Lithology": "Carbonaceous Shale", "Stratigraphic_Unit": "Overburden", "Coal_Bearing": "NO", "Coal_Seam": "", "Weathering_Class": "Fresh", "Sample_ID": "GEVRA-001-S06", "Data_Type": "SYNTHETIC_DEMO", "Source_Provenance": "Synthetic borehole interval generated to match GeoVault demonstration corpus" }, "geometry": { "type": "Point", "coordinates": [ 82.548922, 22.217246 ] } },
{ "type": "Feature", "properties": { "Borehole_ID": "GEVRA-BH-001", "Mine_ID": "M-GEVRA", "Mine_Code": "GEVRA", "Mine_Name": "Gevra OCP", "Interval_No": 7, "From_Depth_m": 84.3, "To_Depth_m": 98.35, "Thickness_m": 14.05, "Lithology": "Coal", "Stratigraphic_Unit": "Barakar-equivalent demo unit", "Coal_Bearing": "YES", "Coal_Seam": "GV-GEV-S5", "Weathering_Class": "Fresh", "Sample_ID": "GEVRA-001-S07", "Data_Type": "SYNTHETIC_DEMO", "Source_Provenance": "Synthetic borehole interval generated to match GeoVault demonstration corpus" }, "geometry": { "type": "Point", "coordinates": [ 82.548922, 22.217246 ] } },
{ "type": "Feature", "properties": { "Borehole_ID": "GEVRA-BH-001", "Mine_ID": "M-GEVRA", "Mine_Code": "GEVRA", "Mine_Name": "Gevra OCP", "Interval_No": 8, "From_Depth_m": 98.35, "To_Depth_m": 112.4, "Thickness_m": 14.05, "Lithology": "Shale", "Stratigraphic_Unit": "Overburden", "Coal_Bearing": "NO", "Coal_Seam": "", "Weathering_Class": "Fresh", "Sample_ID": "GEVRA-001-S08", "Data_Type": "SYNTHETIC_DEMO", "Source_Provenance": "Synthetic borehole interval generated to match GeoVault demonstration corpus" }, "geometry": { "type": "Point", "coordinates": [ 82.548922, 22.217246 ] } },
{ "type": "Feature", "properties": { "Borehole_ID": "GEVRA-BH-001", "Mine_ID": "M-GEVRA", "Mine_Code": "GEVRA", "Mine_Name": "Gevra OCP", "Interval_No": 9, "From_Depth_m": 112.4, "To_Depth_m": 126.45, "Thickness_m": 14.05, "Lithology": "Interbedded Sandstone-Shale", "Stratigraphic_Unit": "Barakar-equivalent demo unit", "Coal_Bearing": "NO", "Coal_Seam": "", "Weathering_Class": "Fresh", "Sample_ID": "GEVRA-001-S09", "Data_Type": "SYNTHETIC_DEMO", "Source_Provenance": "Synthetic borehole interval generated to match GeoVault demonstration corpus" }, "geometry": { "type": "Point", "coordinates": [ 82.548922, 22.217246 ] } },
{ "type": "Feature", "properties": { "Borehole_ID": "GEVRA-BH-001", "Mine_ID": "M-GEVRA", "Mine_Code": "GEVRA", "Mine_Name": "Gevra OCP", "Interval_No": 10, "From_Depth_m": 126.45, "To_Depth_m": 140.5, "Thickness_m": 14.05, "Lithology": "Interbedded Sandstone-Shale", "Stratigraphic_Unit": "Underlying sedimentary sequence", "Coal_Bearing": "NO", "Coal_Seam": "", "Weathering_Class": "Fresh", "Sample_ID": "GEVRA-001-S10", "Data_Type": "SYNTHETIC_DEMO", "Source_Provenance": "Synthetic borehole interval generated to match GeoVault demonstration corpus" }, "geometry": { "type": "Point", "coordinates": [ 82.548922, 22.217246 ] } },
{ "type": "Feature", "properties": { "Borehole_ID": "GEVRA-BH-002", "Mine_ID": "M-GEVRA", "Mine_Code": "GEVRA", "Mine_Name": "Gevra OCP", "Interval_No": 1, "From_Depth_m": 0.0, "To_Depth_m": 10.07, "Thickness_m": 10.07, "Lithology": "Shale", "Stratigraphic_Unit": "Underlying sedimentary sequence", "Coal_Bearing": "NO", "Coal_Seam": "", "Weathering_Class": "Moderate", "Sample_ID": "GEVRA-002-S01", "Data_Type": "SYNTHETIC_DEMO", "Source_Provenance": "Synthetic borehole interval generated to match GeoVault demonstration corpus" }, "geometry": { "type": "Point", "coordinates": [ 82.557119, 22.185645 ] } },
{ "type": "Feature", "properties": { "Borehole_ID": "GEVRA-BH-002", "Mine_ID": "M-GEVRA", "Mine_Code": "GEVRA", "Mine_Name": "Gevra OCP", "Interval_No": 2, "From_Depth_m": 10.07, "To_Depth_m": 20.14, "Thickness_m": 10.07, "Lithology": "Sandstone", "Stratigraphic_Unit": "Barakar-equivalent demo unit", "Coal_Bearing": "NO", "Coal_Seam": "", "Weathering_Class": "Moderate", "Sample_ID": "GEVRA-002-S02", "Data_Type": "SYNTHETIC_DEMO", "Source_Provenance": "Synthetic borehole interval generated to match GeoVault demonstration corpus" }, "geometry": { "type": "Point", "coordinates": [ 82.557119, 22.185645 ] } },
{ "type": "Feature", "properties": { "Borehole_ID": "GEVRA-BH-002", "Mine_ID": "M-GEVRA", "Mine_Code": "GEVRA", "Mine_Name": "Gevra OCP", "Interval_No": 3, "From_Depth_m": 20.14, "To_Depth_m": 30.21, "Thickness_m": 10.07, "Lithology": "Siltstone", "Stratigraphic_Unit": "Coal-bearing sequence", "Coal_Bearing": "NO", "Coal_Seam": "", "Weathering_Class": "Slight", "Sample_ID": "GEVRA-002-S03", "Data_Type": "SYNTHETIC_DEMO", "Source_Provenance": "Synthetic borehole interval generated to match GeoVault demonstration corpus" }, "geometry": { "type": "Point", "coordinates": [ 82.557119, 22.185645 ] } },
{ "type": "Feature", "properties": { "Borehole_ID": "GEVRA-BH-002", "Mine_ID": "M-GEVRA", "Mine_Code": "GEVRA", "Mine_Name": "Gevra OCP", "Interval_No": 4, "From_Depth_m": 30.21, "To_Depth_m": 40.28, "Thickness_m": 10.07, "Lithology": "Shale", "Stratigraphic_Unit": "Coal-bearing sequence", "Coal_Bearing": "NO", "Coal_Seam": "", "Weathering_Class": "Fresh", "Sample_ID": "GEVRA-002-S04", "Data_Type": "SYNTHETIC_DEMO", "Source_Provenance": "Synthetic borehole interval generated to match GeoVault demonstration corpus" }, "geometry": { "type": "Point", "coordinates": [ 82.557119, 22.185645 ] } },
{ "type": "Feature", "properties": { "Borehole_ID": "GEVRA-BH-002", "Mine_ID": "M-GEVRA", "Mine_Code": "GEVRA", "Mine_Name": "Gevra OCP", "Interval_No": 5, "From_Depth_m": 40.28, "To_Depth_m": 50.35, "Thickness_m": 10.07, "Lithology": "Sandstone", "Stratigraphic_Unit": "Overburden", "Coal_Bearing": "NO", "Coal_Seam": "", "Weathering_Class": "Fresh", "Sample_ID": "GEVRA-002-S05", "Data_Type": "SYNTHETIC_DEMO", "Source_Provenance": "Synthetic borehole interval generated to match GeoVault demonstration corpus" }, "geometry": { "type": "Point", "coordinates": [ 82.557119, 22.185645 ] } },
{ "type": "Feature", "properties": { "Borehole_ID": "GEVRA-BH-002", "Mine_ID": "M-GEVRA", "Mine_Code": "GEVRA", "Mine_Name": "Gevra OCP", "Interval_No": 6, "From_Depth_m": 50.35, "To_Depth_m": 60.42, "Thickness_m": 10.07, "Lithology": "Mudstone", "Stratigraphic_Unit": "Overburden", "Coal_Bearing": "NO", "Coal_Seam": "", "Weathering_Class": "Fresh", "Sample_ID": "GEVRA-002-S06", "Data_Type": "SYNTHETIC_DEMO", "Source_Provenance": "Synthetic borehole interval generated to match GeoVault demonstration corpus" }, "geometry": { "type": "Point", "coordinates": [ 82.557119, 22.185645 ] } },
{ "type": "Feature", "properties": { "Borehole_ID": "GEVRA-BH-002", "Mine_ID": "M-GEVRA", "Mine_Code": "GEVRA", "Mine_Name": "Gevra OCP", "Interval_No": 7, "From_Depth_m": 60.42, "To_Depth_m": 70.49, "Thickness_m": 10.07, "Lithology": "Carbonaceous Shale", "Stratigraphic_Unit": "Coal-bearing sequence", "Coal_Bearing": "NO", "Coal_Seam": "", "Weathering_Class": "Fresh", "Sample_ID": "GEVRA-002-S07", "Data_Type": "SYNTHETIC_DEMO", "Source_Provenance": "Synthetic borehole interval generated to match GeoVault demonstration corpus" }, "geometry": { "type": "Point", "coordinates": [ 82.557119, 22.185645 ] } },
{ "type": "Feature", "properties": { "Borehole_ID": "GEVRA-BH-002", "Mine_ID": "M-GEVRA", "Mine_Code": "GEVRA", "Mine_Name": "Gevra OCP", "Interval_No": 8, "From_Depth_m": 70.49, "To_Depth_m": 80.56, "Thickness_m": 10.07, "Lithology": "Coal", "Stratigraphic_Unit": "Coal-bearing sequence", "Coal_Bearing": "YES", "Coal_Seam": "GV-GEV-S4", "Weathering_Class": "Fresh", "Sample_ID": "GEVRA-002-S08", "Data_Type": "SYNTHETIC_DEMO", "Source_Provenance": "Synthetic borehole interval generated to match GeoVault demonstration corpus" }, "geometry": { "type": "Point", "coordinates": [ 82.557119, 22.185645 ] } },
{ "type": "Feature", "properties": { "Borehole_ID": "GEVRA-BH-002", "Mine_ID": "M-GEVRA", "Mine_Code": "GEVRA", "Mine_Name": "Gevra OCP", "Interval_No": 9, "From_Depth_m": 80.56, "To_Depth_m": 90.63, "Thickness_m": 10.07, "Lithology": "Interbedded Sandstone-Shale", "Stratigraphic_Unit": "Coal-bearing sequence", "Coal_Bearing": "NO", "Coal_Seam": "", "Weathering_Class": "Fresh", "Sample_ID": "GEVRA-002-S09", "Data_Type": "SYNTHETIC_DEMO", "Source_Provenance": "Synthetic borehole interval generated to match GeoVault demonstration corpus" }, "geometry": { "type": "Point", "coordinates": [ 82.557119, 22.185645 ] } },
{ "type": "Feature", "properties": { "Borehole_ID": "GEVRA-BH-002", "Mine_ID": "M-GEVRA", "Mine_Code": "GEVRA", "Mine_Name": "Gevra OCP", "Interval_No": 10, "From_Depth_m": 90.63, "To_Depth_m": 100.7, "Thickness_m": 10.07, "Lithology": "Sandstone", "Stratigraphic_Unit": "Underlying sedimentary sequence", "Coal_Bearing": "NO", "Coal_Seam": "", "Weathering_Class": "Fresh", "Sample_ID": "GEVRA-002-S10", "Data_Type": "SYNTHETIC_DEMO", "Source_Provenance": "Synthetic borehole interval generated to match GeoVault demonstration corpus" }, "geometry": { "type": "Point", "coordinates": [ 82.557119, 22.185645 ] } },
{ "type": "Feature", "properties": { "Borehole_ID": "GEVRA-BH-003", "Mine_ID": "M-GEVRA", "Mine_Code": "GEVRA", "Mine_Name": "Gevra OCP", "Interval_No": 1, "From_Depth_m": 0.0, "To_Depth_m": 10.39, "Thickness_m": 10.39, "Lithology": "Interbedded Sandstone-Shale", "Stratigraphic_Unit": "Overburden", "Coal_Bearing": "NO", "Coal_Seam": "", "Weathering_Class": "Moderate", "Sample_ID": "GEVRA-003-S01", "Data_Type": "SYNTHETIC_DEMO", "Source_Provenance": "Synthetic borehole interval generated to match GeoVault demonstration corpus" }, "geometry": { "type": "Point", "coordinates": [ 82.547133, 22.205846 ] } },
{ "type": "Feature", "properties": { "Borehole_ID": "GEVRA-BH-003", "Mine_ID": "M-GEVRA", "Mine_Code": "GEVRA", "Mine_Name": "Gevra OCP", "Interval_No": 2, "From_Depth_m": 10.39, "To_Depth_m": 20.78, "Thickness_m": 10.39, "Lithology": "Sandstone", "Stratigraphic_Unit": "Coal-bearing sequence", "Coal_Bearing": "NO", "Coal_Seam": "", "Weathering_Class": "Moderate", "Sample_ID": "GEVRA-003-S02", "Data_Type": "SYNTHETIC_DEMO", "Source_Provenance": "Synthetic borehole interval generated to match GeoVault demonstration corpus" }, "geometry": { "type": "Point", "coordinates": [ 82.547133, 22.205846 ] } },
{ "type": "Feature", "properties": { "Borehole_ID": "GEVRA-BH-003", "Mine_ID": "M-GEVRA", "Mine_Code": "GEVRA", "Mine_Name": "Gevra OCP", "Interval_No": 3, "From_Depth_m": 20.78, "To_Depth_m": 31.17, "Thickness_m": 10.39, "Lithology": "Interbedded Sandstone-Shale", "Stratigraphic_Unit": "Barakar-equivalent demo unit", "Coal_Bearing": "NO", "Coal_Seam": "", "Weathering_Class": "Slight", "Sample_ID": "GEVRA-003-S03", "Data_Type": "SYNTHETIC_DEMO", "Source_Provenance": "Synthetic borehole interval generated to match GeoVault demonstration corpus" }, "geometry": { "type": "Point", "coordinates": [ 82.547133, 22.205846 ] } },
{ "type": "Feature", "properties": { "Borehole_ID": "GEVRA-BH-003", "Mine_ID": "M-GEVRA", "Mine_Code": "GEVRA", "Mine_Name": "Gevra OCP", "Interval_No": 4, "From_Depth_m": 31.17, "To_Depth_m": 41.56, "Thickness_m": 10.39, "Lithology": "Sandstone", "Stratigraphic_Unit": "Barakar-equivalent demo unit", "Coal_Bearing": "NO", "Coal_Seam": "", "Weathering_Class": "Fresh", "Sample_ID": "GEVRA-003-S04", "Data_Type": "SYNTHETIC_DEMO", "Source_Provenance": "Synthetic borehole interval generated to match GeoVault demonstration corpus" }, "geometry": { "type": "Point", "coordinates": [ 82.547133, 22.205846 ] } },
{ "type": "Feature", "properties": { "Borehole_ID": "GEVRA-BH-003", "Mine_ID": "M-GEVRA", "Mine_Code": "GEVRA", "Mine_Name": "Gevra OCP", "Interval_No": 5, "From_Depth_m": 41.56, "To_Depth_m": 51.95, "Thickness_m": 10.39, "Lithology": "Carbonaceous Shale", "Stratigraphic_Unit": "Coal-bearing sequence", "Coal_Bearing": "NO", "Coal_Seam": "", "Weathering_Class": "Fresh", "Sample_ID": "GEVRA-003-S05", "Data_Type": "SYNTHETIC_DEMO", "Source_Provenance": "Synthetic borehole interval generated to match GeoVault demonstration corpus" }, "geometry": { "type": "Point", "coordinates": [ 82.547133, 22.205846 ] } },
{ "type": "Feature", "properties": { "Borehole_ID": "GEVRA-BH-003", "Mine_ID": "M-GEVRA", "Mine_Code": "GEVRA", "Mine_Name": "Gevra OCP", "Interval_No": 6, "From_Depth_m": 51.95, "To_Depth_m": 62.34, "Thickness_m": 10.39, "Lithology": "Coal", "Stratigraphic_Unit": "Overburden", "Coal_Bearing": "YES", "Coal_Seam": "GV-GEV-S3", "Weathering_Class": "Fresh", "Sample_ID": "GEVRA-003-S06", "Data_Type": "SYNTHETIC_DEMO", "Source_Provenance": "Synthetic borehole interval generated to match GeoVault demonstration corpus" }, "geometry": { "type": "Point", "coordinates": [ 82.547133, 22.205846 ] } },
{ "type": "Feature", "properties": { "Borehole_ID": "GEVRA-BH-003", "Mine_ID": "M-GEVRA", "Mine_Code": "GEVRA", "Mine_Name": "Gevra OCP", "Interval_No": 7, "From_Depth_m": 62.34, "To_Depth_m": 72.73, "Thickness_m": 10.39, "Lithology": "Shale", "Stratigraphic_Unit": "Overburden", "Coal_Bearing": "NO", "Coal_Seam": "", "Weathering_Class": "Fresh", "Sample_ID": "GEVRA-003-S07", "Data_Type": "SYNTHETIC_DEMO", "Source_Provenance": "Synthetic borehole interval generated to match GeoVault demonstration corpus" }, "geometry": { "type": "Point", "coordinates": [ 82.547133, 22.205846 ] } },
{ "type": "Feature", "properties": { "Borehole_ID": "GEVRA-BH-003", "Mine_ID": "M-GEVRA", "Mine_Code": "GEVRA", "Mine_Name": "Gevra OCP", "Interval_No": 8, "From_Depth_m": 72.73, "To_Depth_m": 83.12, "Thickness_m": 10.39, "Lithology": "Mudstone", "Stratigraphic_Unit": "Coal-bearing sequence", "Coal_Bearing": "NO", "Coal_Seam": "", "Weathering_Class": "Fresh", "Sample_ID": "GEVRA-003-S08", "Data_Type": "SYNTHETIC_DEMO", "Source_Provenance": "Synthetic borehole interval generated to match GeoVault demonstration corpus" }, "geometry": { "type": "Point", "coordinates": [ 82.547133, 22.205846 ] } },
{ "type": "Feature", "properties": { "Borehole_ID": "GEVRA-BH-003", "Mine_ID": "M-GEVRA", "Mine_Code": "GEVRA", "Mine_Name": "Gevra OCP", "Interval_No": 9, "From_Depth_m": 83.12, "To_Depth_m": 93.51, "Thickness_m": 10.39, "Lithology": "Mudstone", "Stratigraphic_Unit": "Coal-bearing sequence", "Coal_Bearing": "NO", "Coal_Seam": "", "Weathering_Class": "Fresh", "Sample_ID": "GEVRA-003-S09", "Data_Type": "SYNTHETIC_DEMO", "Source_Provenance": "Synthetic borehole interval generated to match GeoVault demonstration corpus" }, "geometry": { "type": "Point", "coordinates": [ 82.547133, 22.205846 ] } },
{ "type": "Feature", "properties": { "Borehole_ID": "GEVRA-BH-003", "Mine_ID": "M-GEVRA", "Mine_Code": "GEVRA", "Mine_Name": "Gevra OCP", "Interval_No": 10, "From_Depth_m": 93.51, "To_Depth_m": 103.9, "Thickness_m": 10.39, "Lithology": "Shale", "Stratigraphic_Unit": "Coal-bearing sequence", "Coal_Bearing": "NO", "Coal_Seam": "", "Weathering_Class": "Fresh", "Sample_ID": "GEVRA-003-S10", "Data_Type": "SYNTHETIC_DEMO", "Source_Provenance": "Synthetic borehole interval generated to match GeoVault demonstration corpus" }, "geometry": { "type": "Point", "coordinates": [ 82.547133, 22.205846 ] } },
{ "type": "Feature", "properties": { "Borehole_ID": "GEVRA-BH-004", "Mine_ID": "M-GEVRA", "Mine_Code": "GEVRA", "Mine_Name": "Gevra OCP", "Interval_No": 1, "From_Depth_m": 0.0, "To_Depth_m": 21.89, "Thickness_m": 21.89, "Lithology": "Siltstone", "Stratigraphic_Unit": "Barakar-equivalent demo unit", "Coal_Bearing": "NO", "Coal_Seam": "", "Weathering_Class": "Moderate", "Sample_ID": "GEVRA-004-S01", "Data_Type": "SYNTHETIC_DEMO", "Source_Provenance": "Synthetic borehole interval generated to match GeoVault demonstration corpus" }, "geometry": { "type": "Point", "coordinates": [ 82.51657, 22.225187 ] } },
{ "type": "Feature", "properties": { "Borehole_ID": "GEVRA-BH-004", "Mine_ID": "M-GEVRA", "Mine_Code": "GEVRA", "Mine_Name": "Gevra OCP", "Interval_No": 2, "From_Depth_m": 21.89, "To_Depth_m": 43.78, "Thickness_m": 21.89, "Lithology": "Sandstone", "Stratigraphic_Unit": "Barakar-equivalent demo unit", "Coal_Bearing": "NO", "Coal_Seam": "", "Weathering_Class": "Slight", "Sample_ID": "GEVRA-004-S02", "Data_Type": "SYNTHETIC_DEMO", "Source_Provenance": "Synthetic borehole interval generated to match GeoVault demonstration corpus" }, "geometry": { "type": "Point", "coordinates": [ 82.51657, 22.225187 ] } },
{ "type": "Feature", "properties": { "Borehole_ID": "GEVRA-BH-004", "Mine_ID": "M-GEVRA", "Mine_Code": "GEVRA", "Mine_Name": "Gevra OCP", "Interval_No": 3, "From_Depth_m": 43.78, "To_Depth_m": 65.67, "Thickness_m": 21.89, "Lithology": "Shale", "Stratigraphic_Unit": "Underlying sedimentary sequence", "Coal_Bearing": "NO", "Coal_Seam": "", "Weathering_Class": "Fresh", "Sample_ID": "GEVRA-004-S03", "Data_Type": "SYNTHETIC_DEMO", "Source_Provenance": "Synthetic borehole interval generated to match GeoVault demonstration corpus" }, "geometry": { "type": "Point", "coordinates": [ 82.51657, 22.225187 ] } },
{ "type": "Feature", "properties": { "Borehole_ID": "GEVRA-BH-004", "Mine_ID": "M-GEVRA", "Mine_Code": "GEVRA", "Mine_Name": "Gevra OCP", "Interval_No": 4, "From_Depth_m": 65.67, "To_Depth_m": 87.56, "Thickness_m": 21.89, "Lithology": "Mudstone", "Stratigraphic_Unit": "Coal-bearing sequence", "Coal_Bearing": "NO", "Coal_Seam": "", "Weathering_Class": "Fresh", "Sample_ID": "GEVRA-004-S04", "Data_Type": "SYNTHETIC_DEMO", "Source_Provenance": "Synthetic borehole interval generated to match GeoVault demonstration corpus" }, "geometry": { "type": "Point", "coordinates": [ 82.51657, 22.225187 ] } },
{ "type": "Feature", "properties": { "Borehole_ID": "GEVRA-BH-004", "Mine_ID": "M-GEVRA", "Mine_Code": "GEVRA", "Mine_Name": "Gevra OCP", "Interval_No": 5, "From_Depth_m": 87.56, "To_Depth_m": 109.45, "Thickness_m": 21.89, "Lithology": "Interbedded Sandstone-Shale", "Stratigraphic_Unit": "Barakar-equivalent demo unit", "Coal_Bearing": "NO", "Coal_Seam": "", "Weathering_Class": "Fresh", "Sample_ID": "GEVRA-004-S05", "Data_Type": "SYNTHETIC_DEMO", "Source_Provenance": "Synthetic borehole interval generated to match GeoVault demonstration corpus" }, "geometry": { "type": "Point", "coordinates": [ 82.51657, 22.225187 ] } },
{ "type": "Feature", "properties": { "Borehole_ID": "GEVRA-BH-004", "Mine_ID": "M-GEVRA", "Mine_Code": "GEVRA", "Mine_Name": "Gevra OCP", "Interval_No": 6, "From_Depth_m": 109.45, "To_Depth_m": 131.34, "Thickness_m": 21.89, "Lithology": "Siltstone", "Stratigraphic_Unit": "Overburden", "Coal_Bearing": "NO", "Coal_Seam": "", "Weathering_Class": "Fresh", "Sample_ID": "GEVRA-004-S06", "Data_Type": "SYNTHETIC_DEMO", "Source_Provenance": "Synthetic borehole interval generated to match GeoVault demonstration corpus" }, "geometry": { "type": "Point", "coordinates": [ 82.51657, 22.225187 ] } },
{ "type": "Feature", "properties": { "Borehole_ID": "GEVRA-BH-004", "Mine_ID": "M-GEVRA", "Mine_Code": "GEVRA", "Mine_Name": "Gevra OCP", "Interval_No": 7, "From_Depth_m": 131.34, "To_Depth_m": 153.23, "Thickness_m": 21.89, "Lithology": "Carbonaceous Shale", "Stratigraphic_Unit": "Barakar-equivalent demo unit", "Coal_Bearing": "NO", "Coal_Seam": "", "Weathering_Class": "Fresh", "Sample_ID": "GEVRA-004-S07", "Data_Type": "SYNTHETIC_DEMO", "Source_Provenance": "Synthetic borehole interval generated to match GeoVault demonstration corpus" }, "geometry": { "type": "Point", "coordinates": [ 82.51657, 22.225187 ] } },
{ "type": "Feature", "properties": { "Borehole_ID": "GEVRA-BH-004", "Mine_ID": "M-GEVRA", "Mine_Code": "GEVRA", "Mine_Name": "Gevra OCP", "Interval_No": 8, "From_Depth_m": 153.23, "To_Depth_m": 175.12, "Thickness_m": 21.89, "Lithology": "Coal", "Stratigraphic_Unit": "Overburden", "Coal_Bearing": "YES", "Coal_Seam": "GV-GEV-S1", "Weathering_Class": "Fresh", "Sample_ID": "GEVRA-004-S08", "Data_Type": "SYNTHETIC_DEMO", "Source_Provenance": "Synthetic borehole interval generated to match GeoVault demonstration corpus" }, "geometry": { "type": "Point", "coordinates": [ 82.51657, 22.225187 ] } },
{ "type": "Feature", "properties": { "Borehole_ID": "GEVRA-BH-004", "Mine_ID": "M-GEVRA", "Mine_Code": "GEVRA", "Mine_Name": "Gevra OCP", "Interval_No": 9, "From_Depth_m": 175.12, "To_Depth_m": 197.01, "Thickness_m": 21.89, "Lithology": "Siltstone", "Stratigraphic_Unit": "Underlying sedimentary sequence", "Coal_Bearing": "NO", "Coal_Seam": "", "Weathering_Class": "Fresh", "Sample_ID": "GEVRA-004-S09", "Data_Type": "SYNTHETIC_DEMO", "Source_Provenance": "Synthetic borehole interval generated to match GeoVault demonstration corpus" }, "geometry": { "type": "Point", "coordinates": [ 82.51657, 22.225187 ] } },
{ "type": "Feature", "properties": { "Borehole_ID": "GEVRA-BH-004", "Mine_ID": "M-GEVRA", "Mine_Code": "GEVRA", "Mine_Name": "Gevra OCP", "Interval_No": 10, "From_Depth_m": 197.01, "To_Depth_m": 218.9, "Thickness_m": 21.89, "Lithology": "Siltstone", "Stratigraphic_Unit": "Overburden", "Coal_Bearing": "NO", "Coal_Seam": "", "Weathering_Class": "Fresh", "Sample_ID": "GEVRA-004-S10", "Data_Type": "SYNTHETIC_DEMO", "Source_Provenance": "Synthetic borehole interval generated to match GeoVault demonstration corpus" }, "geometry": { "type": "Point", "coordinates": [ 82.51657, 22.225187 ] } },
{ "type": "Feature", "properties": { "Borehole_ID": "GEVRA-BH-005", "Mine_ID": "M-GEVRA", "Mine_Code": "GEVRA", "Mine_Name": "Gevra OCP", "Interval_No": 1, "From_Depth_m": 0.0, "To_Depth_m": 22.38, "Thickness_m": 22.38, "Lithology": "Shale", "Stratigraphic_Unit": "Coal-bearing sequence", "Coal_Bearing": "NO", "Coal_Seam": "", "Weathering_Class": "Slight", "Sample_ID": "GEVRA-005-S01", "Data_Type": "SYNTHETIC_DEMO", "Source_Provenance": "Synthetic borehole interval generated to match GeoVault demonstration corpus" }, "geometry": { "type": "Point", "coordinates": [ 82.517911, 22.222258 ] } },
{ "type": "Feature", "properties": { "Borehole_ID": "GEVRA-BH-005", "Mine_ID": "M-GEVRA", "Mine_Code": "GEVRA", "Mine_Name": "Gevra OCP", "Interval_No": 2, "From_Depth_m": 22.38, "To_Depth_m": 44.76, "Thickness_m": 22.38, "Lithology": "Mudstone", "Stratigraphic_Unit": "Underlying sedimentary sequence", "Coal_Bearing": "NO", "Coal_Seam": "", "Weathering_Class": "Moderate", "Sample_ID": "GEVRA-005-S02", "Data_Type": "SYNTHETIC_DEMO", "Source_Provenance": "Synthetic borehole interval generated to match GeoVault demonstration corpus" }, "geometry": { "type": "Point", "coordinates": [ 82.517911, 22.222258 ] } },
{ "type": "Feature", "properties": { "Borehole_ID": "GEVRA-BH-005", "Mine_ID": "M-GEVRA", "Mine_Code": "GEVRA", "Mine_Name": "Gevra OCP", "Interval_No": 3, "From_Depth_m": 44.76, "To_Depth_m": 67.14, "Thickness_m": 22.38, "Lithology": "Shale", "Stratigraphic_Unit": "Coal-bearing sequence", "Coal_Bearing": "NO", "Coal_Seam": "", "Weathering_Class": "Fresh", "Sample_ID": "GEVRA-005-S03", "Data_Type": "SYNTHETIC_DEMO", "Source_Provenance": "Synthetic borehole interval generated to match GeoVault demonstration corpus" }, "geometry": { "type": "Point", "coordinates": [ 82.517911, 22.222258 ] } },
{ "type": "Feature", "properties": { "Borehole_ID": "GEVRA-BH-005", "Mine_ID": "M-GEVRA", "Mine_Code": "GEVRA", "Mine_Name": "Gevra OCP", "Interval_No": 4, "From_Depth_m": 67.14, "To_Depth_m": 89.52, "Thickness_m": 22.38, "Lithology": "Shale", "Stratigraphic_Unit": "Barakar-equivalent demo unit", "Coal_Bearing": "NO", "Coal_Seam": "", "Weathering_Class": "Fresh", "Sample_ID": "GEVRA-005-S04", "Data_Type": "SYNTHETIC_DEMO", "Source_Provenance": "Synthetic borehole interval generated to match GeoVault demonstration corpus" }, "geometry": { "type": "Point", "coordinates": [ 82.517911, 22.222258 ] } },
{ "type": "Feature", "properties": { "Borehole_ID": "GEVRA-BH-005", "Mine_ID": "M-GEVRA", "Mine_Code": "GEVRA", "Mine_Name": "Gevra OCP", "Interval_No": 5, "From_Depth_m": 89.52, "To_Depth_m": 111.9, "Thickness_m": 22.38, "Lithology": "Interbedded Sandstone-Shale", "Stratigraphic_Unit": "Coal-bearing sequence", "Coal_Bearing": "NO", "Coal_Seam": "", "Weathering_Class": "Fresh", "Sample_ID": "GEVRA-005-S05", "Data_Type": "SYNTHETIC_DEMO", "Source_Provenance": "Synthetic borehole interval generated to match GeoVault demonstration corpus" }, "geometry": { "type": "Point", "coordinates": [ 82.517911, 22.222258 ] } },
{ "type": "Feature", "properties": { "Borehole_ID": "GEVRA-BH-005", "Mine_ID": "M-GEVRA", "Mine_Code": "GEVRA", "Mine_Name": "Gevra OCP", "Interval_No": 6, "From_Depth_m": 111.9, "To_Depth_m": 134.28, "Thickness_m": 22.38, "Lithology": "Interbedded Sandstone-Shale", "Stratigraphic_Unit": "Underlying sedimentary sequence", "Coal_Bearing": "NO", "Coal_Seam": "", "Weathering_Class": "Fresh", "Sample_ID": "GEVRA-005-S06", "Data_Type": "SYNTHETIC_DEMO", "Source_Provenance": "Synthetic borehole interval generated to match GeoVault demonstration corpus" }, "geometry": { "type": "Point", "coordinates": [ 82.517911, 22.222258 ] } },
{ "type": "Feature", "properties": { "Borehole_ID": "GEVRA-BH-005", "Mine_ID": "M-GEVRA", "Mine_Code": "GEVRA", "Mine_Name": "Gevra OCP", "Interval_No": 7, "From_Depth_m": 134.28, "To_Depth_m": 156.66, "Thickness_m": 22.38, "Lithology": "Carbonaceous Shale", "Stratigraphic_Unit": "Underlying sedimentary sequence", "Coal_Bearing": "NO", "Coal_Seam": "", "Weathering_Class": "Fresh", "Sample_ID": "GEVRA-005-S07", "Data_Type": "SYNTHETIC_DEMO", "Source_Provenance": "Synthetic borehole interval generated to match GeoVault demonstration corpus" }, "geometry": { "type": "Point", "coordinates": [ 82.517911, 22.222258 ] } },
{ "type": "Feature", "properties": { "Borehole_ID": "GEVRA-BH-005", "Mine_ID": "M-GEVRA", "Mine_Code": "GEVRA", "Mine_Name": "Gevra OCP", "Interval_No": 8, "From_Depth_m": 156.66, "To_Depth_m": 179.04, "Thickness_m": 22.38, "Lithology": "Coal", "Stratigraphic_Unit": "Coal-bearing sequence", "Coal_Bearing": "YES", "Coal_Seam": "GV-GEV-S2", "Weathering_Class": "Fresh", "Sample_ID": "GEVRA-005-S08", "Data_Type": "SYNTHETIC_DEMO", "Source_Provenance": "Synthetic borehole interval generated to match GeoVault demonstration corpus" }, "geometry": { "type": "Point", "coordinates": [ 82.517911, 22.222258 ] } },
{ "type": "Feature", "properties": { "Borehole_ID": "GEVRA-BH-005", "Mine_ID": "M-GEVRA", "Mine_Code": "GEVRA", "Mine_Name": "Gevra OCP", "Interval_No": 9, "From_Depth_m": 179.04, "To_Depth_m": 201.42, "Thickness_m": 22.38, "Lithology": "Shale", "Stratigraphic_Unit": "Barakar-equivalent demo unit", "Coal_Bearing": "NO", "Coal_Seam": "", "Weathering_Class": "Fresh", "Sample_ID": "GEVRA-005-S09", "Data_Type": "SYNTHETIC_DEMO", "Source_Provenance": "Synthetic borehole interval generated to match GeoVault demonstration corpus" }, "geometry": { "type": "Point", "coordinates": [ 82.517911, 22.222258 ] } },
{ "type": "Feature", "properties": { "Borehole_ID": "GEVRA-BH-005", "Mine_ID": "M-GEVRA", "Mine_Code": "GEVRA", "Mine_Name": "Gevra OCP", "Interval_No": 10, "From_Depth_m": 201.42, "To_Depth_m": 223.8, "Thickness_m": 22.38, "Lithology": "Interbedded Sandstone-Shale", "Stratigraphic_Unit": "Underlying sedimentary sequence", "Coal_Bearing": "NO", "Coal_Seam": "", "Weathering_Class": "Fresh", "Sample_ID": "GEVRA-005-S10", "Data_Type": "SYNTHETIC_DEMO", "Source_Provenance": "Synthetic borehole interval generated to match GeoVault demonstration corpus" }, "geometry": { "type": "Point", "coordinates": [ 82.517911, 22.222258 ] } },
{ "type": "Feature", "properties": { "Borehole_ID": "GEVRA-BH-006", "Mine_ID": "M-GEVRA", "Mine_Code": "GEVRA", "Mine_Name": "Gevra OCP", "Interval_No": 1, "From_Depth_m": 0.0, "To_Depth_m": 9.17, "Thickness_m": 9.17, "Lithology": "Sandstone", "Stratigraphic_Unit": "Overburden", "Coal_Bearing": "NO", "Coal_Seam": "", "Weathering_Class": "Slight", "Sample_ID": "GEVRA-006-S01", "Data_Type": "SYNTHETIC_DEMO", "Source_Provenance": "Synthetic borehole interval generated to match GeoVault demonstration corpus" }, "geometry": { "type": "Point", "coordinates": [ 82.542001, 22.185871 ] } },
{ "type": "Feature", "properties": { "Borehole_ID": "GEVRA-BH-006", "Mine_ID": "M-GEVRA", "Mine_Code": "GEVRA", "Mine_Name": "Gevra OCP", "Interval_No": 2, "From_Depth_m": 9.17, "To_Depth_m": 18.34, "Thickness_m": 9.17, "Lithology": "Shale", "Stratigraphic_Unit": "Barakar-equivalent demo unit", "Coal_Bearing": "NO", "Coal_Seam": "", "Weathering_Class": "Moderate", "Sample_ID": "GEVRA-006-S02", "Data_Type": "SYNTHETIC_DEMO", "Source_Provenance": "Synthetic borehole interval generated to match GeoVault demonstration corpus" }, "geometry": { "type": "Point", "coordinates": [ 82.542001, 22.185871 ] } },
{ "type": "Feature", "properties": { "Borehole_ID": "GEVRA-BH-006", "Mine_ID": "M-GEVRA", "Mine_Code": "GEVRA", "Mine_Name": "Gevra OCP", "Interval_No": 3, "From_Depth_m": 18.34, "To_Depth_m": 27.51, "Thickness_m": 9.17, "Lithology": "Interbedded Sandstone-Shale", "Stratigraphic_Unit": "Overburden", "Coal_Bearing": "NO", "Coal_Seam": "", "Weathering_Class": "Moderate", "Sample_ID": "GEVRA-006-S03", "Data_Type": "SYNTHETIC_DEMO", "Source_Provenance": "Synthetic borehole interval generated to match GeoVault demonstration corpus" }, "geometry": { "type": "Point", "coordinates": [ 82.542001, 22.185871 ] } },
{ "type": "Feature", "properties": { "Borehole_ID": "GEVRA-BH-006", "Mine_ID": "M-GEVRA", "Mine_Code": "GEVRA", "Mine_Name": "Gevra OCP", "Interval_No": 4, "From_Depth_m": 27.51, "To_Depth_m": 36.68, "Thickness_m": 9.17, "Lithology": "Carbonaceous Shale", "Stratigraphic_Unit": "Underlying sedimentary sequence", "Coal_Bearing": "NO", "Coal_Seam": "", "Weathering_Class": "Fresh", "Sample_ID": "GEVRA-006-S04", "Data_Type": "SYNTHETIC_DEMO", "Source_Provenance": "Synthetic borehole interval generated to match GeoVault demonstration corpus" }, "geometry": { "type": "Point", "coordinates": [ 82.542001, 22.185871 ] } },
{ "type": "Feature", "properties": { "Borehole_ID": "GEVRA-BH-006", "Mine_ID": "M-GEVRA", "Mine_Code": "GEVRA", "Mine_Name": "Gevra OCP", "Interval_No": 5, "From_Depth_m": 36.68, "To_Depth_m": 45.85, "Thickness_m": 9.17, "Lithology": "Coal", "Stratigraphic_Unit": "Underlying sedimentary sequence", "Coal_Bearing": "YES", "Coal_Seam": "GV-GEV-S3", "Weathering_Class": "Fresh", "Sample_ID": "GEVRA-006-S05", "Data_Type": "SYNTHETIC_DEMO", "Source_Provenance": "Synthetic borehole interval generated to match GeoVault demonstration corpus" }, "geometry": { "type": "Point", "coordinates": [ 82.542001, 22.185871 ] } },
{ "type": "Feature", "properties": { "Borehole_ID": "GEVRA-BH-006", "Mine_ID": "M-GEVRA", "Mine_Code": "GEVRA", "Mine_Name": "Gevra OCP", "Interval_No": 6, "From_Depth_m": 45.85, "To_Depth_m": 55.02, "Thickness_m": 9.17, "Lithology": "Interbedded Sandstone-Shale", "Stratigraphic_Unit": "Coal-bearing sequence", "Coal_Bearing": "NO", "Coal_Seam": "", "Weathering_Class": "Fresh", "Sample_ID": "GEVRA-006-S06", "Data_Type": "SYNTHETIC_DEMO", "Source_Provenance": "Synthetic borehole interval generated to match GeoVault demonstration corpus" }, "geometry": { "type": "Point", "coordinates": [ 82.542001, 22.185871 ] } },
{ "type": "Feature", "properties": { "Borehole_ID": "GEVRA-BH-006", "Mine_ID": "M-GEVRA", "Mine_Code": "GEVRA", "Mine_Name": "Gevra OCP", "Interval_No": 7, "From_Depth_m": 55.02, "To_Depth_m": 64.19, "Thickness_m": 9.17, "Lithology": "Interbedded Sandstone-Shale", "Stratigraphic_Unit": "Overburden", "Coal_Bearing": "NO", "Coal_Seam": "", "Weathering_Class": "Fresh", "Sample_ID": "GEVRA-006-S07", "Data_Type": "SYNTHETIC_DEMO", "Source_Provenance": "Synthetic borehole interval generated to match GeoVault demonstration corpus" }, "geometry": { "type": "Point", "coordinates": [ 82.542001, 22.185871 ] } },
{ "type": "Feature", "properties": { "Borehole_ID": "GEVRA-BH-006", "Mine_ID": "M-GEVRA", "Mine_Code": "GEVRA", "Mine_Name": "Gevra OCP", "Interval_No": 8, "From_Depth_m": 64.19, "To_Depth_m": 73.36, "Thickness_m": 9.17, "Lithology": "Sandstone", "Stratigraphic_Unit": "Coal-bearing sequence", "Coal_Bearing": "NO", "Coal_Seam": "", "Weathering_Class": "Fresh", "Sample_ID": "GEVRA-006-S08", "Data_Type": "SYNTHETIC_DEMO", "Source_Provenance": "Synthetic borehole interval generated to match GeoVault demonstration corpus" }, "geometry": { "type": "Point", "coordinates": [ 82.542001, 22.185871 ] } },
{ "type": "Feature", "properties": { "Borehole_ID": "GEVRA-BH-006", "Mine_ID": "M-GEVRA", "Mine_Code": "GEVRA", "Mine_Name": "Gevra OCP", "Interval_No": 9, "From_Depth_m": 73.36, "To_Depth_m": 82.53, "Thickness_m": 9.17, "Lithology": "Siltstone", "Stratigraphic_Unit": "Overburden", "Coal_Bearing": "NO", "Coal_Seam": "", "Weathering_Class": "Fresh", "Sample_ID": "GEVRA-006-S09", "Data_Type": "SYNTHETIC_DEMO", "Source_Provenance": "Synthetic borehole interval generated to match GeoVault demonstration corpus" }, "geometry": { "type": "Point", "coordinates": [ 82.542001, 22.185871 ] } },
{ "type": "Feature", "properties": { "Borehole_ID": "GEVRA-BH-006", "Mine_ID": "M-GEVRA", "Mine_Code": "GEVRA", "Mine_Name": "Gevra OCP", "Interval_No": 10, "From_Depth_m": 82.53, "To_Depth_m": 91.7, "Thickness_m": 9.17, "Lithology": "Siltstone", "Stratigraphic_Unit": "Underlying sedimentary sequence", "Coal_Bearing": "NO", "Coal_Seam": "", "Weathering_Class": "Fresh", "Sample_ID": "GEVRA-006-S10", "Data_Type": "SYNTHETIC_DEMO", "Source_Provenance": "Synthetic borehole interval generated to match GeoVault demonstration corpus" }, "geometry": { "type": "Point", "coordinates": [ 82.542001, 22.185871 ] } },
{ "type": "Feature", "properties": { "Borehole_ID": "GEVRA-BH-007", "Mine_ID": "M-GEVRA", "Mine_Code": "GEVRA", "Mine_Name": "Gevra OCP", "Interval_No": 1, "From_Depth_m": 0.0, "To_Depth_m": 17.18, "Thickness_m": 17.18, "Lithology": "Shale", "Stratigraphic_Unit": "Underlying sedimentary sequence", "Coal_Bearing": "NO", "Coal_Seam": "", "Weathering_Class": "Slight", "Sample_ID": "GEVRA-007-S01", "Data_Type": "SYNTHETIC_DEMO", "Source_Provenance": "Synthetic borehole interval generated to match GeoVault demonstration corpus" }, "geometry": { "type": "Point", "coordinates": [ 82.548137, 22.199874 ] } },
{ "type": "Feature", "properties": { "Borehole_ID": "GEVRA-BH-007", "Mine_ID": "M-GEVRA", "Mine_Code": "GEVRA", "Mine_Name": "Gevra OCP", "Interval_No": 2, "From_Depth_m": 17.18, "To_Depth_m": 34.36, "Thickness_m": 17.18, "Lithology": "Siltstone", "Stratigraphic_Unit": "Barakar-equivalent demo unit", "Coal_Bearing": "NO", "Coal_Seam": "", "Weathering_Class": "Slight", "Sample_ID": "GEVRA-007-S02", "Data_Type": "SYNTHETIC_DEMO", "Source_Provenance": "Synthetic borehole interval generated to match GeoVault demonstration corpus" }, "geometry": { "type": "Point", "coordinates": [ 82.548137, 22.199874 ] } },
{ "type": "Feature", "properties": { "Borehole_ID": "GEVRA-BH-007", "Mine_ID": "M-GEVRA", "Mine_Code": "GEVRA", "Mine_Name": "Gevra OCP", "Interval_No": 3, "From_Depth_m": 34.36, "To_Depth_m": 51.54, "Thickness_m": 17.18, "Lithology": "Siltstone", "Stratigraphic_Unit": "Barakar-equivalent demo unit", "Coal_Bearing": "NO", "Coal_Seam": "", "Weathering_Class": "Fresh", "Sample_ID": "GEVRA-007-S03", "Data_Type": "SYNTHETIC_DEMO", "Source_Provenance": "Synthetic borehole interval generated to match GeoVault demonstration corpus" }, "geometry": { "type": "Point", "coordinates": [ 82.548137, 22.199874 ] } },
{ "type": "Feature", "properties": { "Borehole_ID": "GEVRA-BH-007", "Mine_ID": "M-GEVRA", "Mine_Code": "GEVRA", "Mine_Name": "Gevra OCP", "Interval_No": 4, "From_Depth_m": 51.54, "To_Depth_m": 68.72, "Thickness_m": 17.18, "Lithology": "Shale", "Stratigraphic_Unit": "Coal-bearing sequence", "Coal_Bearing": "NO", "Coal_Seam": "", "Weathering_Class": "Fresh", "Sample_ID": "GEVRA-007-S04", "Data_Type": "SYNTHETIC_DEMO", "Source_Provenance": "Synthetic borehole interval generated to match GeoVault demonstration corpus" }, "geometry": { "type": "Point", "coordinates": [ 82.548137, 22.199874 ] } },
{ "type": "Feature", "properties": { "Borehole_ID": "GEVRA-BH-007", "Mine_ID": "M-GEVRA", "Mine_Code": "GEVRA", "Mine_Name": "Gevra OCP", "Interval_No": 5, "From_Depth_m": 68.72, "To_Depth_m": 85.9, "Thickness_m": 17.18, "Lithology": "Carbonaceous Shale", "Stratigraphic_Unit": "Barakar-equivalent demo unit", "Coal_Bearing": "NO", "Coal_Seam": "", "Weathering_Class": "Fresh", "Sample_ID": "GEVRA-007-S05", "Data_Type": "SYNTHETIC_DEMO", "Source_Provenance": "Synthetic borehole interval generated to match GeoVault demonstration corpus" }, "geometry": { "type": "Point", "coordinates": [ 82.548137, 22.199874 ] } },
{ "type": "Feature", "properties": { "Borehole_ID": "GEVRA-BH-007", "Mine_ID": "M-GEVRA", "Mine_Code": "GEVRA", "Mine_Name": "Gevra OCP", "Interval_No": 6, "From_Depth_m": 85.9, "To_Depth_m": 103.08, "Thickness_m": 17.18, "Lithology": "Coal", "Stratigraphic_Unit": "Overburden", "Coal_Bearing": "YES", "Coal_Seam": "GV-GEV-S1", "Weathering_Class": "Fresh", "Sample_ID": "GEVRA-007-S06", "Data_Type": "SYNTHETIC_DEMO", "Source_Provenance": "Synthetic borehole interval generated to match GeoVault demonstration corpus" }, "geometry": { "type": "Point", "coordinates": [ 82.548137, 22.199874 ] } },
{ "type": "Feature", "properties": { "Borehole_ID": "GEVRA-BH-007", "Mine_ID": "M-GEVRA", "Mine_Code": "GEVRA", "Mine_Name": "Gevra OCP", "Interval_No": 7, "From_Depth_m": 103.08, "To_Depth_m": 120.26, "Thickness_m": 17.18, "Lithology": "Interbedded Sandstone-Shale", "Stratigraphic_Unit": "Coal-bearing sequence", "Coal_Bearing": "NO", "Coal_Seam": "", "Weathering_Class": "Fresh", "Sample_ID": "GEVRA-007-S07", "Data_Type": "SYNTHETIC_DEMO", "Source_Provenance": "Synthetic borehole interval generated to match GeoVault demonstration corpus" }, "geometry": { "type": "Point", "coordinates": [ 82.548137, 22.199874 ] } },
{ "type": "Feature", "properties": { "Borehole_ID": "GEVRA-BH-007", "Mine_ID": "M-GEVRA", "Mine_Code": "GEVRA", "Mine_Name": "Gevra OCP", "Interval_No": 8, "From_Depth_m": 120.26, "To_Depth_m": 137.44, "Thickness_m": 17.18, "Lithology": "Mudstone", "Stratigraphic_Unit": "Overburden", "Coal_Bearing": "NO", "Coal_Seam": "", "Weathering_Class": "Fresh", "Sample_ID": "GEVRA-007-S08", "Data_Type": "SYNTHETIC_DEMO", "Source_Provenance": "Synthetic borehole interval generated to match GeoVault demonstration corpus" }, "geometry": { "type": "Point", "coordinates": [ 82.548137, 22.199874 ] } },
{ "type": "Feature", "properties": { "Borehole_ID": "GEVRA-BH-007", "Mine_ID": "M-GEVRA", "Mine_Code": "GEVRA", "Mine_Name": "Gevra OCP", "Interval_No": 9, "From_Depth_m": 137.44, "To_Depth_m": 154.62, "Thickness_m": 17.18, "Lithology": "Sandstone", "Stratigraphic_Unit": "Coal-bearing sequence", "Coal_Bearing": "NO", "Coal_Seam": "", "Weathering_Class": "Fresh", "Sample_ID": "GEVRA-007-S09", "Data_Type": "SYNTHETIC_DEMO", "Source_Provenance": "Synthetic borehole interval generated to match GeoVault demonstration corpus" }, "geometry": { "type": "Point", "coordinates": [ 82.548137, 22.199874 ] } },
{ "type": "Feature", "properties": { "Borehole_ID": "GEVRA-BH-007", "Mine_ID": "M-GEVRA", "Mine_Code": "GEVRA", "Mine_Name": "Gevra OCP", "Interval_No": 10, "From_Depth_m": 154.62, "To_Depth_m": 171.8, "Thickness_m": 17.18, "Lithology": "Siltstone", "Stratigraphic_Unit": "Barakar-equivalent demo unit", "Coal_Bearing": "NO", "Coal_Seam": "", "Weathering_Class": "Fresh", "Sample_ID": "GEVRA-007-S10", "Data_Type": "SYNTHETIC_DEMO", "Source_Provenance": "Synthetic borehole interval generated to match GeoVault demonstration corpus" }, "geometry": { "type": "Point", "coordinates": [ 82.548137, 22.199874 ] } },
{ "type": "Feature", "properties": { "Borehole_ID": "GEVRA-BH-008", "Mine_ID": "M-GEVRA", "Mine_Code": "GEVRA", "Mine_Name": "Gevra OCP", "Interval_No": 1, "From_Depth_m": 0.0, "To_Depth_m": 12.33, "Thickness_m": 12.33, "Lithology": "Sandstone", "Stratigraphic_Unit": "Barakar-equivalent demo unit", "Coal_Bearing": "NO", "Coal_Seam": "", "Weathering_Class": "Slight", "Sample_ID": "GEVRA-008-S01", "Data_Type": "SYNTHETIC_DEMO", "Source_Provenance": "Synthetic borehole interval generated to match GeoVault demonstration corpus" }, "geometry": { "type": "Point", "coordinates": [ 82.519846, 22.20379 ] } },
{ "type": "Feature", "properties": { "Borehole_ID": "GEVRA-BH-008", "Mine_ID": "M-GEVRA", "Mine_Code": "GEVRA", "Mine_Name": "Gevra OCP", "Interval_No": 2, "From_Depth_m": 12.33, "To_Depth_m": 24.66, "Thickness_m": 12.33, "Lithology": "Sandstone", "Stratigraphic_Unit": "Underlying sedimentary sequence", "Coal_Bearing": "NO", "Coal_Seam": "", "Weathering_Class": "Slight", "Sample_ID": "GEVRA-008-S02", "Data_Type": "SYNTHETIC_DEMO", "Source_Provenance": "Synthetic borehole interval generated to match GeoVault demonstration corpus" }, "geometry": { "type": "Point", "coordinates": [ 82.519846, 22.20379 ] } },
{ "type": "Feature", "properties": { "Borehole_ID": "GEVRA-BH-008", "Mine_ID": "M-GEVRA", "Mine_Code": "GEVRA", "Mine_Name": "Gevra OCP", "Interval_No": 3, "From_Depth_m": 24.66, "To_Depth_m": 36.99, "Thickness_m": 12.33, "Lithology": "Interbedded Sandstone-Shale", "Stratigraphic_Unit": "Barakar-equivalent demo unit", "Coal_Bearing": "NO", "Coal_Seam": "", "Weathering_Class": "Slight", "Sample_ID": "GEVRA-008-S03", "Data_Type": "SYNTHETIC_DEMO", "Source_Provenance": "Synthetic borehole interval generated to match GeoVault demonstration corpus" }, "geometry": { "type": "Point", "coordinates": [ 82.519846, 22.20379 ] } },
{ "type": "Feature", "properties": { "Borehole_ID": "GEVRA-BH-008", "Mine_ID": "M-GEVRA", "Mine_Code": "GEVRA", "Mine_Name": "Gevra OCP", "Interval_No": 4, "From_Depth_m": 36.99, "To_Depth_m": 49.32, "Thickness_m": 12.33, "Lithology": "Mudstone", "Stratigraphic_Unit": "Barakar-equivalent demo unit", "Coal_Bearing": "NO", "Coal_Seam": "", "Weathering_Class": "Fresh", "Sample_ID": "GEVRA-008-S04", "Data_Type": "SYNTHETIC_DEMO", "Source_Provenance": "Synthetic borehole interval generated to match GeoVault demonstration corpus" }, "geometry": { "type": "Point", "coordinates": [ 82.519846, 22.20379 ] } },
{ "type": "Feature", "properties": { "Borehole_ID": "GEVRA-BH-008", "Mine_ID": "M-GEVRA", "Mine_Code": "GEVRA", "Mine_Name": "Gevra OCP", "Interval_No": 5, "From_Depth_m": 49.32, "To_Depth_m": 61.65, "Thickness_m": 12.33, "Lithology": "Carbonaceous Shale", "Stratigraphic_Unit": "Coal-bearing sequence", "Coal_Bearing": "NO", "Coal_Seam": "", "Weathering_Class": "Fresh", "Sample_ID": "GEVRA-008-S05", "Data_Type": "SYNTHETIC_DEMO", "Source_Provenance": "Synthetic borehole interval generated to match GeoVault demonstration corpus" }, "geometry": { "type": "Point", "coordinates": [ 82.519846, 22.20379 ] } },
{ "type": "Feature", "properties": { "Borehole_ID": "GEVRA-BH-008", "Mine_ID": "M-GEVRA", "Mine_Code": "GEVRA", "Mine_Name": "Gevra OCP", "Interval_No": 6, "From_Depth_m": 61.65, "To_Depth_m": 73.98, "Thickness_m": 12.33, "Lithology": "Coal", "Stratigraphic_Unit": "Underlying sedimentary sequence", "Coal_Bearing": "YES", "Coal_Seam": "GV-GEV-S2", "Weathering_Class": "Fresh", "Sample_ID": "GEVRA-008-S06", "Data_Type": "SYNTHETIC_DEMO", "Source_Provenance": "Synthetic borehole interval generated to match GeoVault demonstration corpus" }, "geometry": { "type": "Point", "coordinates": [ 82.519846, 22.20379 ] } },
{ "type": "Feature", "properties": { "Borehole_ID": "GEVRA-BH-008", "Mine_ID": "M-GEVRA", "Mine_Code": "GEVRA", "Mine_Name": "Gevra OCP", "Interval_No": 7, "From_Depth_m": 73.98, "To_Depth_m": 86.31, "Thickness_m": 12.33, "Lithology": "Shale", "Stratigraphic_Unit": "Barakar-equivalent demo unit", "Coal_Bearing": "NO", "Coal_Seam": "", "Weathering_Class": "Fresh", "Sample_ID": "GEVRA-008-S07", "Data_Type": "SYNTHETIC_DEMO", "Source_Provenance": "Synthetic borehole interval generated to match GeoVault demonstration corpus" }, "geometry": { "type": "Point", "coordinates": [ 82.519846, 22.20379 ] } },
{ "type": "Feature", "properties": { "Borehole_ID": "GEVRA-BH-008", "Mine_ID": "M-GEVRA", "Mine_Code": "GEVRA", "Mine_Name": "Gevra OCP", "Interval_No": 8, "From_Depth_m": 86.31, "To_Depth_m": 98.64, "Thickness_m": 12.33, "Lithology": "Siltstone", "Stratigraphic_Unit": "Underlying sedimentary sequence", "Coal_Bearing": "NO", "Coal_Seam": "", "Weathering_Class": "Fresh", "Sample_ID": "GEVRA-008-S08", "Data_Type": "SYNTHETIC_DEMO", "Source_Provenance": "Synthetic borehole interval generated to match GeoVault demonstration corpus" }, "geometry": { "type": "Point", "coordinates": [ 82.519846, 22.20379 ] } },
{ "type": "Feature", "properties": { "Borehole_ID": "GEVRA-BH-008", "Mine_ID": "M-GEVRA", "Mine_Code": "GEVRA", "Mine_Name": "Gevra OCP", "Interval_No": 9, "From_Depth_m": 98.64, "To_Depth_m": 110.97, "Thickness_m": 12.33, "Lithology": "Siltstone", "Stratigraphic_Unit": "Underlying sedimentary sequence", "Coal_Bearing": "NO", "Coal_Seam": "", "Weathering_Class": "Fresh", "Sample_ID": "GEVRA-008-S09", "Data_Type": "SYNTHETIC_DEMO", "Source_Provenance": "Synthetic borehole interval generated to match GeoVault demonstration corpus" }, "geometry": { "type": "Point", "coordinates": [ 82.519846, 22.20379 ] } },
{ "type": "Feature", "properties": { "Borehole_ID": "GEVRA-BH-008", "Mine_ID": "M-GEVRA", "Mine_Code": "GEVRA", "Mine_Name": "Gevra OCP", "Interval_No": 10, "From_Depth_m": 110.97, "To_Depth_m": 123.3, "Thickness_m": 12.33, "Lithology": "Interbedded Sandstone-Shale", "Stratigraphic_Unit": "Underlying sedimentary sequence", "Coal_Bearing": "NO", "Coal_Seam": "", "Weathering_Class": "Fresh", "Sample_ID": "GEVRA-008-S10", "Data_Type": "SYNTHETIC_DEMO", "Source_Provenance": "Synthetic borehole interval generated to match GeoVault demonstration corpus" }, "geometry": { "type": "Point", "coordinates": [ 82.519846, 22.20379 ] } },
{ "type": "Feature", "properties": { "Borehole_ID": "GEVRA-BH-009", "Mine_ID": "M-GEVRA", "Mine_Code": "GEVRA", "Mine_Name": "Gevra OCP", "Interval_No": 1, "From_Depth_m": 0.0, "To_Depth_m": 17.65, "Thickness_m": 17.65, "Lithology": "Sandstone", "Stratigraphic_Unit": "Barakar-equivalent demo unit", "Coal_Bearing": "NO", "Coal_Seam": "", "Weathering_Class": "Slight", "Sample_ID": "GEVRA-009-S01", "Data_Type": "SYNTHETIC_DEMO", "Source_Provenance": "Synthetic borehole interval generated to match GeoVault demonstration corpus" }, "geometry": { "type": "Point", "coordinates": [ 82.512199, 22.2236 ] } },
{ "type": "Feature", "properties": { "Borehole_ID": "GEVRA-BH-009", "Mine_ID": "M-GEVRA", "Mine_Code": "GEVRA", "Mine_Name": "Gevra OCP", "Interval_No": 2, "From_Depth_m": 17.65, "To_Depth_m": 35.3, "Thickness_m": 17.65, "Lithology": "Sandstone", "Stratigraphic_Unit": "Coal-bearing sequence", "Coal_Bearing": "NO", "Coal_Seam": "", "Weathering_Class": "Slight", "Sample_ID": "GEVRA-009-S02", "Data_Type": "SYNTHETIC_DEMO", "Source_Provenance": "Synthetic borehole interval generated to match GeoVault demonstration corpus" }, "geometry": { "type": "Point", "coordinates": [ 82.512199, 22.2236 ] } },
{ "type": "Feature", "properties": { "Borehole_ID": "GEVRA-BH-009", "Mine_ID": "M-GEVRA", "Mine_Code": "GEVRA", "Mine_Name": "Gevra OCP", "Interval_No": 3, "From_Depth_m": 35.3, "To_Depth_m": 52.95, "Thickness_m": 17.65, "Lithology": "Interbedded Sandstone-Shale", "Stratigraphic_Unit": "Barakar-equivalent demo unit", "Coal_Bearing": "NO", "Coal_Seam": "", "Weathering_Class": "Fresh", "Sample_ID": "GEVRA-009-S03", "Data_Type": "SYNTHETIC_DEMO", "Source_Provenance": "Synthetic borehole interval generated to match GeoVault demonstration corpus" }, "geometry": { "type": "Point", "coordinates": [ 82.512199, 22.2236 ] } },
{ "type": "Feature", "properties": { "Borehole_ID": "GEVRA-BH-009", "Mine_ID": "M-GEVRA", "Mine_Code": "GEVRA", "Mine_Name": "Gevra OCP", "Interval_No": 4, "From_Depth_m": 52.95, "To_Depth_m": 70.6, "Thickness_m": 17.65, "Lithology": "Interbedded Sandstone-Shale", "Stratigraphic_Unit": "Barakar-equivalent demo unit", "Coal_Bearing": "NO", "Coal_Seam": "", "Weathering_Class": "Fresh", "Sample_ID": "GEVRA-009-S04", "Data_Type": "SYNTHETIC_DEMO", "Source_Provenance": "Synthetic borehole interval generated to match GeoVault demonstration corpus" }, "geometry": { "type": "Point", "coordinates": [ 82.512199, 22.2236 ] } },
{ "type": "Feature", "properties": { "Borehole_ID": "GEVRA-BH-009", "Mine_ID": "M-GEVRA", "Mine_Code": "GEVRA", "Mine_Name": "Gevra OCP", "Interval_No": 5, "From_Depth_m": 70.6, "To_Depth_m": 88.25, "Thickness_m": 17.65, "Lithology": "Carbonaceous Shale", "Stratigraphic_Unit": "Overburden", "Coal_Bearing": "NO", "Coal_Seam": "", "Weathering_Class": "Fresh", "Sample_ID": "GEVRA-009-S05", "Data_Type": "SYNTHETIC_DEMO", "Source_Provenance": "Synthetic borehole interval generated to match GeoVault demonstration corpus" }, "geometry": { "type": "Point", "coordinates": [ 82.512199, 22.2236 ] } },
{ "type": "Feature", "properties": { "Borehole_ID": "GEVRA-BH-009", "Mine_ID": "M-GEVRA", "Mine_Code": "GEVRA", "Mine_Name": "Gevra OCP", "Interval_No": 6, "From_Depth_m": 88.25, "To_Depth_m": 105.9, "Thickness_m": 17.65, "Lithology": "Coal", "Stratigraphic_Unit": "Overburden", "Coal_Bearing": "YES", "Coal_Seam": "GV-GEV-S4", "Weathering_Class": "Fresh", "Sample_ID": "GEVRA-009-S06", "Data_Type": "SYNTHETIC_DEMO", "Source_Provenance": "Synthetic borehole interval generated to match GeoVault demonstration corpus" }, "geometry": { "type": "Point", "coordinates": [ 82.512199, 22.2236 ] } },
{ "type": "Feature", "properties": { "Borehole_ID": "GEVRA-BH-009", "Mine_ID": "M-GEVRA", "Mine_Code": "GEVRA", "Mine_Name": "Gevra OCP", "Interval_No": 7, "From_Depth_m": 105.9, "To_Depth_m": 123.55, "Thickness_m": 17.65, "Lithology": "Sandstone", "Stratigraphic_Unit": "Barakar-equivalent demo unit", "Coal_Bearing": "NO", "Coal_Seam": "", "Weathering_Class": "Fresh", "Sample_ID": "GEVRA-009-S07", "Data_Type": "SYNTHETIC_DEMO", "Source_Provenance": "Synthetic borehole interval generated to match GeoVault demonstration corpus" }, "geometry": { "type": "Point", "coordinates": [ 82.512199, 22.2236 ] } },
{ "type": "Feature", "properties": { "Borehole_ID": "GEVRA-BH-009", "Mine_ID": "M-GEVRA", "Mine_Code": "GEVRA", "Mine_Name": "Gevra OCP", "Interval_No": 8, "From_Depth_m": 123.55, "To_Depth_m": 141.2, "Thickness_m": 17.65, "Lithology": "Sandstone", "Stratigraphic_Unit": "Overburden", "Coal_Bearing": "NO", "Coal_Seam": "", "Weathering_Class": "Fresh", "Sample_ID": "GEVRA-009-S08", "Data_Type": "SYNTHETIC_DEMO", "Source_Provenance": "Synthetic borehole interval generated to match GeoVault demonstration corpus" }, "geometry": { "type": "Point", "coordinates": [ 82.512199, 22.2236 ] } },
{ "type": "Feature", "properties": { "Borehole_ID": "GEVRA-BH-009", "Mine_ID": "M-GEVRA", "Mine_Code": "GEVRA", "Mine_Name": "Gevra OCP", "Interval_No": 9, "From_Depth_m": 141.2, "To_Depth_m": 158.85, "Thickness_m": 17.65, "Lithology": "Siltstone", "Stratigraphic_Unit": "Overburden", "Coal_Bearing": "NO", "Coal_Seam": "", "Weathering_Class": "Fresh", "Sample_ID": "GEVRA-009-S09", "Data_Type": "SYNTHETIC_DEMO", "Source_Provenance": "Synthetic borehole interval generated to match GeoVault demonstration corpus" }, "geometry": { "type": "Point", "coordinates": [ 82.512199, 22.2236 ] } },
{ "type": "Feature", "properties": { "Borehole_ID": "GEVRA-BH-009", "Mine_ID": "M-GEVRA", "Mine_Code": "GEVRA", "Mine_Name": "Gevra OCP", "Interval_No": 10, "From_Depth_m": 158.85, "To_Depth_m": 176.5, "Thickness_m": 17.65, "Lithology": "Interbedded Sandstone-Shale", "Stratigraphic_Unit": "Barakar-equivalent demo unit", "Coal_Bearing": "NO", "Coal_Seam": "", "Weathering_Class": "Fresh", "Sample_ID": "GEVRA-009-S10", "Data_Type": "SYNTHETIC_DEMO", "Source_Provenance": "Synthetic borehole interval generated to match GeoVault demonstration corpus" }, "geometry": { "type": "Point", "coordinates": [ 82.512199, 22.2236 ] } },
{ "type": "Feature", "properties": { "Borehole_ID": "GEVRA-BH-010", "Mine_ID": "M-GEVRA", "Mine_Code": "GEVRA", "Mine_Name": "Gevra OCP", "Interval_No": 1, "From_Depth_m": 0.0, "To_Depth_m": 9.11, "Thickness_m": 9.11, "Lithology": "Siltstone", "Stratigraphic_Unit": "Underlying sedimentary sequence", "Coal_Bearing": "NO", "Coal_Seam": "", "Weathering_Class": "Slight", "Sample_ID": "GEVRA-010-S01", "Data_Type": "SYNTHETIC_DEMO", "Source_Provenance": "Synthetic borehole interval generated to match GeoVault demonstration corpus" }, "geometry": { "type": "Point", "coordinates": [ 82.505502, 22.193651 ] } },
{ "type": "Feature", "properties": { "Borehole_ID": "GEVRA-BH-010", "Mine_ID": "M-GEVRA", "Mine_Code": "GEVRA", "Mine_Name": "Gevra OCP", "Interval_No": 2, "From_Depth_m": 9.11, "To_Depth_m": 18.22, "Thickness_m": 9.11, "Lithology": "Interbedded Sandstone-Shale", "Stratigraphic_Unit": "Barakar-equivalent demo unit", "Coal_Bearing": "NO", "Coal_Seam": "", "Weathering_Class": "Moderate", "Sample_ID": "GEVRA-010-S02", "Data_Type": "SYNTHETIC_DEMO", "Source_Provenance": "Synthetic borehole interval generated to match GeoVault demonstration corpus" }, "geometry": { "type": "Point", "coordinates": [ 82.505502, 22.193651 ] } },
{ "type": "Feature", "properties": { "Borehole_ID": "GEVRA-BH-010", "Mine_ID": "M-GEVRA", "Mine_Code": "GEVRA", "Mine_Name": "Gevra OCP", "Interval_No": 3, "From_Depth_m": 18.22, "To_Depth_m": 27.33, "Thickness_m": 9.11, "Lithology": "Shale", "Stratigraphic_Unit": "Underlying sedimentary sequence", "Coal_Bearing": "NO", "Coal_Seam": "", "Weathering_Class": "Moderate", "Sample_ID": "GEVRA-010-S03", "Data_Type": "SYNTHETIC_DEMO", "Source_Provenance": "Synthetic borehole interval generated to match GeoVault demonstration corpus" }, "geometry": { "type": "Point", "coordinates": [ 82.505502, 22.193651 ] } },
{ "type": "Feature", "properties": { "Borehole_ID": "GEVRA-BH-010", "Mine_ID": "M-GEVRA", "Mine_Code": "GEVRA", "Mine_Name": "Gevra OCP", "Interval_No": 4, "From_Depth_m": 27.33, "To_Depth_m": 36.44, "Thickness_m": 9.11, "Lithology": "Shale", "Stratigraphic_Unit": "Overburden", "Coal_Bearing": "NO", "Coal_Seam": "", "Weathering_Class": "Fresh", "Sample_ID": "GEVRA-010-S04", "Data_Type": "SYNTHETIC_DEMO", "Source_Provenance": "Synthetic borehole interval generated to match GeoVault demonstration corpus" }, "geometry": { "type": "Point", "coordinates": [ 82.505502, 22.193651 ] } },
{ "type": "Feature", "properties": { "Borehole_ID": "GEVRA-BH-010", "Mine_ID": "M-GEVRA", "Mine_Code": "GEVRA", "Mine_Name": "Gevra OCP", "Interval_No": 5, "From_Depth_m": 36.44, "To_Depth_m": 45.55, "Thickness_m": 9.11, "Lithology": "Sandstone", "Stratigraphic_Unit": "Underlying sedimentary sequence", "Coal_Bearing": "NO", "Coal_Seam": "", "Weathering_Class": "Fresh", "Sample_ID": "GEVRA-010-S05", "Data_Type": "SYNTHETIC_DEMO", "Source_Provenance": "Synthetic borehole interval generated to match GeoVault demonstration corpus" }, "geometry": { "type": "Point", "coordinates": [ 82.505502, 22.193651 ] } },
{ "type": "Feature", "properties": { "Borehole_ID": "GEVRA-BH-010", "Mine_ID": "M-GEVRA", "Mine_Code": "GEVRA", "Mine_Name": "Gevra OCP", "Interval_No": 6, "From_Depth_m": 45.55, "To_Depth_m": 54.66, "Thickness_m": 9.11, "Lithology": "Siltstone", "Stratigraphic_Unit": "Underlying sedimentary sequence", "Coal_Bearing": "NO", "Coal_Seam": "", "Weathering_Class": "Fresh", "Sample_ID": "GEVRA-010-S06", "Data_Type": "SYNTHETIC_DEMO", "Source_Provenance": "Synthetic borehole interval generated to match GeoVault demonstration corpus" }, "geometry": { "type": "Point", "coordinates": [ 82.505502, 22.193651 ] } },
{ "type": "Feature", "properties": { "Borehole_ID": "GEVRA-BH-010", "Mine_ID": "M-GEVRA", "Mine_Code": "GEVRA", "Mine_Name": "Gevra OCP", "Interval_No": 7, "From_Depth_m": 54.66, "To_Depth_m": 63.77, "Thickness_m": 9.11, "Lithology": "Carbonaceous Shale", "Stratigraphic_Unit": "Underlying sedimentary sequence", "Coal_Bearing": "NO", "Coal_Seam": "", "Weathering_Class": "Fresh", "Sample_ID": "GEVRA-010-S07", "Data_Type": "SYNTHETIC_DEMO", "Source_Provenance": "Synthetic borehole interval generated to match GeoVault demonstration corpus" }, "geometry": { "type": "Point", "coordinates": [ 82.505502, 22.193651 ] } },
{ "type": "Feature", "properties": { "Borehole_ID": "GEVRA-BH-010", "Mine_ID": "M-GEVRA", "Mine_Code": "GEVRA", "Mine_Name": "Gevra OCP", "Interval_No": 8, "From_Depth_m": 63.77, "To_Depth_m": 72.88, "Thickness_m": 9.11, "Lithology": "Coal", "Stratigraphic_Unit": "Underlying sedimentary sequence", "Coal_Bearing": "YES", "Coal_Seam": "GV-GEV-S3", "Weathering_Class": "Fresh", "Sample_ID": "GEVRA-010-S08", "Data_Type": "SYNTHETIC_DEMO", "Source_Provenance": "Synthetic borehole interval generated to match GeoVault demonstration corpus" }, "geometry": { "type": "Point", "coordinates": [ 82.505502, 22.193651 ] } },
{ "type": "Feature", "properties": { "Borehole_ID": "GEVRA-BH-010", "Mine_ID": "M-GEVRA", "Mine_Code": "GEVRA", "Mine_Name": "Gevra OCP", "Interval_No": 9, "From_Depth_m": 72.88, "To_Depth_m": 81.99, "Thickness_m": 9.11, "Lithology": "Sandstone", "Stratigraphic_Unit": "Overburden", "Coal_Bearing": "NO", "Coal_Seam": "", "Weathering_Class": "Fresh", "Sample_ID": "GEVRA-010-S09", "Data_Type": "SYNTHETIC_DEMO", "Source_Provenance": "Synthetic borehole interval generated to match GeoVault demonstration corpus" }, "geometry": { "type": "Point", "coordinates": [ 82.505502, 22.193651 ] } },
{ "type": "Feature", "properties": { "Borehole_ID": "GEVRA-BH-010", "Mine_ID": "M-GEVRA", "Mine_Code": "GEVRA", "Mine_Name": "Gevra OCP", "Interval_No": 10, "From_Depth_m": 81.99, "To_Depth_m": 91.1, "Thickness_m": 9.11, "Lithology": "Sandstone", "Stratigraphic_Unit": "Underlying sedimentary sequence", "Coal_Bearing": "NO", "Coal_Seam": "", "Weathering_Class": "Fresh", "Sample_ID": "GEVRA-010-S10", "Data_Type": "SYNTHETIC_DEMO", "Source_Provenance": "Synthetic borehole interval generated to match GeoVault demonstration corpus" }, "geometry": { "type": "Point", "coordinates": [ 82.505502, 22.193651 ] } },
{ "type": "Feature", "properties": { "Borehole_ID": "GEVRA-BH-011", "Mine_ID": "M-GEVRA", "Mine_Code": "GEVRA", "Mine_Name": "Gevra OCP", "Interval_No": 1, "From_Depth_m": 0.0, "To_Depth_m": 18.82, "Thickness_m": 18.82, "Lithology": "Siltstone", "Stratigraphic_Unit": "Overburden", "Coal_Bearing": "NO", "Coal_Seam": "", "Weathering_Class": "Slight", "Sample_ID": "GEVRA-011-S01", "Data_Type": "SYNTHETIC_DEMO", "Source_Provenance": "Synthetic borehole interval generated to match GeoVault demonstration corpus" }, "geometry": { "type": "Point", "coordinates": [ 82.564841, 22.186619 ] } },
{ "type": "Feature", "properties": { "Borehole_ID": "GEVRA-BH-011", "Mine_ID": "M-GEVRA", "Mine_Code": "GEVRA", "Mine_Name": "Gevra OCP", "Interval_No": 2, "From_Depth_m": 18.82, "To_Depth_m": 37.64, "Thickness_m": 18.82, "Lithology": "Shale", "Stratigraphic_Unit": "Barakar-equivalent demo unit", "Coal_Bearing": "NO", "Coal_Seam": "", "Weathering_Class": "Moderate", "Sample_ID": "GEVRA-011-S02", "Data_Type": "SYNTHETIC_DEMO", "Source_Provenance": "Synthetic borehole interval generated to match GeoVault demonstration corpus" }, "geometry": { "type": "Point", "coordinates": [ 82.564841, 22.186619 ] } },
{ "type": "Feature", "properties": { "Borehole_ID": "GEVRA-BH-011", "Mine_ID": "M-GEVRA", "Mine_Code": "GEVRA", "Mine_Name": "Gevra OCP", "Interval_No": 3, "From_Depth_m": 37.64, "To_Depth_m": 56.46, "Thickness_m": 18.82, "Lithology": "Shale", "Stratigraphic_Unit": "Underlying sedimentary sequence", "Coal_Bearing": "NO", "Coal_Seam": "", "Weathering_Class": "Fresh", "Sample_ID": "GEVRA-011-S03", "Data_Type": "SYNTHETIC_DEMO", "Source_Provenance": "Synthetic borehole interval generated to match GeoVault demonstration corpus" }, "geometry": { "type": "Point", "coordinates": [ 82.564841, 22.186619 ] } },
{ "type": "Feature", "properties": { "Borehole_ID": "GEVRA-BH-011", "Mine_ID": "M-GEVRA", "Mine_Code": "GEVRA", "Mine_Name": "Gevra OCP", "Interval_No": 4, "From_Depth_m": 56.46, "To_Depth_m": 75.28, "Thickness_m": 18.82, "Lithology": "Shale", "Stratigraphic_Unit": "Coal-bearing sequence", "Coal_Bearing": "NO", "Coal_Seam": "", "Weathering_Class": "Fresh", "Sample_ID": "GEVRA-011-S04", "Data_Type": "SYNTHETIC_DEMO", "Source_Provenance": "Synthetic borehole interval generated to match GeoVault demonstration corpus" }, "geometry": { "type": "Point", "coordinates": [ 82.564841, 22.186619 ] } },
{ "type": "Feature", "properties": { "Borehole_ID": "GEVRA-BH-011", "Mine_ID": "M-GEVRA", "Mine_Code": "GEVRA", "Mine_Name": "Gevra OCP", "Interval_No": 5, "From_Depth_m": 75.28, "To_Depth_m": 94.1, "Thickness_m": 18.82, "Lithology": "Mudstone", "Stratigraphic_Unit": "Barakar-equivalent demo unit", "Coal_Bearing": "NO", "Coal_Seam": "", "Weathering_Class": "Fresh", "Sample_ID": "GEVRA-011-S05", "Data_Type": "SYNTHETIC_DEMO", "Source_Provenance": "Synthetic borehole interval generated to match GeoVault demonstration corpus" }, "geometry": { "type": "Point", "coordinates": [ 82.564841, 22.186619 ] } },
{ "type": "Feature", "properties": { "Borehole_ID": "GEVRA-BH-011", "Mine_ID": "M-GEVRA", "Mine_Code": "GEVRA", "Mine_Name": "Gevra OCP", "Interval_No": 6, "From_Depth_m": 94.1, "To_Depth_m": 112.92, "Thickness_m": 18.82, "Lithology": "Carbonaceous Shale", "Stratigraphic_Unit": "Overburden", "Coal_Bearing": "NO", "Coal_Seam": "", "Weathering_Class": "Fresh", "Sample_ID": "GEVRA-011-S06", "Data_Type": "SYNTHETIC_DEMO", "Source_Provenance": "Synthetic borehole interval generated to match GeoVault demonstration corpus" }, "geometry": { "type": "Point", "coordinates": [ 82.564841, 22.186619 ] } },
{ "type": "Feature", "properties": { "Borehole_ID": "GEVRA-BH-011", "Mine_ID": "M-GEVRA", "Mine_Code": "GEVRA", "Mine_Name": "Gevra OCP", "Interval_No": 7, "From_Depth_m": 112.92, "To_Depth_m": 131.74, "Thickness_m": 18.82, "Lithology": "Coal", "Stratigraphic_Unit": "Underlying sedimentary sequence", "Coal_Bearing": "YES", "Coal_Seam": "GV-GEV-S3", "Weathering_Class": "Fresh", "Sample_ID": "GEVRA-011-S07", "Data_Type": "SYNTHETIC_DEMO", "Source_Provenance": "Synthetic borehole interval generated to match GeoVault demonstration corpus" }, "geometry": { "type": "Point", "coordinates": [ 82.564841, 22.186619 ] } },
{ "type": "Feature", "properties": { "Borehole_ID": "GEVRA-BH-011", "Mine_ID": "M-GEVRA", "Mine_Code": "GEVRA", "Mine_Name": "Gevra OCP", "Interval_No": 8, "From_Depth_m": 131.74, "To_Depth_m": 150.56, "Thickness_m": 18.82, "Lithology": "Interbedded Sandstone-Shale", "Stratigraphic_Unit": "Overburden", "Coal_Bearing": "NO", "Coal_Seam": "", "Weathering_Class": "Fresh", "Sample_ID": "GEVRA-011-S08", "Data_Type": "SYNTHETIC_DEMO", "Source_Provenance": "Synthetic borehole interval generated to match GeoVault demonstration corpus" }, "geometry": { "type": "Point", "coordinates": [ 82.564841, 22.186619 ] } },
{ "type": "Feature", "properties": { "Borehole_ID": "GEVRA-BH-011", "Mine_ID": "M-GEVRA", "Mine_Code": "GEVRA", "Mine_Name": "Gevra OCP", "Interval_No": 9, "From_Depth_m": 150.56, "To_Depth_m": 169.38, "Thickness_m": 18.82, "Lithology": "Sandstone", "Stratigraphic_Unit": "Overburden", "Coal_Bearing": "NO", "Coal_Seam": "", "Weathering_Class": "Fresh", "Sample_ID": "GEVRA-011-S09", "Data_Type": "SYNTHETIC_DEMO", "Source_Provenance": "Synthetic borehole interval generated to match GeoVault demonstration corpus" }, "geometry": { "type": "Point", "coordinates": [ 82.564841, 22.186619 ] } },
{ "type": "Feature", "properties": { "Borehole_ID": "GEVRA-BH-011", "Mine_ID": "M-GEVRA", "Mine_Code": "GEVRA", "Mine_Name": "Gevra OCP", "Interval_No": 10, "From_Depth_m": 169.38, "To_Depth_m": 188.2, "Thickness_m": 18.82, "Lithology": "Sandstone", "Stratigraphic_Unit": "Barakar-equivalent demo unit", "Coal_Bearing": "NO", "Coal_Seam": "", "Weathering_Class": "Fresh", "Sample_ID": "GEVRA-011-S10", "Data_Type": "SYNTHETIC_DEMO", "Source_Provenance": "Synthetic borehole interval generated to match GeoVault demonstration corpus" }, "geometry": { "type": "Point", "coordinates": [ 82.564841, 22.186619 ] } },
{ "type": "Feature", "properties": { "Borehole_ID": "GEVRA-BH-012", "Mine_ID": "M-GEVRA", "Mine_Code": "GEVRA", "Mine_Name": "Gevra OCP", "Interval_No": 1, "From_Depth_m": 0.0, "To_Depth_m": 14.59, "Thickness_m": 14.59, "Lithology": "Shale", "Stratigraphic_Unit": "Underlying sedimentary sequence", "Coal_Bearing": "NO", "Coal_Seam": "", "Weathering_Class": "Moderate", "Sample_ID": "GEVRA-012-S01", "Data_Type": "SYNTHETIC_DEMO", "Source_Provenance": "Synthetic borehole interval generated to match GeoVault demonstration corpus" }, "geometry": { "type": "Point", "coordinates": [ 82.537631, 22.184868 ] } },
{ "type": "Feature", "properties": { "Borehole_ID": "GEVRA-BH-012", "Mine_ID": "M-GEVRA", "Mine_Code": "GEVRA", "Mine_Name": "Gevra OCP", "Interval_No": 2, "From_Depth_m": 14.59, "To_Depth_m": 29.18, "Thickness_m": 14.59, "Lithology": "Mudstone", "Stratigraphic_Unit": "Barakar-equivalent demo unit", "Coal_Bearing": "NO", "Coal_Seam": "", "Weathering_Class": "Moderate", "Sample_ID": "GEVRA-012-S02", "Data_Type": "SYNTHETIC_DEMO", "Source_Provenance": "Synthetic borehole interval generated to match GeoVault demonstration corpus" }, "geometry": { "type": "Point", "coordinates": [ 82.537631, 22.184868 ] } },
{ "type": "Feature", "properties": { "Borehole_ID": "GEVRA-BH-012", "Mine_ID": "M-GEVRA", "Mine_Code": "GEVRA", "Mine_Name": "Gevra OCP", "Interval_No": 3, "From_Depth_m": 29.18, "To_Depth_m": 43.77, "Thickness_m": 14.59, "Lithology": "Sandstone", "Stratigraphic_Unit": "Barakar-equivalent demo unit", "Coal_Bearing": "NO", "Coal_Seam": "", "Weathering_Class": "Fresh", "Sample_ID": "GEVRA-012-S03", "Data_Type": "SYNTHETIC_DEMO", "Source_Provenance": "Synthetic borehole interval generated to match GeoVault demonstration corpus" }, "geometry": { "type": "Point", "coordinates": [ 82.537631, 22.184868 ] } },
{ "type": "Feature", "properties": { "Borehole_ID": "GEVRA-BH-012", "Mine_ID": "M-GEVRA", "Mine_Code": "GEVRA", "Mine_Name": "Gevra OCP", "Interval_No": 4, "From_Depth_m": 43.77, "To_Depth_m": 58.36, "Thickness_m": 14.59, "Lithology": "Mudstone", "Stratigraphic_Unit": "Overburden", "Coal_Bearing": "NO", "Coal_Seam": "", "Weathering_Class": "Fresh", "Sample_ID": "GEVRA-012-S04", "Data_Type": "SYNTHETIC_DEMO", "Source_Provenance": "Synthetic borehole interval generated to match GeoVault demonstration corpus" }, "geometry": { "type": "Point", "coordinates": [ 82.537631, 22.184868 ] } },
{ "type": "Feature", "properties": { "Borehole_ID": "GEVRA-BH-012", "Mine_ID": "M-GEVRA", "Mine_Code": "GEVRA", "Mine_Name": "Gevra OCP", "Interval_No": 5, "From_Depth_m": 58.36, "To_Depth_m": 72.95, "Thickness_m": 14.59, "Lithology": "Carbonaceous Shale", "Stratigraphic_Unit": "Underlying sedimentary sequence", "Coal_Bearing": "NO", "Coal_Seam": "", "Weathering_Class": "Fresh", "Sample_ID": "GEVRA-012-S05", "Data_Type": "SYNTHETIC_DEMO", "Source_Provenance": "Synthetic borehole interval generated to match GeoVault demonstration corpus" }, "geometry": { "type": "Point", "coordinates": [ 82.537631, 22.184868 ] } },
{ "type": "Feature", "properties": { "Borehole_ID": "GEVRA-BH-012", "Mine_ID": "M-GEVRA", "Mine_Code": "GEVRA", "Mine_Name": "Gevra OCP", "Interval_No": 6, "From_Depth_m": 72.95, "To_Depth_m": 87.54, "Thickness_m": 14.59, "Lithology": "Coal", "Stratigraphic_Unit": "Coal-bearing sequence", "Coal_Bearing": "YES", "Coal_Seam": "GV-GEV-S1", "Weathering_Class": "Fresh", "Sample_ID": "GEVRA-012-S06", "Data_Type": "SYNTHETIC_DEMO", "Source_Provenance": "Synthetic borehole interval generated to match GeoVault demonstration corpus" }, "geometry": { "type": "Point", "coordinates": [ 82.537631, 22.184868 ] } },
{ "type": "Feature", "properties": { "Borehole_ID": "GEVRA-BH-012", "Mine_ID": "M-GEVRA", "Mine_Code": "GEVRA", "Mine_Name": "Gevra OCP", "Interval_No": 7, "From_Depth_m": 87.54, "To_Depth_m": 102.13, "Thickness_m": 14.59, "Lithology": "Mudstone", "Stratigraphic_Unit": "Coal-bearing sequence", "Coal_Bearing": "NO", "Coal_Seam": "", "Weathering_Class": "Fresh", "Sample_ID": "GEVRA-012-S07", "Data_Type": "SYNTHETIC_DEMO", "Source_Provenance": "Synthetic borehole interval generated to match GeoVault demonstration corpus" }, "geometry": { "type": "Point", "coordinates": [ 82.537631, 22.184868 ] } },
{ "type": "Feature", "properties": { "Borehole_ID": "GEVRA-BH-012", "Mine_ID": "M-GEVRA", "Mine_Code": "GEVRA", "Mine_Name": "Gevra OCP", "Interval_No": 8, "From_Depth_m": 102.13, "To_Depth_m": 116.72, "Thickness_m": 14.59, "Lithology": "Mudstone", "Stratigraphic_Unit": "Underlying sedimentary sequence", "Coal_Bearing": "NO", "Coal_Seam": "", "Weathering_Class": "Fresh", "Sample_ID": "GEVRA-012-S08", "Data_Type": "SYNTHETIC_DEMO", "Source_Provenance": "Synthetic borehole interval generated to match GeoVault demonstration corpus" }, "geometry": { "type": "Point", "coordinates": [ 82.537631, 22.184868 ] } },
{ "type": "Feature", "properties": { "Borehole_ID": "GEVRA-BH-012", "Mine_ID": "M-GEVRA", "Mine_Code": "GEVRA", "Mine_Name": "Gevra OCP", "Interval_No": 9, "From_Depth_m": 116.72, "To_Depth_m": 131.31, "Thickness_m": 14.59, "Lithology": "Shale", "Stratigraphic_Unit": "Barakar-equivalent demo unit", "Coal_Bearing": "NO", "Coal_Seam": "", "Weathering_Class": "Fresh", "Sample_ID": "GEVRA-012-S09", "Data_Type": "SYNTHETIC_DEMO", "Source_Provenance": "Synthetic borehole interval generated to match GeoVault demonstration corpus" }, "geometry": { "type": "Point", "coordinates": [ 82.537631, 22.184868 ] } },
{ "type": "Feature", "properties": { "Borehole_ID": "GEVRA-BH-012", "Mine_ID": "M-GEVRA", "Mine_Code": "GEVRA", "Mine_Name": "Gevra OCP", "Interval_No": 10, "From_Depth_m": 131.31, "To_Depth_m": 145.9, "Thickness_m": 14.59, "Lithology": "Siltstone", "Stratigraphic_Unit": "Barakar-equivalent demo unit", "Coal_Bearing": "NO", "Coal_Seam": "", "Weathering_Class": "Fresh", "Sample_ID": "GEVRA-012-S10", "Data_Type": "SYNTHETIC_DEMO", "Source_Provenance": "Synthetic borehole interval generated to match GeoVault demonstration corpus" }, "geometry": { "type": "Point", "coordinates": [ 82.537631, 22.184868 ] } }
]
}
