{
"type": "FeatureCollection",
"name": "coal_seam_belts",
"crs": { "type": "name", "properties": { "name": "urn:ogc:def:crs:OGC:1.3:CRS84" } },
"features": [
{ "type": "Feature", "properties": { "Seam_ID": "GV-GEV-S1", "Mine_ID": "M-GEVRA", "Mine_Code": "GEVRA", "Feature_Type": "SYNTHETIC_SEAM_BELT", "Width_m": 100, "Data_Type": "SYNTHETIC_DEMO", "Source_Provenance": "Buffered demonstration representation of seam trace" }, "geometry": { "type": "Polygon", "coordinates": [ [ [ 82.525048241681318, 22.195188750830159 ], [ 82.525153112441927, 22.195209814260107 ], [ 82.525259633089249, 22.195219555728443 ], [ 82.525366584862553, 22.195217863777732 ], [ 82.544635320828689, 22.193879884745865 ], [ 82.561966000502835, 22.197445528084188 ], [ 82.562062977125152, 22.19746056408696 ], [ 82.562160960564526, 22.197466022316071 ], [ 82.562259007186867, 22.197461850205791 ], [ 82.562356172749588, 22.197448087935818 ], [ 82.562451521495234, 22.197424868044344 ], [ 82.562544135163236, 22.197392414151611 ], [ 82.562633121833372, 22.197351038806346 ], [ 82.562717624515329, 22.197301140475748 ], [ 82.562796829402117, 22.197243199708012 ], [ 82.56286997370735, 22.197177774504407 ], [ 82.562936353011409, 22.197105494945408 ], [ 82.56299532804529, 22.197027057122682 ], [ 82.563046330847186, 22.19694321643534 ], [ 82.563088870232235, 22.196854780315032 ], [ 82.563122536522911, 22.196762600449944 ], [ 82.563147005494415, 22.196667564582562 ], [ 82.563162041497193, 22.196570587960245 ], [ 82.563167499726305, 22.196472604520874 ], [ 82.563163327616024, 22.19637455789854 ], [ 82.563149565346052, 22.196277392335809 ], [ 82.563126345454577, 22.196182043590166 ], [ 82.563093891561834, 22.196089429922157 ], [ 82.563052516216572, 22.196000443252032 ], [ 82.563002617885971, 22.195915940570071 ], [ 82.562944677118239, 22.19583673568329 ], [ 82.562879251914637, 22.19576359137805 ], [ 82.562806972355645, 22.195697212073995 ], [ 82.562728534532908, 22.195638237040111 ], [ 82.56264469384557, 22.195587234238211 ], [ 82.562556257725262, 22.195544694853162 ], [ 82.56246407786017, 22.195511028562489 ], [ 82.562369041992795, 22.195486559590982 ], [ 82.544904206904917, 22.191893314891015 ], [ 82.544814615785782, 22.191879083001663 ], [ 82.544724103584841, 22.191873028516969 ], [ 82.54463341513744, 22.191875201259993 ], [ 82.525389571355788, 22.193211451832816 ], [ 82.508081550910916, 22.188760225095098 ], [ 82.507985423437106, 22.188740475274013 ], [ 82.507887823022358, 22.188730242693808 ], [ 82.507789689612039, 22.188729625899821 ], [ 82.507691968284533, 22.188738630832116 ], [ 82.507595600149642, 22.18875717076827 ], [ 82.507501513285177, 22.18878506715857 ], [ 82.507410613799081, 22.188822051345518 ], [ 82.50732377710311, 22.188867767151184 ], [ 82.507241839482106, 22.188921774307364 ], [ 82.507165590040131, 22.188983552695621 ], [ 82.507095763101034, 22.189052507356308 ], [ 82.507033031136373, 22.189127974218344 ], [ 82.506977998289273, 22.189209226494597 ], [ 82.506931194556145, 22.189295481681228 ], [ 82.506893070682509, 22.189385909093637 ], [ 82.506863993822122, 22.189479637866409 ], [ 82.506844244001044, 22.18957576534023 ], [ 82.506834011420835, 22.18967336575497 ], [ 82.506833394626852, 22.189771499165289 ], [ 82.506842399559147, 22.189869220492799 ], [ 82.506860939495297, 22.189965588627693 ], [ 82.50688883588559, 22.190059675492151 ], [ 82.506925820072539, 22.19015057497824 ], [ 82.506971535878208, 22.190237411674218 ], [ 82.507025543034388, 22.19031934929523 ], [ 82.507087321422645, 22.190395598737194 ], [ 82.507156276083336, 22.190465425676301 ], [ 82.507231742945379, 22.190528157640959 ], [ 82.507312995221625, 22.190583190488056 ], [ 82.507399250408255, 22.190629994221187 ], [ 82.507489677820658, 22.190668118094816 ], [ 82.50758340659344, 22.190697194955202 ], [ 82.525048241681318, 22.195188750830159 ] ] ] } },
{ "type": "Feature", "properties": { "Seam_ID": "GV-GEV-S2", "Mine_ID": "M-GEVRA", "Mine_Code": "GEVRA", "Feature_Type": "SYNTHETIC_SEAM_BELT", "Width_m": 100, "Data_Type": "SYNTHETIC_DEMO", "Source_Provenance": "Buffered demonstration representation of seam trace" }, "geometry": { "type": "Polygon", "coordinates": [ [ [ 82.525048241681318, 22.201027773467601 ], [ 82.525153112441927, 22.201048836897549 ], [ 82.525259633089249, 22.201058578365885 ], [ 82.525366584862553, 22.201056886415174 ], [ 82.544635320828689, 22.199718907383307 ], [ 82.561966000502835, 22.203284550721627 ], [ 82.562062977125152, 22.203299586724398 ], [ 82.562160960564526, 22.20330504495351 ], [ 82.562259007186867, 22.203300872843229 ], [ 82.562356172749588, 22.203287110573257 ], [ 82.562451521495234, 22.203263890681782 ], [ 82.562544135163236, 22.20323143678905 ], [ 82.562633121833372, 22.203190061443784 ], [ 82.562717624515329, 22.203140163113186 ], [ 82.562796829402117, 22.203082222345451 ], [ 82.56286997370735, 22.203016797141846 ], [ 82.562936353011409, 22.202944517582846 ], [ 82.56299532804529, 22.20286607976012 ], [ 82.563046330847186, 22.202782239072778 ], [ 82.563088870232235, 22.202693802952471 ], [ 82.563122536522911, 22.202601623087382 ], [ 82.563147005494415, 22.20250658722 ], [ 82.563162041497193, 22.202409610597684 ], [ 82.563167499726305, 22.202311627158313 ], [ 82.563163327616024, 22.202213580535979 ], [ 82.563149565346052, 22.202116414973247 ], [ 82.563126345454577, 22.202021066227605 ], [ 82.563093891561834, 22.201928452559596 ], [ 82.563052516216572, 22.201839465889471 ], [ 82.563002617885971, 22.20175496320751 ], [ 82.562944677118239, 22.201675758320729 ], [ 82.562879251914637, 22.201602614015489 ], [ 82.562806972355645, 22.201536234711433 ], [ 82.562728534532908, 22.201477259677549 ], [ 82.56264469384557, 22.201426256875649 ], [ 82.562556257725262, 22.2013837174906 ], [ 82.56246407786017, 22.201350051199928 ], [ 82.562369041992795, 22.201325582228421 ], [ 82.544904206904917, 22.197732337528457 ], [ 82.544814615785782, 22.197718105639105 ], [ 82.544724103584841, 22.197712051154411 ], [ 82.54463341513744, 22.197714223897435 ], [ 82.525389571355788, 22.199050474470258 ], [ 82.508081550910916, 22.19459924773254 ], [ 82.507985423437106, 22.194579497911455 ], [ 82.507887823022358, 22.19456926533125 ], [ 82.507789689612039, 22.194568648537263 ], [ 82.507691968284533, 22.194577653469558 ], [ 82.507595600149642, 22.194596193405712 ], [ 82.507501513285177, 22.194624089796012 ], [ 82.507410613799081, 22.19466107398296 ], [ 82.50732377710311, 22.194706789788626 ], [ 82.507241839482106, 22.194760796944806 ], [ 82.507165590040131, 22.194822575333063 ], [ 82.507095763101034, 22.19489152999375 ], [ 82.507033031136373, 22.194966996855786 ], [ 82.506977998289273, 22.195048249132039 ], [ 82.506931194556145, 22.19513450431867 ], [ 82.506893070682509, 22.195224931731079 ], [ 82.506863993822122, 22.195318660503851 ], [ 82.506844244001044, 22.195414787977672 ], [ 82.506834011420835, 22.195512388392412 ], [ 82.506833394626852, 22.195610521802731 ], [ 82.506842399559147, 22.195708243130241 ], [ 82.506860939495297, 22.195804611265135 ], [ 82.50688883588559, 22.195898698129593 ], [ 82.506925820072539, 22.195989597615682 ], [ 82.506971535878208, 22.19607643431166 ], [ 82.507025543034388, 22.196158371932672 ], [ 82.507087321422645, 22.196234621374636 ], [ 82.507156276083336, 22.196304448313743 ], [ 82.507231742945379, 22.196367180278401 ], [ 82.507312995221625, 22.196422213125498 ], [ 82.507399250408255, 22.196469016858629 ], [ 82.507489677820658, 22.196507140732258 ], [ 82.50758340659344, 22.196536217592644 ], [ 82.525048241681318, 22.201027773467601 ] ] ] } },
{ "type": "Feature", "properties": { "Seam_ID": "GV-GEV-S3", "Mine_ID": "M-GEVRA", "Mine_Code": "GEVRA", "Feature_Type": "SYNTHETIC_SEAM_BELT", "Width_m": 100, "Data_Type": "SYNTHETIC_DEMO", "Source_Provenance": "Buffered demonstration representation of seam trace" }, "geometry": { "type": "Polygon", "coordinates": [ [ [ 82.525048241681318, 22.206866796105043 ], [ 82.525153112441927, 22.206887859534991 ], [ 82.525259633089249, 22.206897601003327 ], [ 82.525366584862553, 22.206895909052616 ], [ 82.544635320828689, 22.205557930020749 ], [ 82.561966000502835, 22.209123573359069 ], [ 82.562062977125152, 22.20913860936184 ], [ 82.562160960564526, 22.209144067590952 ], [ 82.562259007186867, 22.209139895480671 ], [ 82.562356172749588, 22.209126133210699 ], [ 82.562451521495234, 22.209102913319224 ], [ 82.562544135163236, 22.209070459426492 ], [ 82.562633121833372, 22.209029084081227 ], [ 82.562717624515329, 22.208979185750628 ], [ 82.562796829402117, 22.208921244982893 ], [ 82.56286997370735, 22.208855819779288 ], [ 82.562936353011409, 22.208783540220288 ], [ 82.56299532804529, 22.208705102397563 ], [ 82.563046330847186, 22.208621261710221 ], [ 82.563088870232235, 22.208532825589913 ], [ 82.563122536522911, 22.208440645724824 ], [ 82.563147005494415, 22.208345609857442 ], [ 82.563162041497193, 22.208248633235126 ], [ 82.563167499726305, 22.208150649795755 ], [ 82.563163327616024, 22.208052603173421 ], [ 82.563149565346052, 22.207955437610689 ], [ 82.563126345454577, 22.207860088865047 ], [ 82.563093891561834, 22.207767475197038 ], [ 82.563052516216572, 22.207678488526913 ], [ 82.563002617885971, 22.207593985844952 ], [ 82.562944677118239, 22.207514780958171 ], [ 82.562879251914637, 22.207441636652931 ], [ 82.562806972355645, 22.207375257348875 ], [ 82.562728534532908, 22.207316282314991 ], [ 82.56264469384557, 22.207265279513091 ], [ 82.562556257725262, 22.207222740128042 ], [ 82.56246407786017, 22.20718907383737 ], [ 82.562369041992795, 22.207164604865863 ], [ 82.544904206904917, 22.203571360165899 ], [ 82.544814615785782, 22.203557128276547 ], [ 82.544724103584841, 22.203551073791854 ], [ 82.54463341513744, 22.203553246534877 ], [ 82.525389571355788, 22.2048894971077 ], [ 82.508081550910916, 22.200438270369983 ], [ 82.507985423437106, 22.200418520548897 ], [ 82.507887823022358, 22.200408287968692 ], [ 82.507789689612039, 22.200407671174705 ], [ 82.507691968284533, 22.200416676107 ], [ 82.507595600149642, 22.200435216043154 ], [ 82.507501513285177, 22.200463112433454 ], [ 82.507410613799081, 22.200500096620402 ], [ 82.50732377710311, 22.200545812426068 ], [ 82.507241839482106, 22.200599819582248 ], [ 82.507165590040131, 22.200661597970505 ], [ 82.507095763101034, 22.200730552631192 ], [ 82.507033031136373, 22.200806019493228 ], [ 82.506977998289273, 22.200887271769481 ], [ 82.506931194556145, 22.200973526956112 ], [ 82.506893070682509, 22.201063954368522 ], [ 82.506863993822122, 22.201157683141293 ], [ 82.506844244001044, 22.201253810615114 ], [ 82.506834011420835, 22.201351411029854 ], [ 82.506833394626852, 22.201449544440173 ], [ 82.506842399559147, 22.201547265767683 ], [ 82.506860939495297, 22.201643633902577 ], [ 82.50688883588559, 22.201737720767035 ], [ 82.506925820072539, 22.201828620253124 ], [ 82.506971535878208, 22.201915456949102 ], [ 82.507025543034388, 22.201997394570114 ], [ 82.507087321422645, 22.202073644012078 ], [ 82.507156276083336, 22.202143470951185 ], [ 82.507231742945379, 22.202206202915843 ], [ 82.507312995221625, 22.20226123576294 ], [ 82.507399250408255, 22.202308039496071 ], [ 82.507489677820658, 22.2023461633697 ], [ 82.50758340659344, 22.202375240230086 ], [ 82.525048241681318, 22.206866796105043 ] ] ] } },
{ "type": "Feature", "properties": { "Seam_ID": "GV-GEV-S4", "Mine_ID": "M-GEVRA", "Mine_Code": "GEVRA", "Feature_Type": "SYNTHETIC_SEAM_BELT", "Width_m": 100, "Data_Type": "SYNTHETIC_DEMO", "Source_Provenance": "Buffered demonstration representation of seam trace" }, "geometry": { "type": "Polygon", "coordinates": [ [ [ 82.525048241681318, 22.212705818742482 ], [ 82.525153112441927, 22.212726882172429 ], [ 82.525259633089249, 22.212736623640765 ], [ 82.525366584862553, 22.212734931690054 ], [ 82.544635320828689, 22.211396952658191 ], [ 82.561966000502835, 22.214962595996511 ], [ 82.562062977125152, 22.214977631999282 ], [ 82.562160960564526, 22.214983090228394 ], [ 82.562259007186867, 22.214978918118113 ], [ 82.562356172749588, 22.214965155848141 ], [ 82.562451521495234, 22.214941935956666 ], [ 82.562544135163236, 22.214909482063934 ], [ 82.562633121833372, 22.214868106718669 ], [ 82.562717624515329, 22.214818208388071 ], [ 82.562796829402117, 22.214760267620335 ], [ 82.56286997370735, 22.21469484241673 ], [ 82.562936353011409, 22.214622562857731 ], [ 82.56299532804529, 22.214544125035005 ], [ 82.563046330847186, 22.214460284347663 ], [ 82.563088870232235, 22.214371848227355 ], [ 82.563122536522911, 22.214279668362266 ], [ 82.563147005494415, 22.214184632494884 ], [ 82.563162041497193, 22.214087655872568 ], [ 82.563167499726305, 22.213989672433197 ], [ 82.563163327616024, 22.213891625810863 ], [ 82.563149565346052, 22.213794460248131 ], [ 82.563126345454577, 22.213699111502489 ], [ 82.563093891561834, 22.21360649783448 ], [ 82.563052516216572, 22.213517511164355 ], [ 82.563002617885971, 22.213433008482394 ], [ 82.562944677118239, 22.213353803595613 ], [ 82.562879251914637, 22.213280659290373 ], [ 82.562806972355645, 22.213214279986317 ], [ 82.562728534532908, 22.213155304952434 ], [ 82.56264469384557, 22.213104302150533 ], [ 82.562556257725262, 22.213061762765484 ], [ 82.56246407786017, 22.213028096474812 ], [ 82.562369041992795, 22.213003627503305 ], [ 82.544904206904917, 22.209410382803341 ], [ 82.544814615785782, 22.209396150913989 ], [ 82.544724103584841, 22.209390096429296 ], [ 82.54463341513744, 22.209392269172319 ], [ 82.525389571355788, 22.210728519745139 ], [ 82.508081550910916, 22.206277293007425 ], [ 82.507985423437106, 22.206257543186339 ], [ 82.507887823022358, 22.206247310606134 ], [ 82.507789689612039, 22.206246693812147 ], [ 82.507691968284533, 22.206255698744442 ], [ 82.507595600149642, 22.206274238680596 ], [ 82.507501513285177, 22.206302135070896 ], [ 82.507410613799081, 22.206339119257844 ], [ 82.50732377710311, 22.20638483506351 ], [ 82.507241839482106, 22.20643884221969 ], [ 82.507165590040131, 22.206500620607947 ], [ 82.507095763101034, 22.206569575268635 ], [ 82.507033031136373, 22.20664504213067 ], [ 82.506977998289273, 22.206726294406923 ], [ 82.506931194556145, 22.206812549593554 ], [ 82.506893070682509, 22.206902977005964 ], [ 82.506863993822122, 22.206996705778735 ], [ 82.506844244001044, 22.207092833252556 ], [ 82.506834011420835, 22.207190433667297 ], [ 82.506833394626852, 22.207288567077615 ], [ 82.506842399559147, 22.207386288405125 ], [ 82.506860939495297, 22.207482656540019 ], [ 82.50688883588559, 22.207576743404481 ], [ 82.506925820072539, 22.207667642890566 ], [ 82.506971535878208, 22.207754479586544 ], [ 82.507025543034388, 22.207836417207556 ], [ 82.507087321422645, 22.20791266664952 ], [ 82.507156276083336, 22.207982493588627 ], [ 82.507231742945379, 22.208045225553285 ], [ 82.507312995221625, 22.208100258400382 ], [ 82.507399250408255, 22.208147062133513 ], [ 82.507489677820658, 22.208185186007142 ], [ 82.50758340659344, 22.208214262867529 ], [ 82.525048241681318, 22.212705818742482 ] ] ] } },
{ "type": "Feature", "properties": { "Seam_ID": "GV-GEV-S5", "Mine_ID": "M-GEVRA", "Mine_Code": "GEVRA", "Feature_Type": "SYNTHETIC_SEAM_BELT", "Width_m": 100, "Data_Type": "SYNTHETIC_DEMO", "Source_Provenance": "Buffered demonstration representation of seam trace" }, "geometry": { "type": "Polygon", "coordinates": [ [ [ 82.525048241681318, 22.218544841379924 ], [ 82.525153112441927, 22.218565904809871 ], [ 82.525259633089249, 22.218575646278207 ], [ 82.525366584862553, 22.218573954327496 ], [ 82.544635320828689, 22.217235975295633 ], [ 82.561966000502835, 22.220801618633953 ], [ 82.562062977125152, 22.220816654636725 ], [ 82.562160960564526, 22.220822112865836 ], [ 82.562259007186867, 22.220817940755555 ], [ 82.562356172749588, 22.220804178485583 ], [ 82.562451521495234, 22.220780958594109 ], [ 82.562544135163236, 22.220748504701376 ], [ 82.562633121833372, 22.220707129356111 ], [ 82.562717624515329, 22.220657231025513 ], [ 82.562796829402117, 22.220599290257777 ], [ 82.56286997370735, 22.220533865054172 ], [ 82.562936353011409, 22.220461585495173 ], [ 82.56299532804529, 22.220383147672447 ], [ 82.563046330847186, 22.220299306985105 ], [ 82.563088870232235, 22.220210870864797 ], [ 82.563122536522911, 22.220118690999708 ], [ 82.563147005494415, 22.220023655132326 ], [ 82.563162041497193, 22.21992667851001 ], [ 82.563167499726305, 22.219828695070639 ], [ 82.563163327616024, 22.219730648448305 ], [ 82.563149565346052, 22.219633482885573 ], [ 82.563126345454577, 22.219538134139931 ], [ 82.563093891561834, 22.219445520471922 ], [ 82.563052516216572, 22.219356533801797 ], [ 82.563002617885971, 22.219272031119836 ], [ 82.562944677118239, 22.219192826233055 ], [ 82.562879251914637, 22.219119681927815 ], [ 82.562806972355645, 22.21905330262376 ], [ 82.562728534532908, 22.218994327589876 ], [ 82.56264469384557, 22.218943324787976 ], [ 82.562556257725262, 22.218900785402926 ], [ 82.56246407786017, 22.218867119112254 ], [ 82.562369041992795, 22.218842650140747 ], [ 82.544904206904917, 22.215249405440783 ], [ 82.544814615785782, 22.215235173551431 ], [ 82.544724103584841, 22.215229119066738 ], [ 82.54463341513744, 22.215231291809761 ], [ 82.525389571355788, 22.216567542382581 ], [ 82.508081550910916, 22.212116315644867 ], [ 82.507985423437106, 22.212096565823781 ], [ 82.507887823022358, 22.212086333243576 ], [ 82.507789689612039, 22.21208571644959 ], [ 82.507691968284533, 22.212094721381884 ], [ 82.507595600149642, 22.212113261318038 ], [ 82.507501513285177, 22.212141157708338 ], [ 82.507410613799081, 22.212178141895286 ], [ 82.50732377710311, 22.212223857700952 ], [ 82.507241839482106, 22.212277864857132 ], [ 82.507165590040131, 22.212339643245389 ], [ 82.507095763101034, 22.212408597906077 ], [ 82.507033031136373, 22.212484064768113 ], [ 82.506977998289273, 22.212565317044366 ], [ 82.506931194556145, 22.212651572230996 ], [ 82.506893070682509, 22.212741999643406 ], [ 82.506863993822122, 22.212835728416177 ], [ 82.506844244001044, 22.212931855889998 ], [ 82.506834011420835, 22.213029456304739 ], [ 82.506833394626852, 22.213127589715057 ], [ 82.506842399559147, 22.213225311042567 ], [ 82.506860939495297, 22.213321679177461 ], [ 82.50688883588559, 22.213415766041923 ], [ 82.506925820072539, 22.213506665528008 ], [ 82.506971535878208, 22.213593502223986 ], [ 82.507025543034388, 22.213675439844998 ], [ 82.507087321422645, 22.213751689286962 ], [ 82.507156276083336, 22.213821516226069 ], [ 82.507231742945379, 22.213884248190727 ], [ 82.507312995221625, 22.213939281037824 ], [ 82.507399250408255, 22.213986084770955 ], [ 82.507489677820658, 22.214024208644584 ], [ 82.50758340659344, 22.214053285504971 ], [ 82.525048241681318, 22.218544841379924 ] ] ] } }
]
}
