{
"type": "FeatureCollection",
"name": "geological_contacts",
"crs": { "type": "name", "properties": { "name": "urn:ogc:def:crs:OGC:1.3:CRS84" } },
"features": [
{ "type": "Feature", "properties": { "Contact_ID": "GEVRA-GC-01", "Mine_ID": "M-GEVRA", "Mine_Code": "GEVRA", "Contact_Type": "GEOLOGICAL_BOUNDARY", "Unit_A": "Sandstone", "Unit_B": "Shale", "Confidence": "DEMO", "Data_Type": "SYNTHETIC_DEMO", "Source_Provenance": "Synthetic geological contact" }, "geometry": { "type": "LineString", "coordinates": [ [ 82.495, 22.175 ], [ 82.515, 22.235 ] ] } },
{ "type": "Feature", "properties": { "Contact_ID": "GEVRA-GC-02", "Mine_ID": "M-GEVRA", "Mine_Code": "GEVRA", "Contact_Type": "GEOLOGICAL_BOUNDARY", "Unit_A": "Sandstone", "Unit_B": "Shale", "Confidence": "DEMO", "Data_Type": "SYNTHETIC_DEMO", "Source_Provenance": "Synthetic geological contact" }, "geometry": { "type": "LineString", "coordinates": [ [ 82.525, 22.175 ], [ 82.545, 22.235 ] ] } },
{ "type": "Feature", "properties": { "Contact_ID": "GEVRA-GC-03", "Mine_ID": "M-GEVRA", "Mine_Code": "GEVRA", "Contact_Type": "STRATIGRAPHIC_CONTACT", "Unit_A": "Sandstone", "Unit_B": "Shale", "Confidence": "DEMO", "Data_Type": "SYNTHETIC_DEMO", "Source_Provenance": "Synthetic geological contact" }, "geometry": { "type": "LineString", "coordinates": [ [ 82.555, 22.175 ], [ 82.575, 22.235 ] ] } }
]
}
