{
"type": "FeatureCollection",
"name": "geological_events_spatial",
"crs": { "type": "name", "properties": { "name": "urn:ogc:def:crs:OGC:1.3:CRS84" } },
"features": [
{ "type": "Feature", "properties": { "Event_ID": "EV-GEVRA-GEO-01", "Mine_ID": "M-GEVRA", "Mine_Code": "GEVRA", "Financial_Year": "FY 2023-24", "Event_Type": "Geotechnical", "Severity": "Moderate", "Area": "Central working block", "Description": "Localized synthetic bench movement triggered additional inspection and monitoring.", "Action": "Increase inspection frequency; review haulage alignment.", "Data_Type": "SYNTHETIC_DEMO", "Source_Provenance": "Synthetic event location linked to geological event record" }, "geometry": { "type": "Point", "coordinates": [ 82.534268588048519, 22.222540875891806 ] } },
{ "type": "Feature", "properties": { "Event_ID": "EV-GEVRA-WAT-01", "Mine_ID": "M-GEVRA", "Mine_Code": "GEVRA", "Financial_Year": "FY 2021-22", "Event_Type": "Hydrology", "Severity": "Moderate", "Area": "Pit floor / drainage", "Description": "Synthetic monsoon water accumulation affected selected working areas.", "Action": "Temporary pumping and drainage-channel maintenance.", "Data_Type": "SYNTHETIC_DEMO", "Source_Provenance": "Synthetic event location linked to geological event record" }, "geometry": { "type": "Point", "coordinates": [ 82.510273257472406, 22.220293244337057 ] } }
]
}
