{
"type": "FeatureCollection",
"name": "geotechnical_zones",
"crs": { "type": "name", "properties": { "name": "urn:ogc:def:crs:OGC:1.3:CRS84" } },
"features": [
{ "type": "Feature", "properties": { "Zone_ID": "GEVRA-GZ-01", "Mine_ID": "M-GEVRA", "Mine_Code": "GEVRA", "Zone_Type": "Stable Bench Zone", "Risk_Class": "MODERATE", "Basis": "Synthetic demonstration interpretation", "Data_Type": "SYNTHETIC_DEMO", "Source_Provenance": "Synthetic geotechnical zone; not an engineering design input" }, "geometry": { "type": "Polygon", "coordinates": [ [ [ 82.4925, 22.185 ], [ 82.5175, 22.185 ], [ 82.5225, 22.225 ], [ 82.4875, 22.225 ], [ 82.4925, 22.185 ] ] ] } },
{ "type": "Feature", "properties": { "Zone_ID": "GEVRA-GZ-02", "Mine_ID": "M-GEVRA", "Mine_Code": "GEVRA", "Zone_Type": "Weathered Highwall Zone", "Risk_Class": "MODERATE", "Basis": "Synthetic demonstration interpretation", "Data_Type": "SYNTHETIC_DEMO", "Source_Provenance": "Synthetic geotechnical zone; not an engineering design input" }, "geometry": { "type": "Polygon", "coordinates": [ [ [ 82.5075, 22.185 ], [ 82.5325, 22.185 ], [ 82.5375, 22.225 ], [ 82.5025, 22.225 ], [ 82.5075, 22.185 ] ] ] } },
{ "type": "Feature", "properties": { "Zone_ID": "GEVRA-GZ-03", "Mine_ID": "M-GEVRA", "Mine_Code": "GEVRA", "Zone_Type": "Fault Influence Zone", "Risk_Class": "MODERATE", "Basis": "Synthetic demonstration interpretation", "Data_Type": "SYNTHETIC_DEMO", "Source_Provenance": "Synthetic geotechnical zone; not an engineering design input" }, "geometry": { "type": "Polygon", "coordinates": [ [ [ 82.5225, 22.185 ], [ 82.5475, 22.185 ], [ 82.5525, 22.225 ], [ 82.5175, 22.225 ], [ 82.5225, 22.185 ] ] ] } },
{ "type": "Feature", "properties": { "Zone_ID": "GEVRA-GZ-04", "Mine_ID": "M-GEVRA", "Mine_Code": "GEVRA", "Zone_Type": "Water-Influenced Zone", "Risk_Class": "LOW", "Basis": "Synthetic demonstration interpretation", "Data_Type": "SYNTHETIC_DEMO", "Source_Provenance": "Synthetic geotechnical zone; not an engineering design input" }, "geometry": { "type": "Polygon", "coordinates": [ [ [ 82.5375, 22.185 ], [ 82.5625, 22.185 ], [ 82.5675, 22.225 ], [ 82.5325, 22.225 ], [ 82.5375, 22.185 ] ] ] } }
]
}
