{
"type": "FeatureCollection",
"name": "survey_points",
"crs": { "type": "name", "properties": { "name": "urn:ogc:def:crs:OGC:1.3:CRS84" } },
"features": [
{ "type": "Feature", "properties": { "Survey_Point_ID": "GEVRA-SP-001", "Mine_ID": "M-GEVRA", "Mine_Code": "GEVRA", "Latitude": 22.231315, "Longitude": 82.5014409, "RL_m": 316.6, "Point_Type": "DGPS_CONTROL", "Survey_Date": "2025-10-24", "Horizontal_Accuracy_m": 0.029, "Vertical_Accuracy_m": 0.053, "Data_Type": "SYNTHETIC_DEMO", "Source_Provenance": "Synthetic survey/control dataset" }, "geometry": { "type": "Point", "coordinates": [ 82.5014409, 22.231315 ] } },
{ "type": "Feature", "properties": { "Survey_Point_ID": "GEVRA-SP-002", "Mine_ID": "M-GEVRA", "Mine_Code": "GEVRA", "Latitude": 22.1940376, "Longitude": 82.5128383, "RL_m": 291.98, "Point_Type": "REFERENCE", "Survey_Date": "2025-01-24", "Horizontal_Accuracy_m": 0.049, "Vertical_Accuracy_m": 0.072, "Data_Type": "SYNTHETIC_DEMO", "Source_Provenance": "Synthetic survey/control dataset" }, "geometry": { "type": "Point", "coordinates": [ 82.5128383, 22.1940376 ] } },
{ "type": "Feature", "properties": { "Survey_Point_ID": "GEVRA-SP-003", "Mine_ID": "M-GEVRA", "Mine_Code": "GEVRA", "Latitude": 22.1848117, "Longitude": 82.5428297, "RL_m": 273.37, "Point_Type": "PIT_RIM", "Survey_Date": "2025-01-02", "Horizontal_Accuracy_m": 0.043, "Vertical_Accuracy_m": 0.102, "Data_Type": "SYNTHETIC_DEMO", "Source_Provenance": "Synthetic survey/control dataset" }, "geometry": { "type": "Point", "coordinates": [ 82.5428297, 22.1848117 ] } },
{ "type": "Feature", "properties": { "Survey_Point_ID": "GEVRA-SP-004", "Mine_ID": "M-GEVRA", "Mine_Code": "GEVRA", "Latitude": 22.1881817, "Longitude": 82.5549623, "RL_m": 291.14, "Point_Type": "REFERENCE", "Survey_Date": "2025-08-17", "Horizontal_Accuracy_m": 0.063, "Vertical_Accuracy_m": 0.028, "Data_Type": "SYNTHETIC_DEMO", "Source_Provenance": "Synthetic survey/control dataset" }, "geometry": { "type": "Point", "coordinates": [ 82.5549623, 22.1881817 ] } },
{ "type": "Feature", "properties": { "Survey_Point_ID": "GEVRA-SP-005", "Mine_ID": "M-GEVRA", "Mine_Code": "GEVRA", "Latitude": 22.1865494, "Longitude": 82.5425281, "RL_m": 255.2, "Point_Type": "REFERENCE", "Survey_Date": "2025-03-02", "Horizontal_Accuracy_m": 0.095, "Vertical_Accuracy_m": 0.194, "Data_Type": "SYNTHETIC_DEMO", "Source_Provenance": "Synthetic survey/control dataset" }, "geometry": { "type": "Point", "coordinates": [ 82.5425281, 22.1865494 ] } },
{ "type": "Feature", "properties": { "Survey_Point_ID": "GEVRA-SP-006", "Mine_ID": "M-GEVRA", "Mine_Code": "GEVRA", "Latitude": 22.1940584, "Longitude": 82.5565878, "RL_m": 257.81, "Point_Type": "REFERENCE", "Survey_Date": "2025-02-28", "Horizontal_Accuracy_m": 0.072, "Vertical_Accuracy_m": 0.099, "Data_Type": "SYNTHETIC_DEMO", "Source_Provenance": "Synthetic survey/control dataset" }, "geometry": { "type": "Point", "coordinates": [ 82.5565878, 22.1940584 ] } },
{ "type": "Feature", "properties": { "Survey_Point_ID": "GEVRA-SP-007", "Mine_ID": "M-GEVRA", "Mine_Code": "GEVRA", "Latitude": 22.2047299, "Longitude": 82.5085427, "RL_m": 252.75, "Point_Type": "BENCH_RL", "Survey_Date": "2025-02-20", "Horizontal_Accuracy_m": 0.092, "Vertical_Accuracy_m": 0.067, "Data_Type": "SYNTHETIC_DEMO", "Source_Provenance": "Synthetic survey/control dataset" }, "geometry": { "type": "Point", "coordinates": [ 82.5085427, 22.2047299 ] } },
{ "type": "Feature", "properties": { "Survey_Point_ID": "GEVRA-SP-008", "Mine_ID": "M-GEVRA", "Mine_Code": "GEVRA", "Latitude": 22.1944558, "Longitude": 82.5463766, "RL_m": 291.61, "Point_Type": "DGPS_CONTROL", "Survey_Date": "2025-11-28", "Horizontal_Accuracy_m": 0.059, "Vertical_Accuracy_m": 0.053, "Data_Type": "SYNTHETIC_DEMO", "Source_Provenance": "Synthetic survey/control dataset" }, "geometry": { "type": "Point", "coordinates": [ 82.5463766, 22.1944558 ] } },
{ "type": "Feature", "properties": { "Survey_Point_ID": "GEVRA-SP-009", "Mine_ID": "M-GEVRA", "Mine_Code": "GEVRA", "Latitude": 22.2204074, "Longitude": 82.5678709, "RL_m": 325.16, "Point_Type": "BENCH_RL", "Survey_Date": "2025-07-04", "Horizontal_Accuracy_m": 0.091, "Vertical_Accuracy_m": 0.128, "Data_Type": "SYNTHETIC_DEMO", "Source_Provenance": "Synthetic survey/control dataset" }, "geometry": { "type": "Point", "coordinates": [ 82.5678709, 22.2204074 ] } },
{ "type": "Feature", "properties": { "Survey_Point_ID": "GEVRA-SP-010", "Mine_ID": "M-GEVRA", "Mine_Code": "GEVRA", "Latitude": 22.1819556, "Longitude": 82.5645312, "RL_m": 265.68, "Point_Type": "REFERENCE", "Survey_Date": "2025-04-19", "Horizontal_Accuracy_m": 0.014, "Vertical_Accuracy_m": 0.079, "Data_Type": "SYNTHETIC_DEMO", "Source_Provenance": "Synthetic survey/control dataset" }, "geometry": { "type": "Point", "coordinates": [ 82.5645312, 22.1819556 ] } },
{ "type": "Feature", "properties": { "Survey_Point_ID": "GEVRA-SP-011", "Mine_ID": "M-GEVRA", "Mine_Code": "GEVRA", "Latitude": 22.1921955, "Longitude": 82.5272074, "RL_m": 316.3, "Point_Type": "REFERENCE", "Survey_Date": "2025-01-20", "Horizontal_Accuracy_m": 0.042, "Vertical_Accuracy_m": 0.071, "Data_Type": "SYNTHETIC_DEMO", "Source_Provenance": "Synthetic survey/control dataset" }, "geometry": { "type": "Point", "coordinates": [ 82.5272074, 22.1921955 ] } },
{ "type": "Feature", "properties": { "Survey_Point_ID": "GEVRA-SP-012", "Mine_ID": "M-GEVRA", "Mine_Code": "GEVRA", "Latitude": 22.1848918, "Longitude": 82.5379887, "RL_m": 314.18, "Point_Type": "DGPS_CONTROL", "Survey_Date": "2025-07-22", "Horizontal_Accuracy_m": 0.017, "Vertical_Accuracy_m": 0.198, "Data_Type": "SYNTHETIC_DEMO", "Source_Provenance": "Synthetic survey/control dataset" }, "geometry": { "type": "Point", "coordinates": [ 82.5379887, 22.1848918 ] } },
{ "type": "Feature", "properties": { "Survey_Point_ID": "GEVRA-SP-013", "Mine_ID": "M-GEVRA", "Mine_Code": "GEVRA", "Latitude": 22.1881281, "Longitude": 82.5540571, "RL_m": 250.44, "Point_Type": "REFERENCE", "Survey_Date": "2025-10-17", "Horizontal_Accuracy_m": 0.083, "Vertical_Accuracy_m": 0.147, "Data_Type": "SYNTHETIC_DEMO", "Source_Provenance": "Synthetic survey/control dataset" }, "geometry": { "type": "Point", "coordinates": [ 82.5540571, 22.1881281 ] } },
{ "type": "Feature", "properties": { "Survey_Point_ID": "GEVRA-SP-014", "Mine_ID": "M-GEVRA", "Mine_Code": "GEVRA", "Latitude": 22.2201911, "Longitude": 82.5510305, "RL_m": 255.92, "Point_Type": "PIT_RIM", "Survey_Date": "2025-05-07", "Horizontal_Accuracy_m": 0.042, "Vertical_Accuracy_m": 0.041, "Data_Type": "SYNTHETIC_DEMO", "Source_Provenance": "Synthetic survey/control dataset" }, "geometry": { "type": "Point", "coordinates": [ 82.5510305, 22.2201911 ] } },
{ "type": "Feature", "properties": { "Survey_Point_ID": "GEVRA-SP-015", "Mine_ID": "M-GEVRA", "Mine_Code": "GEVRA", "Latitude": 22.2119047, "Longitude": 82.5604172, "RL_m": 276.47, "Point_Type": "PIT_RIM", "Survey_Date": "2025-04-09", "Horizontal_Accuracy_m": 0.016, "Vertical_Accuracy_m": 0.076, "Data_Type": "SYNTHETIC_DEMO", "Source_Provenance": "Synthetic survey/control dataset" }, "geometry": { "type": "Point", "coordinates": [ 82.5604172, 22.2119047 ] } },
{ "type": "Feature", "properties": { "Survey_Point_ID": "GEVRA-SP-016", "Mine_ID": "M-GEVRA", "Mine_Code": "GEVRA", "Latitude": 22.2178579, "Longitude": 82.5227628, "RL_m": 301.0, "Point_Type": "PIT_FLOOR", "Survey_Date": "2025-03-22", "Horizontal_Accuracy_m": 0.09, "Vertical_Accuracy_m": 0.105, "Data_Type": "SYNTHETIC_DEMO", "Source_Provenance": "Synthetic survey/control dataset" }, "geometry": { "type": "Point", "coordinates": [ 82.5227628, 22.2178579 ] } },
{ "type": "Feature", "properties": { "Survey_Point_ID": "GEVRA-SP-017", "Mine_ID": "M-GEVRA", "Mine_Code": "GEVRA", "Latitude": 22.2169417, "Longitude": 82.5083716, "RL_m": 310.86, "Point_Type": "PIT_RIM", "Survey_Date": "2025-08-11", "Horizontal_Accuracy_m": 0.061, "Vertical_Accuracy_m": 0.159, "Data_Type": "SYNTHETIC_DEMO", "Source_Provenance": "Synthetic survey/control dataset" }, "geometry": { "type": "Point", "coordinates": [ 82.5083716, 22.2169417 ] } },
{ "type": "Feature", "properties": { "Survey_Point_ID": "GEVRA-SP-018", "Mine_ID": "M-GEVRA", "Mine_Code": "GEVRA", "Latitude": 22.206273, "Longitude": 82.5345657, "RL_m": 284.2, "Point_Type": "DGPS_CONTROL", "Survey_Date": "2025-01-15", "Horizontal_Accuracy_m": 0.012, "Vertical_Accuracy_m": 0.039, "Data_Type": "SYNTHETIC_DEMO", "Source_Provenance": "Synthetic survey/control dataset" }, "geometry": { "type": "Point", "coordinates": [ 82.5345657, 22.206273 ] } },
{ "type": "Feature", "properties": { "Survey_Point_ID": "GEVRA-SP-019", "Mine_ID": "M-GEVRA", "Mine_Code": "GEVRA", "Latitude": 22.212639, "Longitude": 82.5022, "RL_m": 275.15, "Point_Type": "REFERENCE", "Survey_Date": "2025-10-04", "Horizontal_Accuracy_m": 0.056, "Vertical_Accuracy_m": 0.183, "Data_Type": "SYNTHETIC_DEMO", "Source_Provenance": "Synthetic survey/control dataset" }, "geometry": { "type": "Point", "coordinates": [ 82.5022, 22.212639 ] } },
{ "type": "Feature", "properties": { "Survey_Point_ID": "GEVRA-SP-020", "Mine_ID": "M-GEVRA", "Mine_Code": "GEVRA", "Latitude": 22.1999814, "Longitude": 82.5174505, "RL_m": 310.44, "Point_Type": "DGPS_CONTROL", "Survey_Date": "2025-09-07", "Horizontal_Accuracy_m": 0.031, "Vertical_Accuracy_m": 0.034, "Data_Type": "SYNTHETIC_DEMO", "Source_Provenance": "Synthetic survey/control dataset" }, "geometry": { "type": "Point", "coordinates": [ 82.5174505, 22.1999814 ] } },
{ "type": "Feature", "properties": { "Survey_Point_ID": "GEVRA-SP-021", "Mine_ID": "M-GEVRA", "Mine_Code": "GEVRA", "Latitude": 22.1860284, "Longitude": 82.5202826, "RL_m": 324.38, "Point_Type": "REFERENCE", "Survey_Date": "2025-05-05", "Horizontal_Accuracy_m": 0.083, "Vertical_Accuracy_m": 0.134, "Data_Type": "SYNTHETIC_DEMO", "Source_Provenance": "Synthetic survey/control dataset" }, "geometry": { "type": "Point", "coordinates": [ 82.5202826, 22.1860284 ] } },
{ "type": "Feature", "properties": { "Survey_Point_ID": "GEVRA-SP-022", "Mine_ID": "M-GEVRA", "Mine_Code": "GEVRA", "Latitude": 22.2220056, "Longitude": 82.5610022, "RL_m": 264.93, "Point_Type": "PIT_RIM", "Survey_Date": "2025-02-08", "Horizontal_Accuracy_m": 0.09, "Vertical_Accuracy_m": 0.117, "Data_Type": "SYNTHETIC_DEMO", "Source_Provenance": "Synthetic survey/control dataset" }, "geometry": { "type": "Point", "coordinates": [ 82.5610022, 22.2220056 ] } },
{ "type": "Feature", "properties": { "Survey_Point_ID": "GEVRA-SP-023", "Mine_ID": "M-GEVRA", "Mine_Code": "GEVRA", "Latitude": 22.2271811, "Longitude": 82.5565208, "RL_m": 275.44, "Point_Type": "PIT_RIM", "Survey_Date": "2025-05-06", "Horizontal_Accuracy_m": 0.02, "Vertical_Accuracy_m": 0.061, "Data_Type": "SYNTHETIC_DEMO", "Source_Provenance": "Synthetic survey/control dataset" }, "geometry": { "type": "Point", "coordinates": [ 82.5565208, 22.2271811 ] } },
{ "type": "Feature", "properties": { "Survey_Point_ID": "GEVRA-SP-024", "Mine_ID": "M-GEVRA", "Mine_Code": "GEVRA", "Latitude": 22.2228088, "Longitude": 82.5298975, "RL_m": 318.86, "Point_Type": "PIT_FLOOR", "Survey_Date": "2025-09-23", "Horizontal_Accuracy_m": 0.011, "Vertical_Accuracy_m": 0.112, "Data_Type": "SYNTHETIC_DEMO", "Source_Provenance": "Synthetic survey/control dataset" }, "geometry": { "type": "Point", "coordinates": [ 82.5298975, 22.2228088 ] } },
{ "type": "Feature", "properties": { "Survey_Point_ID": "GEVRA-SP-025", "Mine_ID": "M-GEVRA", "Mine_Code": "GEVRA", "Latitude": 22.189438, "Longitude": 82.5292188, "RL_m": 259.59, "Point_Type": "PIT_RIM", "Survey_Date": "2025-10-26", "Horizontal_Accuracy_m": 0.04, "Vertical_Accuracy_m": 0.19, "Data_Type": "SYNTHETIC_DEMO", "Source_Provenance": "Synthetic survey/control dataset" }, "geometry": { "type": "Point", "coordinates": [ 82.5292188, 22.189438 ] } }
]
}
